NUMBER,NAME,TYPE,LAST_ERUPTION,COUNTRY,REGION,SUBREGION,LATITUDE,LONGITUDE,ELEVATION,POPULATION_5,POPULATION_10,POPULATION_30,POPULATION_100
210010,West Eifel Volcanic Field,Maar(s),-8300,Germany,Mediterranean and Western Asia,Western Europe,50.17,6.85,600,94991,94991,232256,7945412
210020,Chaine des Puys,Lava dome(s),-4040,France,Mediterranean and Western Asia,Western Europe,45.775,2.97,1464,323392,323392,427221,1577243
210030,Olot Volcanic Field,Pyroclastic cone(s),Unknown,Spain,Mediterranean and Western Asia,Western Europe,42.17,2.53,893,33377,33377,101153,5238117
210040,Calatrava Volcanic Field,Pyroclastic cone(s),-3600,Spain,Mediterranean and Western Asia,Western Europe,38.87,-4.02,1117,197199,197199,197199,774386
211003,Vulsini,Caldera,-104,Italy,Mediterranean and Western Asia,Italy,42.6,11.93,800,71789,71789,195475,4627250
211004,Colli Albani,Caldera,Unknown,Italy,Mediterranean and Western Asia,Italy,41.73,12.7,949,897039,897039,2962194,5330273
211010,Campi Flegrei,Caldera,1538,Italy,Mediterranean and Western Asia,Italy,40.827,14.139,458,2234109,2234109,3006865,6019697
211020,Vesuvius,Stratovolcano,1944,Italy,Mediterranean and Western Asia,Italy,40.821,14.426,1281,19162,675705,3907941,6009961
211030,Ischia,Complex,1302,Italy,Mediterranean and Western Asia,Italy,40.73,13.897,789,18669,20210,383661,5729354
211031,Palinuro,Submarine,-8040,Italy,Mediterranean and Western Asia,Italy,39.48,14.83,-70,0,0,0,225314
211040,Stromboli,Stratovolcano,2022,Italy,Mediterranean and Western Asia,Italy,38.789,15.213,924,2225,2225,3894,1347563
211041,Panarea,Stratovolcano,Unknown,Italy,Mediterranean and Western Asia,Italy,38.638,15.064,399,2127,2127,42429,1319585
211042,Lipari,Stratovolcano(es),1230,Italy,Mediterranean and Western Asia,Italy,38.49,14.933,590,26049,28925,36059,1564043
211050,Vulcano,Stratovolcano(es),1890,Italy,Mediterranean and Western Asia,Italy,38.404,14.962,500,2259,23059,86766,2093800
211060,Etna,Stratovolcano(es),2022,Italy,Mediterranean and Western Asia,Italy,37.748,14.999,3320,78,3291,1016540,3052770
211070,Campi Flegrei del Mar di Sicilia,Submarine,1867,Italy,Mediterranean and Western Asia,Italy,37.1,12.7,-8,230578,230578,230578,633350
211071,Pantelleria,Shield,1891,Italy,Mediterranean and Western Asia,Italy,36.77,12.02,836,6561,10985,12403,142817
211080,Marsili,Submarine,-1050,Italy,Mediterranean and Western Asia,Italy,39.284,14.399,-779,0,0,0,0
212020,Methana,Lava dome(s),-258,Greece,Mediterranean and Western Asia,Greece,37.615,23.336,760,152,1683,48917,4220783
212030,Milos,Stratovolcano(es),140,Greece,Mediterranean and Western Asia,Greece,36.699,24.439,751,6688,7389,9851,73100
212040,Santorini,Shield(s),1950,Greece,Mediterranean and Western Asia,Greece,36.404,25.396,367,5176,12266,12336,67468
212050,Nisyros,Stratovolcano,1888,Greece,Mediterranean and Western Asia,Greece,36.586,27.16,698,672,680,14285,461031
212051,Yali,Lava dome(s),Unknown,Greece,Mediterranean and Western Asia,Greece,36.671,27.14,180,5,499,36517,430920
213000,Kula,Pyroclastic cone(s),Unknown,Turkey,Mediterranean and Western Asia,Turkey,38.58,28.52,750,66866,66866,187845,2655406
213001,Karapinar Field,Pyroclastic cone(s),Unknown,Turkey,Mediterranean and Western Asia,Turkey,37.667,33.6,1302,46013,46013,73698,1220961
213002,Hasan Dagi,Stratovolcano,Unknown,Turkey,Mediterranean and Western Asia,Turkey,38.13,34.17,3253,235,4979,174584,1362673
213003,Gollu Dag,Lava dome,Unknown,Turkey,Mediterranean and Western Asia,Turkey,38.25,34.57,2143,835,20644,155618,2049981
213004,Acigol-Nevsehir,Caldera,-2080,Turkey,Mediterranean and Western Asia,Turkey,38.537,34.621,1683,127863,127863,218469,2253483
213010,Erciyes Dagi,Stratovolcano,-6880,Turkey,Mediterranean and Western Asia,Turkey,38.531,35.447,3864,1715,8036,767813,1817720
213011,Karaca Dag,Shield,Unknown,Turkey,Mediterranean and Western Asia,Turkey,37.67,39.83,1957,2157,6718,93286,2344496
213020,Nemrut Dagi,Stratovolcano,1650,Turkey,Mediterranean and Western Asia,Turkey,38.654,42.229,2948,608,7399,230531,1618263
213030,Tenduruk Dagi,Shield,1855,Turkey,Mediterranean and Western Asia,Turkey,39.356,43.874,3514,550,5060,173581,1938900
213040,Ararat,Stratovolcano,1840,Turkey,Mediterranean and Western Asia,Turkey,39.7,44.3,5165,25,1239,135563,2811646
214010,Elbrus,Stratovolcano,50,Russia,Mediterranean and Western Asia,Western Asia,43.351,42.442,5642,26,195,5718,1469719
214020,Kazbek,Stratovolcano,-750,Georgia,Mediterranean and Western Asia,Western Asia,42.7,44.5,5050,0,9,7693,1749897
214050,Samsari Volcanic Center,Lava cone(s),Unknown,Georgia,Mediterranean and Western Asia,Western Asia,41.542,43.7,3290,13210,13210,86563,1467499
214060,Aragats,Stratovolcano,Unknown,Armenia,Mediterranean and Western Asia,Western Asia,40.53,44.2,4095,0,163,150143,3046562
214070,Ghegham Volcanic Ridge,Volcanic field,-1900,Armenia,Mediterranean and Western Asia,Western Asia,40.283,45,3597,1265153,1265153,1265153,3151168
214080,Vaiyots-Sar,Pyroclastic cone(s),-2000,Armenia,Mediterranean and Western Asia,Western Asia,39.797,45.497,2575,31477,31477,57079,1465950
221010,"Tair, Jebel at",Stratovolcano,2008,Yemen,Africa and Red Sea,Africa (northeastern) and Red Sea,15.55,41.83,244,0,0,0,14493
221020,Zubair Group,Shield,2013,Yemen,Africa and Red Sea,Africa (northeastern) and Red Sea,15.05,42.18,191,7,7,7,671171
221021,Zukur,Shield,Unknown,Yemen,Africa and Red Sea,Africa (northeastern) and Red Sea,14.02,42.75,624,508,922,1075,1472800
221022,Hanish,Shield,Unknown,Yemen,Africa and Red Sea,Africa (northeastern) and Red Sea,13.72,42.73,422,219,304,811,850223
221040,Alid,Stratovolcano,Unknown,Eritrea,Africa and Red Sea,Africa (northeastern) and Red Sea,14.88,39.92,904,517,2447,25942,1216179
221041,Dallol,Explosion crater(s),2011,Ethiopia,Africa and Red Sea,Africa (northeastern) and Red Sea,14.242,40.3,-48,461,670,2372,820823
221050,Gada Ale,Stratovolcano,Unknown,Ethiopia,Africa and Red Sea,Africa (northeastern) and Red Sea,13.975,40.408,287,101,605,4827,618972
221060,Alu-Dalafilla,Fissure vent(s),2008,Ethiopia,Africa and Red Sea,Africa (northeastern) and Red Sea,13.793,40.553,578,0,9,11209,478054
221071,Bora Ale,Stratovolcano,Unknown,Ethiopia,Africa and Red Sea,Africa (northeastern) and Red Sea,13.725,40.6,668,0,0,11328,339803
221080,Erta Ale,Shield,2022,Ethiopia,Africa and Red Sea,Africa (northeastern) and Red Sea,13.6,40.67,613,2685,2796,8857,235083
221090,Ale Bagu,Stratovolcano,Unknown,Ethiopia,Africa and Red Sea,Africa (northeastern) and Red Sea,13.512,40.631,988,2,919,8424,278270
221091,Hayli Gubbi,Shield,Unknown,Ethiopia,Africa and Red Sea,Africa (northeastern) and Red Sea,13.51,40.722,493,0,83,4266,179357
221100,Dubbi,Stratovolcano,1861,Eritrea,Africa and Red Sea,Africa (northeastern) and Red Sea,13.579,41.809,1625,0,0,18,14867
221101,Nabro,Stratovolcano,2012,Eritrea,Africa and Red Sea,Africa (northeastern) and Red Sea,13.37,41.7,2218,24,145,2713,26881
221104,Asavyo,Shield,Unknown,Ethiopia,Africa and Red Sea,Africa (northeastern) and Red Sea,13.098,41.599,1338,84,479,7697,47836
221105,Mat Ala,Shield,Unknown,Ethiopia,Africa and Red Sea,Africa (northeastern) and Red Sea,13.106,41.161,493,45,92,6756,83190
221106,Tat Ali,Shield,Unknown,Ethiopia,Africa and Red Sea,Africa (northeastern) and Red Sea,13.284,41.063,655,32,44,2130,100598
221107,Borawli,Stratovolcano,Unknown,Ethiopia,Africa and Red Sea,Africa (northeastern) and Red Sea,13.304,40.987,784,38,100,3699,111101
221110,Afdera,Stratovolcano,Unknown,Ethiopia,Africa and Red Sea,Africa (northeastern) and Red Sea,13.088,40.853,1250,51,6042,8611,161009
221111,Ma Alalta,Stratovolcano,Unknown,Ethiopia,Africa and Red Sea,Africa (northeastern) and Red Sea,13.013,40.185,1745,3925,25246,66381,1332833
221112,Alayta,Shield,1915,Ethiopia,Africa and Red Sea,Africa (northeastern) and Red Sea,12.888,40.573,1496,156,925,13459,330411
221113,Dabbahu,Stratovolcano,2005,Ethiopia,Africa and Red Sea,Africa (northeastern) and Red Sea,12.595,40.48,1401,204,1150,36494,540735
221114,Dabbayra,Shield,Unknown,Ethiopia,Africa and Red Sea,Africa (northeastern) and Red Sea,12.38,40.07,1302,804,3324,47053,1946949
221115,Manda Hararo,Shield(s),2009,Ethiopia,Africa and Red Sea,Africa (northeastern) and Red Sea,12.17,40.82,600,191,857,7455,419204
221116,Groppo,Volcanic field,Unknown,Ethiopia,Africa and Red Sea,Africa (northeastern) and Red Sea,11.816,40.242,852,2411,10358,93790,2462199
221120,Kurub,Shield,Unknown,Ethiopia,Africa and Red Sea,Africa (northeastern) and Red Sea,11.88,41.208,625,8,9,64938,341992
221125,Assab Volcanic Field,Volcanic field,Unknown,Eritrea,Africa and Red Sea,Africa (northeastern) and Red Sea,12.95,42.43,987,9,9,97,181952
221126,Ardoukoba,Fissure vent(s),1978,Djibouti,Africa and Red Sea,Africa (northeastern) and Red Sea,11.58,42.47,298,2895,2895,6898,560146
221127,Manda Gargori,Fissure vent(s),Unknown,Ethiopia,Africa and Red Sea,Africa (northeastern) and Red Sea,11.75,41.48,700,284,1127,74334,310427
221141,Dama Ali,Shield,1631,Ethiopia,Africa and Red Sea,Africa (northeastern) and Red Sea,11.28,41.63,1068,24,1944,40013,353949
221150,Gabillema,Stratovolcano,Unknown,Ethiopia,Africa and Red Sea,Africa (northeastern) and Red Sea,11.08,41.27,1459,248,772,12626,373968
221151,Yangudi,Complex,Unknown,Ethiopia,Africa and Red Sea,Africa (northeastern) and Red Sea,10.58,41.042,1383,33,795,11672,519635
221160,Ayelu,Stratovolcano,Unknown,Ethiopia,Africa and Red Sea,Africa (northeastern) and Red Sea,10.082,40.702,2145,193,1375,33262,1279214
221170,Adwa,Stratovolcano,Unknown,Ethiopia,Africa and Red Sea,Africa (northeastern) and Red Sea,10.063,40.831,1670,101,485,18645,1242922
221171,Hertali,Fissure vent,Unknown,Ethiopia,Africa and Red Sea,Africa (northeastern) and Red Sea,9.78,40.33,900,474,2243,65271,2279187
221172,Liado Hayk,Maar(s),Unknown,Ethiopia,Africa and Red Sea,Africa (northeastern) and Red Sea,9.57,40.28,878,22847,22847,54244,2688559
221180,Dofan,Shield,Unknown,Ethiopia,Africa and Red Sea,Africa (northeastern) and Red Sea,9.35,40.13,1151,1900,12452,54928,2900053
221190,Fentale,Stratovolcano,1820,Ethiopia,Africa and Red Sea,Africa (northeastern) and Red Sea,8.975,39.93,2007,1919,14201,169357,3482286
221191,Beru,Volcanic field,Unknown,Ethiopia,Africa and Red Sea,Africa (northeastern) and Red Sea,8.95,39.75,1100,3850,20176,196084,3809644
221200,Kone,Caldera(s),1820,Ethiopia,Africa and Red Sea,Africa (northeastern) and Red Sea,8.788,39.701,1380,7289,27271,255387,4245801
221210,Boset-Bericha,Stratovolcano(es),Unknown,Ethiopia,Africa and Red Sea,Africa (northeastern) and Red Sea,8.558,39.475,2447,3267,19603,586318,7130451
221220,Bishoftu Volcanic Field,Fissure vent(s),Unknown,Ethiopia,Africa and Red Sea,Africa (northeastern) and Red Sea,8.78,38.98,1850,310101,310101,662037,7986826
221222,Sodore,Pyroclastic cone(s),Unknown,Ethiopia,Africa and Red Sea,Africa (northeastern) and Red Sea,8.43,39.35,1765,432998,432998,648056,7539098
221230,Gedamsa,Caldera,Unknown,Ethiopia,Africa and Red Sea,Africa (northeastern) and Red Sea,8.357,39.188,1873,216008,216008,744211,8000105
221240,Bora-Bericcio,Pyroclastic cone(s),Unknown,Ethiopia,Africa and Red Sea,Africa (northeastern) and Red Sea,8.221,39.05,2267,5822,44666,433373,8356559
221250,Tullu Moye,Pyroclastic cone,1900,Ethiopia,Africa and Red Sea,Africa (northeastern) and Red Sea,8.159,39.137,2343,11514,51976,546291,5565084
221251,Unnamed,Fissure vent(s),Unknown,Ethiopia,Africa and Red Sea,Africa (northeastern) and Red Sea,8.013,39.062,1886,283786,283786,502586,5504017
221252,East Ziway,Fissure vent(s),Unknown,Ethiopia,Africa and Red Sea,Africa (northeastern) and Red Sea,7.874,38.902,1889,85845,85845,432279,6051149
221260,Butajiri-Silti Field,Fissure vent(s),Unknown,Ethiopia,Africa and Red Sea,Africa (northeastern) and Red Sea,8.05,38.35,2281,431631,431631,889323,7096283
221270,Aluto,Stratovolcano,-50,Ethiopia,Africa and Red Sea,Africa (northeastern) and Red Sea,7.77,38.78,2335,6011,25619,314216,6813710
221280,O'a Caldera,Caldera,Unknown,Ethiopia,Africa and Red Sea,Africa (northeastern) and Red Sea,7.47,38.58,2075,148588,148588,477361,8808566
221290,Corbetti Caldera,Caldera,Unknown,Ethiopia,Africa and Red Sea,Africa (northeastern) and Red Sea,7.193,38.39,2320,565206,565206,1171948,9794061
221291,Bilate River Field,Maar(s),Unknown,Ethiopia,Africa and Red Sea,Africa (northeastern) and Red Sea,7.07,38.1,1700,359001,359001,1222547,9860754
221292,Tepi,Shield,Unknown,Ethiopia,Africa and Red Sea,Africa (northeastern) and Red Sea,7.42,35.43,2728,63395,63395,207121,1629787
221294,Northern Lake Abaya Volcanic Field,Volcanic field,Unknown,Ethiopia,Africa and Red Sea,Africa (northeastern) and Red Sea,6.76,37.97,1594,0,0,0,0
221311,East Chamo Basin,Pyroclastic cone(s),Unknown,Ethiopia,Africa and Red Sea,Africa (northeastern) and Red Sea,5.708,37.713,1150,78416,78416,194759,2991755
221320,Korath Range,Tuff cone(s),Unknown,Ethiopia,Africa and Red Sea,Africa (northeastern) and Red Sea,5.1,35.88,912,24549,24549,48969,270726
221330,Mega Volcanic Field,Volcanic field,Unknown,Ethiopia,Africa and Red Sea,Africa (northeastern) and Red Sea,3.971,38.213,1500,0,0,0,0
222001,North Island,Tuff cone(s),Unknown,Kenya,Africa and Red Sea,Africa (eastern),4.059,36.049,490,21,21,7326,180900
222010,Central Island,Tuff cone(s),Unknown,Kenya,Africa and Red Sea,Africa (eastern),3.496,36.04,518,28,28,10253,216485
222020,South Island,Stratovolcano,1888,Kenya,Africa and Red Sea,Africa (eastern),2.63,36.6,800,0,0,1959,98303
222021,Marsabit,Shield,Unknown,Kenya,Africa and Red Sea,Africa (eastern),2.32,37.97,1707,16804,22677,49742,111322
222030,"Barrier, The",Shield,1921,Kenya,Africa and Red Sea,Africa (eastern),2.32,36.57,1032,17,112,4180,109675
222040,Namarunu,Shield,-6550,Kenya,Africa and Red Sea,Africa (eastern),1.98,36.43,817,47,537,7073,186674
222050,Segererua Plateau,Pyroclastic cone(s),Unknown,Kenya,Africa and Red Sea,Africa (eastern),1.57,37.9,699,5211,5211,11949,147996
222051,Emuruangogolak,Shield,1910,Kenya,Africa and Red Sea,Africa (eastern),1.5,36.33,1285,80,252,4448,445177
222052,Silali,Shield,-5050,Kenya,Africa and Red Sea,Africa (eastern),1.15,36.23,1528,157,784,18705,917921
222053,Paka,Shield,-7550,Kenya,Africa and Red Sea,Africa (eastern),0.92,36.18,1697,468,4354,62835,1256175
222054,Korosi,Shield,Unknown,Kenya,Africa and Red Sea,Africa (eastern),0.77,36.12,1446,1256,9641,85474,2051312
222055,Ol Kokwe,Shield,Unknown,Kenya,Africa and Red Sea,Africa (eastern),0.62,36.075,1130,151,8229,115689,2700016
222056,Nyambeni Hills,Shield,Unknown,Kenya,Africa and Red Sea,Africa (eastern),0.23,37.87,750,13389,107199,768936,2781323
222060,Menengai,Shield,-6050,Kenya,Africa and Red Sea,Africa (eastern),-0.2,36.07,2278,2192,204608,886293,4259089
222070,Homa Mountain,Complex,Unknown,Kenya,Africa and Red Sea,Africa (eastern),-0.38,34.5,1751,16124,60670,628701,10069120
222071,Elmenteita Badlands,Pyroclastic cone(s),Unknown,Kenya,Africa and Red Sea,Africa (eastern),-0.52,36.27,2126,134553,134553,445904,6117963
222080,"Eburru, Ol Doinyo",Complex,Unknown,Kenya,Africa and Red Sea,Africa (eastern),-0.65,36.22,2856,460,9365,323529,7992639
222090,Olkaria,Pyroclastic cone(s),1770,Kenya,Africa and Red Sea,Africa (eastern),-0.904,36.292,2434,59747,59747,208003,8437829
222100,Longonot,Stratovolcano,1863,Kenya,Africa and Red Sea,Africa (eastern),-0.914,36.446,2776,809,17893,410677,8750154
222110,Suswa,Shield,Unknown,Kenya,Africa and Red Sea,Africa (eastern),-1.151,36.357,2356,474,4041,105232,6914644
222120,"Lengai, Ol Doinyo",Stratovolcano,2022,Tanzania,Africa and Red Sea,Africa (eastern),-2.764,35.914,2962,186,1855,18074,545305
222130,Chyulu Hills,Volcanic field,1855,Kenya,Africa and Red Sea,Africa (eastern),-2.68,37.88,2188,14889,14889,91280,1784980
222160,Meru,Stratovolcano,1910,Tanzania,Africa and Red Sea,Africa (eastern),-3.244,36.75,4550,0,2506,828942,2375631
222161,Igwisi Hills,Pyroclastic cone(s),-10450,Tanzania,Africa and Red Sea,Africa (eastern),-4.889,31.933,1146,37034,37034,105827,774440
222164,Ngozi,Caldera,1450,Tanzania,Africa and Red Sea,Africa (eastern),-8.989,33.554,2614,456466,456466,604376,2195623
222166,Rungwe,Stratovolcano,1250,Tanzania,Africa and Red Sea,Africa (eastern),-9.135,33.668,2953,644,20713,393819,2299914
222170,Kyejo,Stratovolcano,1800,Tanzania,Africa and Red Sea,Africa (eastern),-9.229,33.792,2176,2259,38428,378511,2263665
223001,Fort Portal,Tuff cone(s),-2120,Uganda,Africa and Red Sea,Africa (central),0.7,30.25,1615,242914,242914,498815,4167189
223002,Kyatwa,Tuff cone(s),Unknown,Uganda,Africa and Red Sea,Africa (central),0.45,30.25,1430,271685,271685,537190,4350194
223003,Katwe-Kikorongo,Tuff cone(s),Unknown,Uganda,Africa and Red Sea,Africa (central),-0.08,29.92,1067,446218,446218,578503,6241035
223004,Bunyaruguru,Maar(s),Unknown,Uganda,Africa and Red Sea,Africa (central),-0.2,30.08,1554,177517,177517,338735,5955535
223005,Katunga,Tuff cone,Unknown,Uganda,Africa and Red Sea,Africa (central),-0.471,30.191,1707,9430,144953,657740,5787434
223020,Nyamulagira,Shield,2022,DR Congo,Africa and Red Sea,Africa (central),-1.408,29.2,3058,3751,27027,711356,8333476
223030,Nyiragongo,Stratovolcano,2022,DR Congo,Africa and Red Sea,Africa (central),-1.52,29.25,3470,2416,31145,1006436,9087529
223070,Bufumbira,Pyroclastic cone(s),Unknown,Uganda,Africa and Red Sea,Africa (central),-1.304,29.683,2100,436134,436134,830916,10342253
224002,San Carlos,Shield,Unknown,Equatorial Guinea,Africa and Red Sea,Africa (western),3.35,8.52,2260,0,428,15688,142724
224003,San Joaquin,Shield,Unknown,Equatorial Guinea,Africa and Red Sea,Africa (western),3.35,8.63,2009,706,1432,16190,349646
224004,Santa Isabel,Shield,1923,Equatorial Guinea,Africa and Red Sea,Africa (western),3.588,8.762,2999,95977,95977,117500,506900
224010,Cameroon,Stratovolcano,2000,Cameroon,Africa and Red Sea,Africa (western),4.203,9.17,4095,328,26053,417460,3079036
224011,Tombel Graben,Pyroclastic cone(s),Unknown,Cameroon,Africa and Red Sea,Africa (western),4.758,9.717,500,234623,234623,434892,4087423
224030,Oku Volcanic Field,Stratovolcano,Unknown,Cameroon,Africa and Red Sea,Africa (western),6.25,10.5,3011,131944,131944,399741,3698980
225001,Todra Volcanic Field,Pyroclastic cone(s),Unknown,Niger,Africa and Red Sea,Africa (northern),17.68,8.5,1780,362,362,927,146935
225004,Tahalra Volcanic Field,Pyroclastic cone(s),Unknown,Algeria,Africa and Red Sea,Africa (northern),22.67,5,1467,0,0,518,86063
225005,Atakor Volcanic Field,Pyroclastic cone(s),Unknown,Algeria,Africa and Red Sea,Africa (northern),23.33,5.83,2918,0,0,0,116453
225006,Manzaz Volcanic Field,Pyroclastic cone(s),Unknown,Algeria,Africa and Red Sea,Africa (northern),23.92,5.83,1672,1196,1196,1326,5278
225009,"Toh, Tarso",Volcanic field,Unknown,Chad,Africa and Red Sea,Africa (northern),21.33,16.33,2000,0,0,0,4088
225010,"Tousside, Tarso",Stratovolcano,Unknown,Chad,Africa and Red Sea,Africa (northern),21.03,16.45,3265,0,0,394,5038
225020,"Voon, Tarso",Stratovolcano,Unknown,Chad,Africa and Red Sea,Africa (northern),20.92,17.28,3100,0,0,0,3220
225021,"Koussi, Emi",Pyroclastic shield,Unknown,Chad,Africa and Red Sea,Africa (northern),19.8,18.53,3415,0,8,26,1616
225030,"Marra, Jebel",Volcanic field,-2000,Sudan,Africa and Red Sea,Africa (northern),12.95,24.27,3042,638,8692,120061,983802
225040,Kutum Volcanic Field,Pyroclastic cone(s),Unknown,Sudan,Africa and Red Sea,Africa (northern),14.57,25.85,1779,30569,30569,30569,194797
225050,Meidob Volcanic Field,Pyroclastic cone(s),-2950,Sudan,Africa and Red Sea,Africa (northern),15.32,26.47,2000,5140,5140,5140,24193
225060,Bayuda Volcanic Field,Pyroclastic cone(s),850,Sudan,Africa and Red Sea,Africa (northern),18.33,32.75,670,1124,1124,2752,259325
230010,Sharat Kovakab,Volcanic field,Unknown,Syria,Middle East and Indian Ocean,Middle East (western),36.536,40.858,516,176268,176268,228172,1826752
231040,"Lunayyir, Harrat",Volcanic field,1000,Saudi Arabia,Middle East and Indian Ocean,Middle East (southern),25.17,37.75,1370,234,234,234,61662
231050,"Ithnayn, Harrat",Volcanic field,Unknown,Saudi Arabia,Middle East and Indian Ocean,Middle East (southern),26.58,40.2,1625,3112,3112,3112,19734
231060,"Khaybar, Harrat",Volcanic field,650,Saudi Arabia,Middle East and Indian Ocean,Middle East (southern),25.5,40,2093,13619,13619,13619,1415732
231070,"Rahat, Harrat",Volcanic field,1256,Saudi Arabia,Middle East and Indian Ocean,Middle East (southern),23.08,39.78,1744,138380,1010115,1010115,1010115
231071,"Kishb, Harrat",Volcanic field,Unknown,Saudi Arabia,Middle East and Indian Ocean,Middle East (southern),22.8,41.38,1475,8028,8028,8028,25048
231072,"Birk, Harrat al",Volcanic field,Unknown,Saudi Arabia,Middle East and Indian Ocean,Middle East (southern),18.37,41.63,587,37855,37855,37855,596401
231080,"Yar, Jabal",Volcanic field,1810,Saudi Arabia,Middle East and Indian Ocean,Middle East (southern),17.05,42.83,305,292582,292582,574162,2204954
231090,"Arhab, Harra of",Volcanic field,500,Yemen,Middle East and Indian Ocean,Middle East (southern),15.63,44.08,3100,284443,284443,820695,6517834
231100,"Marha, Jabal el-",Tuff cone,Unknown,Yemen,Middle East and Indian Ocean,Middle East (southern),15.245,44.236,2506,7617,215379,2502680,6484784
231110,"Haylan, Jabal",Volcanic field,-1200,Yemen,Middle East and Indian Ocean,Middle East (southern),15.4,45.1,1550,225754,225754,225754,4164209
231120,"Dhamar, Harras of",Volcanic field,1937,Yemen,Middle East and Indian Ocean,Middle East (southern),14.57,44.67,3500,791276,791276,791276,5778965
231160,"Sawad, Harra Es-",Volcanic field,1253,Yemen,Middle East and Indian Ocean,Middle East (southern),13.58,46.12,1737,74598,74598,74598,850297
231170,Balhaf-Bir Ali Volcanic Field,Volcanic field,Unknown,Yemen,Middle East and Indian Ocean,Middle East (southern),14.067,48.3,604,5690,5690,6643,177124
231180,Bir Borhut,Volcanic field,Unknown,Yemen,Middle East and Indian Ocean,Middle East (southern),15.515,50.935,464,517,517,2117,115648
232001,Sahand,Stratovolcano,Unknown,Iran,Middle East and Indian Ocean,Middle East (western),37.75,46.43,3707,163,1449,60328,2878308
232002,Sabalan,Stratovolcano,Unknown,Iran,Middle East and Indian Ocean,Middle East (western),38.268,47.835,4784,136,762,103605,1961046
232010,Damavand,Stratovolcano,-5350,Iran,Middle East and Indian Ocean,Middle East (western),35.951,52.109,5670,27,2295,59171,11945981
232030,Bazman,Stratovolcano,Unknown,Iran,Middle East and Indian Ocean,Middle East (eastern),28.07,60,3490,8,64,7370,102151
232040,Kuh-e Nader,Volcanic field,Unknown,Iran,Middle East and Indian Ocean,Middle East (eastern),28.17,60.67,1500,2979,2979,17818,232462
232050,Taftan,Stratovolcano,Unknown,Iran,Middle East and Indian Ocean,Middle East (eastern),28.6,61.13,3940,8,132,8118,191711
233001,"Grille, La",Shield,Unknown,Comoros,Middle East and Indian Ocean,Indian Ocean (western),-11.47,43.33,1087,154373,154373,243474,371795
233005,Mayotte,Shield,2019,France,Middle East and Indian Ocean,Indian Ocean (western),-12.83,45.17,660,0,0,0,0
233010,Karthala,Shield,2007,Comoros,Middle East and Indian Ocean,Indian Ocean (western),-11.75,43.38,2361,225379,225379,278330,399067
233011,Ambre-Bobaomby,Volcanic field,Unknown,Madagascar,Middle East and Indian Ocean,Indian Ocean (western),-12.6,49.15,1475,20396,20396,51426,408436
233012,Nosy-Be,Pyroclastic cone(s),Unknown,Madagascar,Middle East and Indian Ocean,Indian Ocean (western),-13.32,48.48,214,14015,14015,61656,396548
233013,Ankaizina Field,Pyroclastic cone(s),Unknown,Madagascar,Middle East and Indian Ocean,Indian Ocean (western),-14.3,48.67,2878,9628,9628,41916,637393
233014,Itasy Volcanic Field,Pyroclastic cone(s),-6050,Madagascar,Middle East and Indian Ocean,Indian Ocean (western),-19.033,46.7,1800,129121,129121,249291,4168513
233015,Vakinankaratra,Pyroclastic cone(s),Unknown,Madagascar,Middle East and Indian Ocean,Indian Ocean (western),-19.85,46.942,2644,123192,123192,413328,5184370
233020,"Fournaise, Piton de la",Shield,2022,France,Middle East and Indian Ocean,Indian Ocean (western),-21.244,55.708,2632,55859,55859,246792,717820
234000,Boomerang Seamount,Submarine,1995,France,Middle East and Indian Ocean,Indian Ocean (southern),-37.721,77.825,-650,0,0,0,0
234001,Amsterdam Island,Stratovolcano,Unknown,France,Middle East and Indian Ocean,Indian Ocean (southern),-37.83,77.52,881,0,0,0,0
234002,St. Paul,Stratovolcano,1793,France,Middle East and Indian Ocean,Indian Ocean (southern),-38.72,77.53,268,0,0,0,0
234010,Heard,Stratovolcano,2021,Australia,Middle East and Indian Ocean,Indian Ocean (southern),-53.106,73.513,2745,0,0,0,0
234011,McDonald Islands,Complex,2005,Australia,Middle East and Indian Ocean,Indian Ocean (southern),-53.03,72.6,230,0,0,0,0
234020,Kerguelen Islands,Stratovolcano(es),Unknown,France,Middle East and Indian Ocean,Indian Ocean (southern),-49.58,69.5,1840,0,0,0,0
234030,"Est, Ile de l'",Stratovolcano,Unknown,France,Middle East and Indian Ocean,Indian Ocean (southern),-46.43,52.2,1090,0,0,0,0
234040,"Possession, Ile de la",Stratovolcano,Unknown,France,Middle East and Indian Ocean,Indian Ocean (southern),-46.42,51.75,934,0,0,0,0
234050,"Cochons, Ile aux",Stratovolcano,Unknown,France,Middle East and Indian Ocean,Indian Ocean (southern),-46.1,50.23,775,0,0,0,0
234060,Prince Edward Island,Shield,Unknown,South Africa,Middle East and Indian Ocean,Indian Ocean (southern),-46.63,37.95,672,0,0,0,0
234070,Marion Island,Shield(s),2004,South Africa,Middle East and Indian Ocean,Indian Ocean (southern),-46.9,37.75,1230,0,0,0,0
241010,Kaikohe-Bay of Islands,Volcanic field,400,New Zealand,New Zealand to Fiji,New Zealand,-35.3,173.9,388,13786,13786,18679,133899
241011,Whangarei,Pyroclastic cone(s),Unknown,New Zealand,New Zealand to Fiji,New Zealand,-35.75,174.27,397,51419,51419,62244,145873
241020,Auckland Volcanic Field,Volcanic field,1446,New Zealand,New Zealand to Fiji,New Zealand,-36.89,174.81,260,1049110,1049110,1222436,1446768
241021,Mayor Island,Shield,-5060,New Zealand,New Zealand to Fiji,New Zealand,-37.28,176.25,355,105,105,141,355290
241030,Taranaki,Stratovolcano,1800,New Zealand,New Zealand to Fiji,New Zealand,-39.3,174.07,2518,200,230,77381,104499
241040,Whakaari/White Island,Stratovolcano(es),2019,New Zealand,New Zealand to Fiji,New Zealand,-37.52,177.18,294,5,5,5,190290
241050,Okataina,Lava dome(s),1981,New Zealand,New Zealand to Fiji,New Zealand,-38.12,176.5,1111,18,579,79591,362413
241070,Taupo,Caldera,260,New Zealand,New Zealand to Fiji,New Zealand,-38.82,176,760,21456,21456,26674,161966
241080,Tongariro,Stratovolcano(es),2012,New Zealand,New Zealand to Fiji,New Zealand,-39.157,175.632,1978,27,286,7591,81567
241100,Ruapehu,Stratovolcano,2007,New Zealand,New Zealand to Fiji,New Zealand,-39.28,175.57,2797,14,298,6901,119709
241101,Clark,Submarine,Unknown,New Zealand,New Zealand to Fiji,New Zealand,-36.446,177.839,-860,0,0,0,0
241102,Tangaroa,Submarine,Unknown,New Zealand,New Zealand to Fiji,New Zealand,-36.321,178.028,-600,0,0,0,0
241110,Rumble V,Submarine,Unknown,New Zealand,New Zealand to Fiji,New Zealand,-36.142,178.196,-400,0,0,0,0
241120,Rumble IV,Submarine,Unknown,New Zealand,New Zealand to Fiji,New Zealand,-36.13,178.05,-500,0,0,0,0
241130,Rumble III,Submarine,2008,New Zealand,New Zealand to Fiji,New Zealand,-35.745,178.478,-220,0,0,0,0
241131,Rumble II West,Submarine,Unknown,New Zealand,New Zealand to Fiji,New Zealand,-35.353,178.527,-1200,0,0,0,0
241140,Healy,Submarine,1360,New Zealand,New Zealand to Fiji,New Zealand,-35.004,178.973,-980,0,0,0,0
241150,Brothers,Submarine,Unknown,New Zealand,New Zealand to Fiji,New Zealand,-34.875,179.075,-1350,0,0,0,0
242001,Wright,Submarine(es),Unknown,New Zealand,New Zealand to Fiji,Kermadec Islands,-31.85,-179.18,-900,0,0,0,0
242005,Havre Seamount,Submarine,2012,New Zealand,New Zealand to Fiji,Kermadec Islands,-31.08,-179.033,-897,0,0,0,0
242010,Curtis Island,Submarine,Unknown,New Zealand,New Zealand to Fiji,Kermadec Islands,-30.543,-178.556,47,0,0,0,0
242021,Macauley,Caldera,-4360,New Zealand,New Zealand to Fiji,Kermadec Islands,-30.21,-178.475,238,0,0,0,0
242022,Giggenbach,Submarine,Unknown,New Zealand,New Zealand to Fiji,Kermadec Islands,-30.036,-178.712,-65,0,0,0,0
242030,Raoul Island,Stratovolcano,2006,New Zealand,New Zealand to Fiji,Kermadec Islands,-29.27,-177.92,516,0,0,0,0
242050,Monowai,Stratovolcano,2012,New Zealand,New Zealand to Fiji,Kermadec Islands,-25.887,-177.188,-132,0,0,0,0
243001,Unnamed,Submarine,Unknown,Tonga,New Zealand to Fiji,Tonga Islands,-24.8,-177.02,-385,0,0,0,0
243010,Unnamed,Submarine,1932,Tonga,New Zealand to Fiji,Tonga Islands,-21.338,-175.65,-68,0,0,0,88771
243011,Unnamed,Submarine,Unknown,Tonga,New Zealand to Fiji,Tonga Islands,-21.15,-175.75,-65,0,0,0,67409
243030,Unnamed,Submarine,2017,Tonga,New Zealand to Fiji,Tonga Islands,-20.852,-175.55,-296,0,0,0,88571
243040,Hunga Tonga-Hunga Ha'apai,Submarine,2022,Tonga,New Zealand to Fiji,Tonga Islands,-20.536,-175.382,114,230,230,532,86213
243050,Fonuafo'ou,Submarine,1936,Tonga,New Zealand to Fiji,Tonga Islands,-20.32,-175.42,-17,302,302,532,69016
243060,Tofua,Caldera,2022,Tonga,New Zealand to Fiji,Tonga Islands,-19.75,-175.07,515,1556,1556,1556,8789
243061,Kao,Stratovolcano,1847,Tonga,New Zealand to Fiji,Tonga Islands,-19.668,-175.016,1009,236,1170,1563,8602
243070,Lateiki,Submarine,2019,Tonga,New Zealand to Fiji,Tonga Islands,-19.18,-174.87,43,18,18,18,7907
243080,Home Reef,Submarine,2006,Tonga,New Zealand to Fiji,Tonga Islands,-18.992,-174.775,-10,0,0,142,21334
243090,Late,Stratovolcano,1854,Tonga,New Zealand to Fiji,Tonga Islands,-18.806,-174.65,540,158,158,158,17190
243091,Unnamed,Submarine,2001,Tonga,New Zealand to Fiji,Tonga Islands,-18.325,-174.365,-40,0,0,20,18153
243100,Fonualei,Stratovolcano,1957,Tonga,New Zealand to Fiji,Tonga Islands,-18.023,-174.317,188,71,71,91,17857
243101,Tafahi,Stratovolcano,Unknown,Tonga,New Zealand to Fiji,Tonga Islands,-15.85,-173.72,560,37,37,1706,1706
243102,Curacoa,Submarine,1979,Tonga,New Zealand to Fiji,Tonga Islands,-15.62,-173.67,-33,0,0,37,1755
243110,Niuafo'ou,Shield,1985,Tonga,New Zealand to Fiji,Tonga Islands,-15.6,-175.63,260,118,155,155,155
243111,Dugong,Submarine,Unknown,Tonga,New Zealand to Fiji,Tonga Islands,-15.431,-175.725,-1170,0,0,0,0
243112,Lobster,Submarine,Unknown,Tonga,New Zealand to Fiji,Tonga Islands,-15.333,-176.283,-1500,0,0,0,0
243120,Tafu-Maka,Submarine,2008,Tonga,New Zealand to Fiji,Tonga Islands,-15.37,-174.23,-1400,0,0,0,1755
243130,West Mata,Submarine,2009,Tonga,New Zealand to Fiji,Tonga Islands,-15.1,-173.75,-1174,0,0,0,1755
243140,Niuatahi,Caldera,Unknown,Tonga,New Zealand to Fiji,Tonga Islands,-15.379,-174.003,-1270,0,0,0,0
244000,Vailulu'u,Submarine,2003,United States,New Zealand to Fiji,Samoan and Wallis Islands,-14.215,-169.058,-592,0,0,0,1387
244001,Ta'u,Shield,Unknown,United States,New Zealand to Fiji,Samoan and Wallis Islands,-14.23,-169.454,931,95,1154,1538,1538
244010,Ofu-Olosega,Shield(s),1866,United States,New Zealand to Fiji,Samoan and Wallis Islands,-14.175,-169.618,639,220,384,1387,1387
244020,Tutuila,Tuff cone(s),440,United States,New Zealand to Fiji,Samoan and Wallis Islands,-14.295,-170.7,653,16653,49763,56239,67387
244030,Upolu,Shield,Unknown,Samoa,New Zealand to Fiji,Samoan and Wallis Islands,-13.935,-171.72,1100,680,13753,144419,198677
244040,Savai'i,Shield,1911,Samoa,New Zealand to Fiji,Samoan and Wallis Islands,-13.612,-172.525,1858,0,59,34215,188465
244050,Wallis Islands,Shield(s),Unknown,France,New Zealand to Fiji,Samoan and Wallis Islands,-13.3,-176.17,143,6897,15214,15342,15342
245010,Taveuni,Shield,1550,Fiji,New Zealand to Fiji,Fiji Islands,-16.82,-179.97,1241,692,3220,19186,146131
245020,Koro,Pyroclastic cone(s),Unknown,Fiji,New Zealand to Fiji,Fiji Islands,-17.32,179.4,522,621,1759,1761,141037
245030,Nabukelevu,Lava dome(s),1660,Fiji,New Zealand to Fiji,Fiji Islands,-19.12,177.98,805,269,1379,4523,21730
250010,St. Andrew Strait,Complex,1957,Papua New Guinea,Melanesia and Australia,Admiralty Islands,-2.38,147.35,270,633,678,2870,47539
250020,Baluan,Stratovolcano,Unknown,Papua New Guinea,Melanesia and Australia,Admiralty Islands,-2.57,147.28,254,242,248,982,46898
250030,Central Bismarck Sea,Submarine,1972,Papua New Guinea,Melanesia and Australia,Admiralty Islands,-3.03,147.78,-1300,0,0,0,2529
251001,Blup Blup,Stratovolcano,Unknown,Papua New Guinea,Melanesia and Australia,Northeast of New Guinea,-3.507,144.605,402,270,270,462,93315
251002,Kadovar,Stratovolcano,2022,Papua New Guinea,Melanesia and Australia,Northeast of New Guinea,-3.608,144.588,365,0,0,1341,114708
251010,Bam,Stratovolcano,1960,Papua New Guinea,Melanesia and Australia,Northeast of New Guinea,-3.613,144.818,685,192,192,462,103203
251011,Boisa,Stratovolcano,Unknown,Papua New Guinea,Melanesia and Australia,Northeast of New Guinea,-3.994,144.963,240,139,1343,18874,177478
251020,Manam,Stratovolcano,2022,Papua New Guinea,Melanesia and Australia,Northeast of New Guinea,-4.08,145.037,1807,1106,2553,24364,180402
251030,Karkar,Stratovolcano,2014,Papua New Guinea,Melanesia and Australia,Northeast of New Guinea,-4.649,145.964,1839,5,4159,20127,189841
251041,Hankow Reef,Submarine,Unknown,Papua New Guinea,Melanesia and Australia,Northeast of New Guinea,-4.883,146.717,-5,0,0,0,50983
251050,Long Island,Complex,1993,Papua New Guinea,Melanesia and Australia,Northeast of New Guinea,-5.358,147.12,1280,172,2023,4017,78803
251060,Umboi,Complex,Unknown,Papua New Guinea,Melanesia and Australia,Northeast of New Guinea,-5.592,147.892,1335,249,1127,5585,83275
251070,Ritter Island,Stratovolcano,2007,Papua New Guinea,Melanesia and Australia,Northeast of New Guinea,-5.519,148.115,75,3,43,4323,68670
251080,Sakar,Stratovolcano,Unknown,Papua New Guinea,Melanesia and Australia,Northeast of New Guinea,-5.414,148.094,992,149,160,1176,58544
252010,Langila,Complex,2022,Papua New Guinea,Melanesia and Australia,New Britain,-5.525,148.42,1330,213,3653,11641,45698
252021,Mundua,Complex,Unknown,Papua New Guinea,Melanesia and Australia,New Britain,-4.624,149.339,171,489,501,6406,9419
252030,Garove,Stratovolcano,Unknown,Papua New Guinea,Melanesia and Australia,New Britain,-4.687,149.511,368,4259,5887,6388,18704
252040,Dakataua,Caldera,1895,Papua New Guinea,Melanesia and Australia,New Britain,-5.094,150.094,408,1147,1147,3743,113954
252050,Bola,Stratovolcano,Unknown,Papua New Guinea,Melanesia and Australia,New Britain,-5.141,150.038,1116,73,387,8601,116418
252060,Garua Harbour,Volcanic field,Unknown,Papua New Guinea,Melanesia and Australia,New Britain,-5.3,150.07,565,12090,12090,44354,123676
252070,Krummel-Garbuna-Welcker,Stratovolcano(es),2008,Papua New Guinea,Melanesia and Australia,New Britain,-5.416,150.027,564,91,8207,58235,143455
252071,Lolo,Stratovolcano,Unknown,Papua New Guinea,Melanesia and Australia,New Britain,-5.466,150.509,796,5176,13925,35526,144334
252080,Witori,Caldera,2012,Papua New Guinea,Melanesia and Australia,New Britain,-5.576,150.516,724,24509,24509,37824,145382
252090,Sulu Range,Stratovolcano(es),Unknown,Papua New Guinea,Melanesia and Australia,New Britain,-5.5,150.942,610,298,1543,15051,135039
252100,Hargy,Stratovolcano,950,Papua New Guinea,Melanesia and Australia,New Britain,-5.33,151.1,1148,84,5093,14613,85504
252110,Bamus,Stratovolcano,1886,Papua New Guinea,Melanesia and Australia,New Britain,-5.2,151.23,2248,50,630,19320,71997
252120,Ulawun,Stratovolcano,2021,Papua New Guinea,Melanesia and Australia,New Britain,-5.05,151.33,2334,30,1801,10577,61018
252130,Lolobau,Caldera,1912,Papua New Guinea,Melanesia and Australia,New Britain,-4.92,151.158,858,7243,7243,9659,62340
252140,Rabaul,Pyroclastic shield,2014,Papua New Guinea,Melanesia and Australia,New Britain,-4.271,152.203,688,3311,43531,199361,252121
252150,Tavui,Caldera,-4946,Papua New Guinea,Melanesia and Australia,New Britain,-4.12,152.2,200,30373,30373,152530,259182
253004,Madilogo,Pyroclastic cone,Unknown,Papua New Guinea,Melanesia and Australia,New Guinea and D'Entrecasteaux Islands,-9.2,147.57,850,146,670,10015,486684
253010,Lamington,Stratovolcano,1956,Papua New Guinea,Melanesia and Australia,New Guinea and D'Entrecasteaux Islands,-8.95,148.15,1680,252,2018,45841,146630
253011,Hydrographers Range,Stratovolcano,Unknown,Papua New Guinea,Melanesia and Australia,New Guinea and D'Entrecasteaux Islands,-9,148.37,1915,585,1428,38537,136167
253021,Managlase Plateau,Volcanic field,Unknown,Papua New Guinea,Melanesia and Australia,New Guinea and D'Entrecasteaux Islands,-9.08,148.33,1342,5732,5732,14700,145917
253030,Victory,Stratovolcano,1935,Papua New Guinea,Melanesia and Australia,New Guinea and D'Entrecasteaux Islands,-9.2,149.07,1925,16,96,14042,116816
253031,Sessagara,Pyroclastic cone(s),Unknown,Papua New Guinea,Melanesia and Australia,New Guinea and D'Entrecasteaux Islands,-9.48,149.13,370,5210,5210,9898,131143
253040,Waiowa,Pyroclastic cone,1944,Papua New Guinea,Melanesia and Australia,New Guinea and D'Entrecasteaux Islands,-9.57,149.075,640,61,338,10041,137492
253041,Goodenough,Volcanic field,Unknown,Papua New Guinea,Melanesia and Australia,New Guinea and D'Entrecasteaux Islands,-9.358,150.246,220,7639,7639,17932,127955
253050,Iamalele,Lava dome(s),Unknown,Papua New Guinea,Melanesia and Australia,New Guinea and D'Entrecasteaux Islands,-9.52,150.53,200,382,766,8026,113875
253060,Dawson Strait Group,Volcanic field,1350,Papua New Guinea,Melanesia and Australia,New Guinea and D'Entrecasteaux Islands,-9.62,150.88,500,5388,5388,7721,80476
254010,Lihir,Compound,Unknown,Papua New Guinea,Melanesia and Australia,New Ireland,-3.125,152.642,700,959,2592,3562,32340
254020,Ambitle,Stratovolcano,-350,Papua New Guinea,Melanesia and Australia,New Ireland,-4.08,153.65,450,1643,9195,9779,24367
255010,Balbi,Stratovolcano,Unknown,Papua New Guinea,Melanesia and Australia,Bougainville and Solomon Islands,-5.92,154.98,2715,314,505,11904,127928
255011,Billy Mitchell,Pyroclastic shield,1580,Papua New Guinea,Melanesia and Australia,Bougainville and Solomon Islands,-6.092,155.225,1544,113,449,9620,119191
255020,Bagana,Lava cone,2022,Papua New Guinea,Melanesia and Australia,Bougainville and Solomon Islands,-6.137,155.196,1855,198,404,7861,115257
255021,Takuan Group,Compound,Unknown,Papua New Guinea,Melanesia and Australia,Bougainville and Solomon Islands,-6.442,155.608,2210,13,1177,62020,98513
255030,Loloru,Pyroclastic shield,-1050,Papua New Guinea,Melanesia and Australia,Bougainville and Solomon Islands,-6.52,155.62,1887,1,173,26075,97088
255050,Simbo,Stratovolcano(es),1910,Solomon Islands,Melanesia and Australia,Bougainville and Solomon Islands,-8.292,156.52,335,210,240,833,27923
255052,Kana Keoki,Submarine,Unknown,Solomon Islands,Melanesia and Australia,Bougainville and Solomon Islands,-8.75,157.03,-700,0,0,378,63959
255053,Coleman Seamount,Submarine,Unknown,Solomon Islands,Melanesia and Australia,Bougainville and Solomon Islands,-8.841,157.16,-717,0,0,2686,71895
255060,Kavachi,Submarine,2021,Solomon Islands,Melanesia and Australia,Bougainville and Solomon Islands,-8.991,157.979,-20,6,6,802,50014
255061,Unnamed,Submarine(es),Unknown,Solomon Islands,Melanesia and Australia,Bougainville and Solomon Islands,-8.92,158.03,-240,0,6,8101,52212
255062,Gallego,Volcanic field,Unknown,Solomon Islands,Melanesia and Australia,Bougainville and Solomon Islands,-9.35,159.73,1000,10017,10017,81587,169626
255070,Savo,Stratovolcano,1847,Solomon Islands,Melanesia and Australia,Bougainville and Solomon Islands,-9.13,159.82,485,3200,3200,6251,174571
256010,Tinakula,Stratovolcano,2021,Solomon Islands,Melanesia and Australia,Santa Cruz Islands,-10.386,165.804,796,0,19,19,20155
257001,Motlav,Stratovolcano,Unknown,Vanuatu,Melanesia and Australia,Vanuatu,-13.67,167.67,411,251,292,3768,7490
257010,Suretamatai,Complex,1966,Vanuatu,Melanesia and Australia,Vanuatu,-13.8,167.47,921,68,3509,5555,9242
257020,Gaua,Stratovolcano,2011,Vanuatu,Melanesia and Australia,Vanuatu,-14.27,167.5,797,166,1200,2848,8834
257021,Mere Lava,Stratovolcano,Unknown,Vanuatu,Melanesia and Australia,Vanuatu,-14.45,168.05,1028,72,73,73,18522
257030,Ambae,Shield,2022,Vanuatu,Melanesia and Australia,Vanuatu,-15.389,167.835,1496,73,1279,4326,73308
257040,Ambrym,Pyroclastic shield,2022,Vanuatu,Melanesia and Australia,Vanuatu,-16.25,168.12,1334,9,186,10826,63999
257050,Lopevi,Stratovolcano,2007,Vanuatu,Melanesia and Australia,Vanuatu,-16.507,168.346,1413,690,793,7942,50310
257060,Epi,Stratovolcano(es),2004,Vanuatu,Melanesia and Australia,Vanuatu,-16.68,168.37,833,0,170,7819,52827
257070,Kuwae,Caldera,1974,Vanuatu,Melanesia and Australia,Vanuatu,-16.829,168.536,-2,2836,2836,5725,48609
257080,NE Shepherd Islands,Stratovolcano(es),Unknown,Vanuatu,Melanesia and Australia,Vanuatu,-16.992,168.592,216,1101,1972,6407,69711
257081,North Vate,Stratovolcano(es),Unknown,Vanuatu,Melanesia and Australia,Vanuatu,-17.47,168.353,594,3327,6497,26614,61663
257090,Traitor's Head,Stratovolcano,1881,Vanuatu,Melanesia and Australia,Vanuatu,-18.754,169.238,817,207,380,7007,30651
257100,Yasur,Stratovolcano,2022,Vanuatu,Melanesia and Australia,Vanuatu,-19.532,169.447,361,3636,6068,24748,32427
257110,Aneityum,Stratovolcano(es),Unknown,Vanuatu,Melanesia and Australia,Vanuatu,-20.2,169.78,852,176,692,703,22731
258001,Eastern Gemini Seamount,Submarine,1996,France,Melanesia and Australia,Pacific Ocean (southwestern),-20.98,170.28,-80,0,0,0,187
258010,Matthew Island,Stratovolcano,1956,France,Melanesia and Australia,Pacific Ocean (southwestern),-22.33,171.32,177,1,1,1,1
258020,Hunter Island,Stratovolcano,1903,France,Melanesia and Australia,Pacific Ocean (southwestern),-22.4,172.05,297,0,0,0,1
259010,Newer Volcanics Province,Shield(s),-2900,Australia,Melanesia and Australia,Australia,-37.77,142.5,1011,610361,610361,610361,610361
260001,Narcondum,Stratovolcano,Unknown,India,Indonesia,Andaman Islands,13.43,94.28,710,0,0,0,0
260010,Barren Island,Stratovolcano,2022,India,Indonesia,Andaman Islands,12.278,93.858,354,645,645,645,5035
261020,Seulawah Agam,Stratovolcano,1839,Indonesia,Indonesia,Sumatra,5.448,95.658,1810,226,10555,306345,1565392
261030,Peuet Sague,Complex,2000,Indonesia,Indonesia,Sumatra,4.903,96.289,2785,53,144,16227,1862448
261050,"Telong, Bur ni",Stratovolcano,1937,Indonesia,Indonesia,Sumatra,4.769,96.821,2617,1342,25733,125812,1631846
261070,Singkut,Caldera(s),1881,Indonesia,Indonesia,Sumatra,3.248,98.501,2181,11833,21448,228453,7958409
261080,Sinabung,Stratovolcano,2021,Indonesia,Indonesia,Sumatra,3.17,98.392,2460,997,13801,163630,7646863
261090,Toba,Caldera,Unknown,Indonesia,Indonesia,Sumatra,2.58,98.83,2157,125908,125908,168995,3437177
261110,Sibualbuali,Stratovolcano,Unknown,Indonesia,Indonesia,Sumatra,1.556,99.255,1819,2249,10838,404339,2481584
261111,Lubukraya,Stratovolcano,Unknown,Indonesia,Indonesia,Sumatra,1.478,99.209,1862,349,6931,445954,2208734
261120,Sorikmarapi,Stratovolcano,1986,Indonesia,Indonesia,Sumatra,0.686,99.539,2145,203,1469,90257,1831957
261121,Malintang,Stratovolcano,Unknown,Indonesia,Indonesia,Sumatra,0.47,99.67,1983,56,535,169047,1602138
261130,Talakmau,Complex,Unknown,Indonesia,Indonesia,Sumatra,0.079,99.98,2919,75,3261,352639,2728121
261131,Sarik-Gajah,Pyroclastic cone(s),Unknown,Indonesia,Indonesia,Sumatra,0.074,100.189,737,5188,21465,247754,2951369
261140,Marapi,Complex,2018,Indonesia,Indonesia,Sumatra,-0.38,100.474,2885,706,57453,818039,4059773
261150,Tandikat-Singgalang,Stratovolcano(es),1924,Indonesia,Indonesia,Sumatra,-0.39,100.331,2854,130,38799,604282,4022932
261160,Talang,Stratovolcano,2007,Indonesia,Indonesia,Sumatra,-0.979,100.681,2575,1593,18512,214975,3283153
261170,Kerinci,Stratovolcano,2021,Indonesia,Indonesia,Sumatra,-1.697,101.264,3800,304,33878,264107,1437454
261180,Sumbing,Stratovolcano,1921,Indonesia,Indonesia,Sumatra,-2.414,101.728,2507,3,304,49583,1209448
261200,Hululais,Compound,Unknown,Indonesia,Indonesia,Sumatra,-3.247,102.239,2122,9,21,45038,1566370
261210,"Daun, Bukit",Stratovolcano(es),Unknown,Indonesia,Indonesia,Sumatra,-3.38,102.37,2467,4088,42410,425096,2318233
261220,Kaba,Stratovolcano,2000,Indonesia,Indonesia,Sumatra,-3.522,102.615,1940,278,15352,333750,2608259
261230,Dempo,Stratovolcano(es),2017,Indonesia,Indonesia,Sumatra,-4.016,103.121,3142,124,9613,96058,2307584
261231,Patah,Stratovolcano?,Unknown,Indonesia,Indonesia,Sumatra,-4.257,103.306,2836,47,214,64024,1302916
261251,Ranau,Caldera,Unknown,Indonesia,Indonesia,Sumatra,-4.871,103.925,1854,12275,12275,21279,939197
261260,Sekincau Belirang,Caldera(s),Unknown,Indonesia,Indonesia,Sumatra,-5.107,104.317,1717,176,2238,18911,2336471
261270,Suoh,Caldera(s),1933,Indonesia,Indonesia,Sumatra,-5.25,104.27,1000,837,2048,24619,1616500
261280,Hulubelu,Caldera,Unknown,Indonesia,Indonesia,Sumatra,-5.334,104.59,849,56894,56894,99405,4261988
261290,Rajabasa,Stratovolcano,Unknown,Indonesia,Indonesia,Sumatra,-5.78,105.625,1281,3534,144855,557060,7750607
262000,Krakatau,Caldera,2021,Indonesia,Indonesia,Krakatau,-6.102,105.423,155,7177,7177,8027,6326159
263010,Pulosari,Stratovolcano,Unknown,Indonesia,Indonesia,Java,-6.343,105.978,1324,5739,42356,739785,20059788
263020,Karang,Stratovolcano,Unknown,Indonesia,Indonesia,Java,-6.268,106.05,1768,1006,73942,1753655,23398992
263040,Perbakti-Gagak,Stratovolcano(es),1939,Indonesia,Indonesia,Java,-6.75,106.675,1726,1490,28784,2333456,36630568
263050,Salak,Stratovolcano,1938,Indonesia,Indonesia,Java,-6.716,106.733,2218,1367,80578,2675904,38154252
263060,Gede-Pangrango,Stratovolcano(es),1957,Indonesia,Indonesia,Java,-6.786,106.983,3026,2500,154390,2315469,40640105
263070,Patuha,Stratovolcano,Unknown,Indonesia,Indonesia,Java,-7.162,107.4,2422,12576,76063,1516827,23632738
263090,Tangkuban Parahu,Stratovolcano,2019,Indonesia,Indonesia,Java,-6.77,107.6,2084,100608,518822,5729309,32855731
263100,Papandayan,Stratovolcano(es),2002,Indonesia,Indonesia,Java,-7.32,107.73,2665,6835,163468,1637971,19312972
263110,Kendang,Stratovolcano,Unknown,Indonesia,Indonesia,Java,-7.245,107.709,2594,7758,89790,2601697,21174023
263130,Guntur,Complex,1847,Indonesia,Indonesia,Java,-7.143,107.841,2251,4652,218012,3412038,24486191
263131,Tampomas,Stratovolcano,Unknown,Indonesia,Indonesia,Java,-6.77,107.95,1684,47404,194503,2301649,24709382
263140,Galunggung,Stratovolcano,1984,Indonesia,Indonesia,Java,-7.25,108.058,2168,4781,66495,2382939,23897342
263150,Talagabodas,Stratovolcano,Unknown,Indonesia,Indonesia,Java,-7.208,108.07,2201,7953,68266,2388005,24525517
263170,Ciremai,Stratovolcano,1951,Indonesia,Indonesia,Java,-6.895,108.408,3039,915,67377,3058015,25718820
263180,Slamet,Stratovolcano,2014,Indonesia,Indonesia,Java,-7.242,109.208,3428,856,13401,2904026,20217467
263200,Dieng Volcanic Complex,Complex,2021,Indonesia,Indonesia,Java,-7.2,109.879,2565,1092929,1092929,1886942,24381814
263210,Sundoro,Stratovolcano,1971,Indonesia,Indonesia,Java,-7.302,109.996,3147,52462,496751,2086299,24996512
263220,Sumbing,Stratovolcano,1730,Indonesia,Indonesia,Java,-7.384,110.07,3371,15294,310361,2425607,25707858
263230,Ungaran,Stratovolcano,Unknown,Indonesia,Indonesia,Java,-7.18,110.33,2050,6705,110008,4595534,25639073
263231,Telomoyo,Stratovolcano,Unknown,Indonesia,Indonesia,Java,-7.362,110.4,1864,38661,166844,2794587,25617237
263240,Merbabu,Stratovolcano,1797,Indonesia,Indonesia,Java,-7.454,110.44,3118,19996,249747,3019783,25096234
263250,Merapi,Stratovolcano,2022,Indonesia,Indonesia,Java,-7.54,110.446,2910,49205,185849,4348473,24728414
263251,Muria,Stratovolcano,-160,Indonesia,Indonesia,Java,-6.62,110.88,1625,212,7653,1587867,13061031
263260,Lawu,Stratovolcano,1885,Indonesia,Indonesia,Java,-7.625,111.192,3265,2171,68175,2344575,24931156
263270,Wilis,Stratovolcano,Unknown,Indonesia,Indonesia,Java,-7.808,111.758,2563,514,5376,2150615,21455776
263280,Kelud,Stratovolcano,2014,Indonesia,Indonesia,Java,-7.935,112.314,1730,279,50901,2087876,24999627
263281,Kawi-Butak,Stratovolcano(es),Unknown,Indonesia,Indonesia,Java,-7.92,112.45,2651,507,127978,2927446,24141573
263290,Arjuno-Welirang,Stratovolcano,1952,Indonesia,Indonesia,Java,-7.733,112.575,3343,2584,53983,4143137,25385433
263291,Penanggungan,Stratovolcano,Unknown,Indonesia,Indonesia,Java,-7.616,112.62,1631,19435,416275,4605710,25773159
263300,Semeru,Stratovolcano,2022,Indonesia,Indonesia,Java,-8.108,112.922,3657,2686,8375,1022197,20098931
263310,Tengger Caldera,Stratovolcano(es),2021,Indonesia,Indonesia,Java,-7.942,112.95,2329,27826,69451,1420878,22628278
263320,Lamongan,Stratovolcano,1898,Indonesia,Indonesia,Java,-7.981,113.341,1641,6588,66387,2193829,15322387
263330,Iyang-Argapura,Complex,Unknown,Indonesia,Indonesia,Java,-7.97,113.57,3088,372,11959,1601344,10538031
263340,Raung,Stratovolcano,2021,Indonesia,Indonesia,Java,-8.119,114.056,3260,152,572,581515,8123987
263350,Ijen,Stratovolcano(es),1999,Indonesia,Indonesia,Java,-8.058,114.242,2769,1098,5504,664199,6846855
263351,Baluran,Stratovolcano,Unknown,Indonesia,Indonesia,Java,-7.85,114.37,1247,1313,59107,437688,5474053
264001,Buyan-Bratan,Caldera,Unknown,Indonesia,Indonesia,Lesser Sunda Islands,-8.283,115.133,2244,333333,333333,935879,4355947
264010,Batur,Caldera,2000,Indonesia,Indonesia,Lesser Sunda Islands,-8.242,115.375,1717,466899,466899,937766,4289189
264020,Agung,Stratovolcano,2019,Indonesia,Indonesia,Lesser Sunda Islands,-8.343,115.508,2997,5657,76781,968381,4550176
264030,Rinjani,Stratovolcano,2016,Indonesia,Indonesia,Lesser Sunda Islands,-8.42,116.47,3726,10289,55594,1374441,3555330
264040,Tambora,Stratovolcano,1967,Indonesia,Indonesia,Lesser Sunda Islands,-8.25,118,2850,4156,11331,89006,1036033
264050,Sangeang Api,Complex,2020,Indonesia,Indonesia,Lesser Sunda Islands,-8.2,119.07,1912,204,1155,39301,809132
264060,"Sano, Wai",Caldera,Unknown,Indonesia,Indonesia,Lesser Sunda Islands,-8.724,119.986,1319,127347,127347,242184,831863
264071,Ranakah,Lava dome(s),1991,Indonesia,Indonesia,Lesser Sunda Islands,-8.62,120.52,2350,1283,63314,291790,860496
264080,Inierie,Stratovolcano,-8050,Indonesia,Indonesia,Lesser Sunda Islands,-8.875,120.95,2245,1073,7501,101938,809293
264090,Inielika,Complex,2001,Indonesia,Indonesia,Lesser Sunda Islands,-8.73,120.98,1559,4601,27281,162299,818815
264100,Ebulobo,Stratovolcano,1969,Indonesia,Indonesia,Lesser Sunda Islands,-8.817,121.191,2096,1278,24149,140204,674614
264110,Iya,Stratovolcano,1969,Indonesia,Indonesia,Lesser Sunda Islands,-8.891,121.641,618,10837,46835,62974,535387
264140,Kelimutu,Complex,1968,Indonesia,Indonesia,Lesser Sunda Islands,-8.77,121.82,1639,746,9896,118605,606946
264150,Paluweh,Stratovolcano,2013,Indonesia,Indonesia,Lesser Sunda Islands,-8.32,121.708,875,446,446,5284,548803
264160,Egon,Stratovolcano,2008,Indonesia,Indonesia,Lesser Sunda Islands,-8.676,122.455,1661,818,23263,250257,868670
264170,Ilimuda,Stratovolcano,Unknown,Indonesia,Indonesia,Lesser Sunda Islands,-8.479,122.761,881,32343,72197,263803,903546
264180,Lewotobi,Stratovolcano(es),2003,Indonesia,Indonesia,Lesser Sunda Islands,-8.542,122.775,1703,18686,59084,284976,906184
264200,Leroboleng,Complex,2003,Indonesia,Indonesia,Lesser Sunda Islands,-8.365,122.833,1095,9164,26794,358627,896194
264220,Iliboleng,Stratovolcano,1993,Indonesia,Indonesia,Lesser Sunda Islands,-8.342,123.258,1659,30359,87503,260688,757701
264230,Lewotolok,Stratovolcano,2022,Indonesia,Indonesia,Lesser Sunda Islands,-8.274,123.508,1431,4390,10032,159023,695083
264240,Ililabalekan,Stratovolcano,Unknown,Indonesia,Indonesia,Lesser Sunda Islands,-8.55,123.38,1018,7747,14260,123287,756090
264250,Iliwerung,Complex,2021,Indonesia,Indonesia,Lesser Sunda Islands,-8.532,123.573,583,968,4318,79569,665081
264260,"Tara, Batu",Stratovolcano,2015,Indonesia,Indonesia,Lesser Sunda Islands,-7.791,123.585,633,207,207,207,455429
264270,Sirung,Complex,2021,Indonesia,Indonesia,Lesser Sunda Islands,-8.508,124.13,862,5966,19334,69744,418756
265030,Gunungapi Wetar,Stratovolcano,1699,Indonesia,Indonesia,Banda Sea,-6.642,126.65,282,2,2,2,2
265040,Wurlali,Stratovolcano,1892,Indonesia,Indonesia,Banda Sea,-7.125,128.675,868,219,365,720,901
265050,Teon,Stratovolcano,1904,Indonesia,Indonesia,Banda Sea,-6.976,129.144,728,19,102,102,2045
265060,Nila,Stratovolcano,1968,Indonesia,Indonesia,Banda Sea,-6.73,129.5,781,200,200,200,1382
265070,Serua,Stratovolcano,1921,Indonesia,Indonesia,Banda Sea,-6.312,130.017,608,58,58,58,258
265080,Manuk,Stratovolcano,Unknown,Indonesia,Indonesia,Banda Sea,-5.543,130.303,257,0,0,0,58
265090,Banda Api,Caldera,1988,Indonesia,Indonesia,Banda Sea,-4.523,129.881,596,5682,5682,5810,5810
266010,Colo,Stratovolcano,1983,Indonesia,Indonesia,Sulawesi,-0.162,121.601,404,1897,2025,2025,229592
266020,Ambang,Complex,2005,Indonesia,Indonesia,Sulawesi,0.75,124.42,1795,9155,46469,319137,1730602
266030,Soputan,Stratovolcano,2020,Indonesia,Indonesia,Sulawesi,1.112,124.737,1785,4724,69991,501336,1696768
266040,Riendengan-Sempu,Caldera,Unknown,Indonesia,Indonesia,Sulawesi,1.13,124.758,1549,263169,263169,507642,1671136
266070,Tondano Caldera,Caldera,Unknown,Indonesia,Indonesia,Sulawesi,1.23,124.83,1202,321308,321308,903706,1558655
266100,Lokon-Empung,Stratovolcano(es),2015,Indonesia,Indonesia,Sulawesi,1.358,124.792,1580,12183,75684,942160,1583346
266110,Mahawu,Stratovolcano,1977,Indonesia,Indonesia,Sulawesi,1.352,124.865,1299,18618,111852,878193,1503109
266120,Klabat,Stratovolcano,Unknown,Indonesia,Indonesia,Sulawesi,1.454,125.031,1968,1352,39935,822740,1326026
266130,Tangkoko-Duasudara,Stratovolcano,1880,Indonesia,Indonesia,Sulawesi,1.518,125.185,1334,445,57792,135761,1227998
267010,Ruang,Stratovolcano,2002,Indonesia,Indonesia,Sangihe Islands,2.3,125.37,725,878,1652,2766,149159
267020,Karangetang,Stratovolcano,2022,Indonesia,Indonesia,Sangihe Islands,2.781,125.407,1797,892,4478,11066,65667
267030,Banua Wuhu,Submarine,1919,Indonesia,Indonesia,Sangihe Islands,3.138,125.491,-5,359,480,4586,69756
267040,Awu,Stratovolcano,2004,Indonesia,Indonesia,Sangihe Islands,3.689,125.447,1318,6409,22655,52725,58719
268001,Tarakan,Pyroclastic cone(s),Unknown,Indonesia,Indonesia,Halmahera,1.83,127.83,318,18056,23570,85055,360761
268010,Dukono,Complex,2022,Indonesia,Indonesia,Halmahera,1.693,127.894,1229,1575,3348,101506,393070
268020,Tobaru,Stratovolcano,Unknown,Indonesia,Indonesia,Halmahera,1.63,127.67,1035,215,5963,64388,532821
268030,Ibu,Stratovolcano,2022,Indonesia,Indonesia,Halmahera,1.488,127.63,1325,1560,14549,64581,637988
268040,Gamkonora,Stratovolcano,2007,Indonesia,Indonesia,Halmahera,1.38,127.53,1635,3354,12744,61376,627128
268050,Todoko-Ranu,Caldera(s),Unknown,Indonesia,Indonesia,Halmahera,1.25,127.47,979,366,10748,56900,631999
268051,Jailolo,Stratovolcano,Unknown,Indonesia,Indonesia,Halmahera,1.08,127.439,993,7459,21868,79855,633186
268052,Hiri,Stratovolcano,Unknown,Indonesia,Indonesia,Halmahera,0.9,127.32,630,5650,11454,295487,550526
268060,Gamalama,Stratovolcano(es),2018,Indonesia,Indonesia,Halmahera,0.8,127.33,1715,103429,204820,308691,536972
268061,Tidore,Stratovolcano,Unknown,Indonesia,Indonesia,Halmahera,0.658,127.4,1730,37379,74120,320483,530066
268062,Mare,Stratovolcano,Unknown,Indonesia,Indonesia,Halmahera,0.57,127.4,308,889,20821,300717,498716
268063,Moti,Stratovolcano,Unknown,Indonesia,Indonesia,Halmahera,0.454,127.411,927,3190,5051,89568,462393
268070,Makian,Stratovolcano,1988,Indonesia,Indonesia,Halmahera,0.32,127.4,1357,4986,8466,21360,441768
268071,Tigalalu,Stratovolcano,Unknown,Indonesia,Indonesia,Halmahera,0.07,127.42,422,621,2350,7396,422007
268072,Amasing,Stratovolcano(es),Unknown,Indonesia,Indonesia,Halmahera,-0.53,127.48,1030,59,803,26015,92417
268073,Bibinoi,Stratovolcano(es),Unknown,Indonesia,Indonesia,Halmahera,-0.761,127.725,932,53,4276,15604,83771
271010,Balut,Stratovolcano,Unknown,Philippines,Philippines and SE Asia,Mindanao,5.4,125.375,862,1472,1901,10763,1286239
271011,Parker,Stratovolcano,1641,Philippines,Philippines and SE Asia,Mindanao,6.113,124.892,1824,331,2963,484481,3532683
271020,Matutum,Stratovolcano,1290,Philippines,Philippines and SE Asia,Mindanao,6.37,125.07,2286,855,10431,822372,5316209
271030,Apo,Stratovolcano,Unknown,Philippines,Philippines and SE Asia,Mindanao,6.989,125.269,2938,1355,5431,767800,7768291
271031,Leonard Range,Stratovolcano,120,Philippines,Philippines and SE Asia,Mindanao,7.382,126.047,1080,908,3682,451047,4321874
271040,Makaturing,Stratovolcano,1882,Philippines,Philippines and SE Asia,Mindanao,7.644,124.317,1818,1501,9752,418007,6142586
271060,Ragang,Stratovolcano,1916,Philippines,Philippines and SE Asia,Mindanao,7.691,124.507,2790,447,2646,331796,6423725
271061,Kalatungan,Stratovolcano,Unknown,Philippines,Philippines and SE Asia,Mindanao,7.95,124.8,2824,418,27005,359527,5273061
271070,Musuan,Lava dome,Unknown,Philippines,Philippines and SE Asia,Mindanao,7.877,125.068,646,67591,134114,517243,6198562
271071,Malindang,Stratovolcano,Unknown,Philippines,Philippines and SE Asia,Mindanao,8.22,123.63,2404,317,13659,731423,4044299
271080,Camiguin,Stratovolcano(es),1953,Philippines,Philippines and SE Asia,Mindanao,9.203,124.673,1552,12173,51587,92178,2871353
272010,Cuernos de Negros,Complex,Unknown,Philippines,Philippines and SE Asia,Central Philippines,9.25,123.17,1862,1458,39681,531644,2960980
272020,Kanlaon,Stratovolcano,2017,Philippines,Philippines and SE Asia,Central Philippines,10.412,123.132,2435,1662,40276,923257,9345000
272030,Mandalagan,Complex,Unknown,Philippines,Philippines and SE Asia,Central Philippines,10.65,123.25,1885,563,6491,765974,9390672
272040,Silay,Stratovolcano,Unknown,Philippines,Philippines and SE Asia,Central Philippines,10.77,123.23,1510,310,11499,1167963,9522729
272050,CabalÃ­an,Stratovolcano,1820,Philippines,Philippines and SE Asia,Central Philippines,10.285,125.218,912,26511,88767,277950,2091362
272070,Mahagnao,Stratovolcano,Unknown,Philippines,Philippines and SE Asia,Central Philippines,10.882,124.888,860,11,4338,66949,827590
272080,Biliran,Compound,1939,Philippines,Philippines and SE Asia,Central Philippines,11.523,124.535,1301,4612,78799,254519,3177850
273010,Bulusan,Stratovolcano(es),2017,Philippines,Philippines and SE Asia,Luzon,12.769,124.056,1535,2789,74286,518705,3360418
273020,Pocdol Mountains,Compound,Unknown,Philippines,Philippines and SE Asia,Luzon,13.05,123.958,1102,2281,116612,808931,3440360
273030,Mayon,Stratovolcano,2019,Philippines,Philippines and SE Asia,Luzon,13.257,123.685,2462,4350,248448,1166441,4142375
273031,Masaraga,Stratovolcano,Unknown,Philippines,Philippines and SE Asia,Luzon,13.32,123.6,1328,14744,141095,1390760,4193903
273041,Iriga,Stratovolcano,Unknown,Philippines,Philippines and SE Asia,Luzon,13.458,123.451,1138,3712,142254,1159509,4399866
273042,Isarog,Stratovolcano,-3500,Philippines,Philippines and SE Asia,Luzon,13.658,123.38,1966,146,27806,1208269,4291363
273044,Malindig,Stratovolcano,Unknown,Philippines,Philippines and SE Asia,Luzon,13.24,122.018,1157,8066,21486,217286,2639049
273050,Banahaw,Complex,Unknown,Philippines,Philippines and SE Asia,Luzon,14.07,121.48,2158,754,93134,1698285,23837289
273060,San Pablo Volcanic Field,Stratovolcano,1350,Philippines,Philippines and SE Asia,Luzon,14.12,121.3,1090,1349742,1349742,3039334,24626975
273070,Taal,Caldera,2021,Philippines,Philippines and SE Asia,Luzon,14.002,120.993,311,717090,717090,2380326,24814047
273080,Laguna Caldera,Caldera,Unknown,Philippines,Philippines and SE Asia,Luzon,14.42,121.27,743,625567,625567,7073814,26270664
273081,Mariveles,Stratovolcano,-2050,Philippines,Philippines and SE Asia,Luzon,14.527,120.482,1388,903,48079,455154,25981912
273082,Natib,Stratovolcano,Unknown,Philippines,Philippines and SE Asia,Luzon,14.72,120.4,1253,450,4977,1050509,25524080
273083,Pinatubo,Stratovolcano,1993,Philippines,Philippines and SE Asia,Luzon,15.13,120.35,1486,725,3808,1148684,21875048
273084,Arayat,Stratovolcano,Unknown,Philippines,Philippines and SE Asia,Luzon,15.2,120.742,1026,7846,190674,2805269,27216491
273087,Patoc,Stratovolcano,Unknown,Philippines,Philippines and SE Asia,Luzon,17.147,120.98,1865,3621,24203,89470,5187827
273088,Ambalatungan Group,Compound,Unknown,Philippines,Philippines and SE Asia,Luzon,17.32,121.1,2329,493,3803,55724,4652400
273090,Cagua,Stratovolcano,1860,Philippines,Philippines and SE Asia,Luzon,18.222,122.123,1133,99,1137,34018,1480952
274010,Camiguin de Babuyanes,Stratovolcano,1857,Philippines,Philippines and SE Asia,North of Luzon,18.83,121.86,712,876,1066,1369,409653
274020,Didicas,Compound,1978,Philippines,Philippines and SE Asia,North of Luzon,19.077,122.202,228,0,0,132,52751
274030,Babuyan Claro,Stratovolcano(es),1924,Philippines,Philippines and SE Asia,North of Luzon,19.524,121.95,1064,208,222,222,11819
274050,Unnamed,Submarine,1854,Philippines,Philippines and SE Asia,North of Luzon,20.33,121.75,-24,1,214,8699,13109
274060,Iraya,Stratovolcano,1454,Philippines,Philippines and SE Asia,North of Luzon,20.469,122.01,1009,3087,4118,8255,12873
275001,Hainan Volcanic Field,Pyroclastic cone(s),1933,China,Philippines and SE Asia,Southeast Asia,19.905,110.229,196,1731229,1731229,1731229,6213231
275020,Ly Son Group,Volcanic field,Unknown,Vietnam,Philippines and SE Asia,Southeast Asia,15.38,109.12,157,700,700,29181,2303467
275060,"Cendres, Ile des",Submarine,1923,Vietnam,Philippines and SE Asia,Southeast Asia,10.158,109.014,-20,0,0,0,8069
275080,Popa,Stratovolcano,-6050,Burma (Myanmar),Philippines and SE Asia,Southeast Asia,20.92,95.25,1518,1108,22922,452931,5923206
275110,Tengchong,Pyroclastic cone(s),-5750,China,Philippines and SE Asia,Southeast Asia,25.23,98.5,2865,153375,153375,419814,2932117
281031,Kueishantao,Stratovolcano,1853,Taiwan,"Japan, Taiwan, Marianas",Taiwan,24.841,121.953,361,1,6523,471596,10011370
281032,Tatun Volcanic Group,Lava dome(s),648,Taiwan,"Japan, Taiwan, Marianas",Taiwan,25.178,121.553,1120,5084149,5084149,6735396,9862061
282010,Submarine Volcano NNE of Iriomotejima,Submarine,1924,Japan,"Japan, Taiwan, Marianas",Ryukyu Islands and Kyushu,24.57,123.93,-200,0,0,31167,50086
282020,Io-Torishima,Complex,1968,Japan,"Japan, Taiwan, Marianas",Ryukyu Islands and Kyushu,27.881,128.223,212,0,0,0,52818
282021,Yokoatejima,Stratovolcano(es),1835,Japan,"Japan, Taiwan, Marianas",Ryukyu Islands and Kyushu,28.797,128.997,495,62,64,72,72351
282022,Akusekijima,Stratovolcano(es),Unknown,Japan,"Japan, Taiwan, Marianas",Ryukyu Islands and Kyushu,29.465,129.594,555,52,52,199,749
282030,Suwanosejima,Stratovolcano(es),2022,Japan,"Japan, Taiwan, Marianas",Ryukyu Islands and Kyushu,29.638,129.714,796,107,107,325,1966
282040,Nakanoshima,Stratovolcano(es),1914,Japan,"Japan, Taiwan, Marianas",Ryukyu Islands and Kyushu,29.859,129.857,979,137,170,364,14037
282043,Kuchinoshima,Stratovolcano(es),1190,Japan,"Japan, Taiwan, Marianas",Ryukyu Islands and Kyushu,29.968,129.926,628,93,101,291,11002
282050,Kuchinoerabujima,Stratovolcano(es),2020,Japan,"Japan, Taiwan, Marianas",Ryukyu Islands and Kyushu,30.443,130.217,657,1544,1698,5348,149518
282060,Kikai,Caldera,2020,Japan,"Japan, Taiwan, Marianas",Ryukyu Islands and Kyushu,30.793,130.305,704,152,152,152,1002905
282070,Ata,Caldera(s),885,Japan,"Japan, Taiwan, Marianas",Ryukyu Islands and Kyushu,31.22,130.57,924,93134,93134,171590,1891380
282080,Aira,Caldera,2022,Japan,"Japan, Taiwan, Marianas",Ryukyu Islands and Kyushu,31.593,130.657,1117,4918,113874,905254,2610033
282081,Yonemaru-Sumiyoshiike,Maar(s),-6200,Japan,"Japan, Taiwan, Marianas",Ryukyu Islands and Kyushu,31.771,130.592,40,18080,73354,923168,2959509
282090,Kirishimayama,Shield,2018,Japan,"Japan, Taiwan, Marianas",Ryukyu Islands and Kyushu,31.934,130.862,1700,647,8415,407050,3972044
282091,Fukue,Shield(s),-400,Japan,"Japan, Taiwan, Marianas",Ryukyu Islands and Kyushu,32.657,128.849,315,18334,40407,61450,704523
282100,Unzendake,Complex,1996,Japan,"Japan, Taiwan, Marianas",Ryukyu Islands and Kyushu,32.761,130.299,1483,6979,76424,444737,7313362
282110,Asosan,Caldera,2021,Japan,"Japan, Taiwan, Marianas",Ryukyu Islands and Kyushu,32.884,131.104,1592,75559,75559,234591,6507519
282120,Kujusan,Stratovolcano(es),1996,Japan,"Japan, Taiwan, Marianas",Ryukyu Islands and Kyushu,33.086,131.249,1791,1667,11771,181541,7815706
282130,Yufu-Tsurumi,Lava dome(s),867,Japan,"Japan, Taiwan, Marianas",Ryukyu Islands and Kyushu,33.282,131.39,1584,28543,139722,709942,7767905
283001,Abu,Shield(s),-6850,Japan,"Japan, Taiwan, Marianas",Honshu,34.5,131.6,641,3597,9594,117805,4071152
283002,Sanbesan,Stratovolcano,650,Japan,"Japan, Taiwan, Marianas",Honshu,35.141,132.622,1126,1300,6795,171742,3597290
283003,Oki-Dogo,Shield,Unknown,Japan,"Japan, Taiwan, Marianas",Honshu,36.176,133.334,151,6391,12388,22076,691492
283010,Izu-Tobu,Pyroclastic cone(s),1989,Japan,"Japan, Taiwan, Marianas",Honshu,34.9,139.098,1406,5886,61727,447660,17928355
283020,Hakoneyama,Complex,2015,Japan,"Japan, Taiwan, Marianas",Honshu,35.233,139.021,1438,14140,53755,1543563,30282197
283030,Fujisan,Stratovolcano,1708,Japan,"Japan, Taiwan, Marianas",Honshu,35.361,138.728,3776,570,1759,906969,25022187
283031,Yokodake,Stratovolcano(es),1200,Japan,"Japan, Taiwan, Marianas",Honshu,36.087,138.32,2480,1920,11751,484929,6385773
283040,Ontakesan,Complex,2014,Japan,"Japan, Taiwan, Marianas",Honshu,35.893,137.48,3067,176,2098,86634,8307889
283050,Hakusan,Stratovolcano,1659,Japan,"Japan, Taiwan, Marianas",Honshu,36.155,136.771,2702,474,807,63965,5959200
283060,Norikuradake,Stratovolcano(es),-50,Japan,"Japan, Taiwan, Marianas",Honshu,36.106,137.554,3026,250,1616,109638,5057979
283069,Akandanayama,Stratovolcano,Unknown,Japan,"Japan, Taiwan, Marianas",Honshu,36.2,137.573,2109,0,0,0,0
283070,Yakedake,Stratovolcano(es),1995,Japan,"Japan, Taiwan, Marianas",Honshu,36.227,137.587,2455,995,2995,156542,4595286
283071,Washiba-Kumonotaira,Shield(s),Unknown,Japan,"Japan, Taiwan, Marianas",Honshu,36.408,137.594,2924,53,215,104826,4446247
283080,Midagahara,Stratovolcano,1839,Japan,"Japan, Taiwan, Marianas",Honshu,36.571,137.59,2621,401,521,143935,4455560
283090,Niigata-Yakeyama,Lava dome,1998,Japan,"Japan, Taiwan, Marianas",Honshu,36.921,138.036,2400,73,610,226866,3920252
283100,Myokosan,Stratovolcano,-750,Japan,"Japan, Taiwan, Marianas",Honshu,36.891,138.114,2454,1563,11033,561142,4118863
283110,Asamayama,Complex,2019,Japan,"Japan, Taiwan, Marianas",Honshu,36.406,138.523,2568,583,22371,457576,7629353
283120,Kusatsu-Shiranesan,Stratovolcano(es),2018,Japan,"Japan, Taiwan, Marianas",Honshu,36.618,138.528,2165,4485,14296,434049,5947593
283121,Shiga,Shield(s),Unknown,Japan,"Japan, Taiwan, Marianas",Honshu,36.688,138.519,2041,2474,9610,449713,5784413
283122,Harunasan,Stratovolcano,550,Japan,"Japan, Taiwan, Marianas",Honshu,36.477,138.851,1449,1135,36116,1185012,14076385
283130,Akagisan,Stratovolcano,Unknown,Japan,"Japan, Taiwan, Marianas",Honshu,36.56,139.193,1828,961,4538,1116366,16718375
283131,Hiuchigatake,Stratovolcano,1544,Japan,"Japan, Taiwan, Marianas",Honshu,36.955,139.285,2356,179,720,18567,7523509
283140,Nikko-Shiranesan,Shield,1952,Japan,"Japan, Taiwan, Marianas",Honshu,36.799,139.376,2578,513,2502,79844,9303980
283141,Nantaisan,Stratovolcano,-9540,Japan,"Japan, Taiwan, Marianas",Honshu,36.765,139.491,2486,781,12768,128931,11079746
283142,Omanago Group,Lava dome(s),-3050,Japan,"Japan, Taiwan, Marianas",Honshu,36.795,139.507,2341,698,16316,113236,10276159
283143,Takaharayama,Stratovolcano,-4570,Japan,"Japan, Taiwan, Marianas",Honshu,36.9,139.777,1795,303,4572,381490,8750106
283150,Nasudake,Stratovolcano(es),1963,Japan,"Japan, Taiwan, Marianas",Honshu,37.125,139.963,1915,639,5802,298717,5725203
283151,Numazawa,Shield,-3400,Japan,"Japan, Taiwan, Marianas",Honshu,37.444,139.566,835,990,4082,110303,4383246
283160,Bandaisan,Stratovolcano,1888,Japan,"Japan, Taiwan, Marianas",Honshu,37.601,140.072,1816,5923,17608,327454,4709782
283170,Adatarayama,Stratovolcano(es),1996,Japan,"Japan, Taiwan, Marianas",Honshu,37.647,140.281,1728,428,3936,717078,5024654
283180,Azumayama,Stratovolcano(es),1977,Japan,"Japan, Taiwan, Marianas",Honshu,37.735,140.244,1949,128,907,548195,4877648
283190,Zaozan [Zaosan],Complex,1940,Japan,"Japan, Taiwan, Marianas",Honshu,38.144,140.44,1841,632,4681,550409,4956958
283191,Hijiori,Caldera,Unknown,Japan,"Japan, Taiwan, Marianas",Honshu,38.599,140.162,552,83511,83511,302176,4338240
283200,Naruko,Caldera,837,Japan,"Japan, Taiwan, Marianas",Honshu,38.729,140.734,470,54771,54771,210262,4417058
283210,Kurikomayama,Stratovolcano,1950,Japan,"Japan, Taiwan, Marianas",Honshu,38.961,140.788,1627,226,1081,104165,4615592
283220,Chokaisan,Stratovolcano(es),1974,Japan,"Japan, Taiwan, Marianas",Honshu,39.099,140.049,2236,131,707,185681,2301576
283230,Akita-Komagatake,Stratovolcano(es),1971,Japan,"Japan, Taiwan, Marianas",Honshu,39.761,140.799,1637,376,3864,216708,2521611
283240,Iwatesan,Complex,1919,Japan,"Japan, Taiwan, Marianas",Honshu,39.853,141.001,2038,439,18462,415920,2976795
283250,Hachimantai,Stratovolcano,-5350,Japan,"Japan, Taiwan, Marianas",Honshu,39.958,140.854,1613,268,1261,89833,3131126
283260,Akita-Yakeyama,Stratovolcano,1997,Japan,"Japan, Taiwan, Marianas",Honshu,39.964,140.757,1366,127,721,55493,3122037
283262,Megata,Maar(s),-2050,Japan,"Japan, Taiwan, Marianas",Honshu,39.95,139.73,291,1854,3577,81218,1205440
283270,Iwakisan,Stratovolcano,1863,Japan,"Japan, Taiwan, Marianas",Honshu,40.656,140.303,1625,918,13229,465065,1617801
283271,Towada,Caldera,915,Japan,"Japan, Taiwan, Marianas",Honshu,40.51,140.88,1011,12366,12366,103631,2237010
283280,Hakkodasan,Stratovolcano(es),1550,Japan,"Japan, Taiwan, Marianas",Honshu,40.659,140.877,1585,225,730,476624,1921667
283290,Osorezan,Stratovolcano,1787,Japan,"Japan, Taiwan, Marianas",Honshu,41.279,141.12,878,11577,42590,80028,1714622
284010,Izu-Oshima,Stratovolcano,1990,Japan,"Japan, Taiwan, Marianas","Izu, Volcano, and Mariana Islands",34.724,139.394,746,2381,8037,8375,11837468
284011,Toshima,Stratovolcano,-4550,Japan,"Japan, Taiwan, Marianas","Izu, Volcano, and Mariana Islands",34.52,139.279,508,330,331,13194,5285115
284020,Niijima,Lava dome(s),886,Japan,"Japan, Taiwan, Marianas","Izu, Volcano, and Mariana Islands",34.397,139.27,432,3060,3349,6139,1347661
284030,Kozushima,Lava dome(s),838,Japan,"Japan, Taiwan, Marianas","Izu, Volcano, and Mariana Islands",34.219,139.153,572,2406,2406,5716,442731
284040,Miyakejima,Stratovolcano,2010,Japan,"Japan, Taiwan, Marianas","Izu, Volcano, and Mariana Islands",34.094,139.526,775,1848,3189,3474,95663
284041,Mikurajima,Stratovolcano,-4100,Japan,"Japan, Taiwan, Marianas","Izu, Volcano, and Mariana Islands",33.874,139.602,851,293,293,4551,25466
284042,Kurose Hole,Submarine,Unknown,Japan,"Japan, Taiwan, Marianas","Izu, Volcano, and Mariana Islands",33.4,139.68,-107,0,0,46,14951
284050,Hachijojima,Stratovolcano(es),1606,Japan,"Japan, Taiwan, Marianas","Izu, Volcano, and Mariana Islands",33.137,139.766,854,11275,13560,13564,14082
284060,Aogashima,Stratovolcano,1785,Japan,"Japan, Taiwan, Marianas","Izu, Volcano, and Mariana Islands",32.458,139.759,423,232,232,232,8559
284061,Kita-Bayonnaise,Submarine,Unknown,Japan,"Japan, Taiwan, Marianas","Izu, Volcano, and Mariana Islands",32.1,139.85,-360,0,0,0,232
284070,Myojinsho,Submarine,1970,Japan,"Japan, Taiwan, Marianas","Izu, Volcano, and Mariana Islands",31.888,139.918,11,0,0,0,242
284080,Sumisujima,Submarine,1916,Japan,"Japan, Taiwan, Marianas","Izu, Volcano, and Mariana Islands",31.44,140.051,136,0,0,0,0
284090,Izu-Torishima,Stratovolcano,2002,Japan,"Japan, Taiwan, Marianas","Izu, Volcano, and Mariana Islands",30.484,140.303,394,21,21,21,21
284091,Sofugan,Stratovolcano,Unknown,Japan,"Japan, Taiwan, Marianas","Izu, Volcano, and Mariana Islands",29.794,140.342,99,0,0,0,21
284093,Suiyo Seamount,Submarine,Unknown,Japan,"Japan, Taiwan, Marianas","Izu, Volcano, and Mariana Islands",28.575,140.633,-991,0,0,0,0
284094,Mokuyo Seamount,Submarine,Unknown,Japan,"Japan, Taiwan, Marianas","Izu, Volcano, and Mariana Islands",28.327,140.572,-933,0,0,0,0
284095,Doyo Seamount,Submarine,Unknown,Japan,"Japan, Taiwan, Marianas","Izu, Volcano, and Mariana Islands",27.68,140.8,-590,0,0,0,0
284096,Nishinoshima,Caldera,2021,Japan,"Japan, Taiwan, Marianas","Izu, Volcano, and Mariana Islands",27.247,140.874,25,0,0,0,0
284097,Kaikata Seamount,Submarine,Unknown,Japan,"Japan, Taiwan, Marianas","Izu, Volcano, and Mariana Islands",26.667,140.929,-165,0,0,0,0
284100,Kaitoku Seamount,Submarine,1984,Japan,"Japan, Taiwan, Marianas","Izu, Volcano, and Mariana Islands",26.127,141.102,-95,0,0,0,160
284110,Kita-Ioto,Stratovolcano,1945,Japan,"Japan, Taiwan, Marianas","Izu, Volcano, and Mariana Islands",25.424,141.284,792,158,162,162,1210
284120,Ioto,Caldera,2012,Japan,"Japan, Taiwan, Marianas","Izu, Volcano, and Mariana Islands",24.751,141.289,169,1179,1179,1189,1370
284121,Kita-Fukutokutai,Submarine,1954,Japan,"Japan, Taiwan, Marianas","Izu, Volcano, and Mariana Islands",24.417,141.417,-73,0,0,23,1209
284130,Fukutoku-Oka-no-Ba,Submarine,2021,Japan,"Japan, Taiwan, Marianas","Izu, Volcano, and Mariana Islands",24.285,141.481,-29,11,19,19,951
284131,Minami-Hiyoshi,Submarine,1975,Japan,"Japan, Taiwan, Marianas","Izu, Volcano, and Mariana Islands",23.5,141.935,-107,0,0,0,26
284132,Nikko,Submarine,Unknown,Japan,"Japan, Taiwan, Marianas","Izu, Volcano, and Mariana Islands",23.078,142.326,-392,0,0,0,0
284133,Fukujin,Submarine,1974,United States,"Japan, Taiwan, Marianas","Izu, Volcano, and Mariana Islands",21.93,143.47,-217,0,0,0,0
284134,Kasuga 1,Submarine,1959,United States,"Japan, Taiwan, Marianas","Izu, Volcano, and Mariana Islands",21.765,143.71,-598,0,0,0,0
284135,Kasuga 2,Submarine,Unknown,United States,"Japan, Taiwan, Marianas","Izu, Volcano, and Mariana Islands",21.6,143.637,-274,0,0,0,0
284136,NW Eifuku,Submarine,Unknown,United States,"Japan, Taiwan, Marianas","Izu, Volcano, and Mariana Islands",21.485,144.043,-1535,0,0,0,0
284137,Daikoku,Submarine,Unknown,United States,"Japan, Taiwan, Marianas","Izu, Volcano, and Mariana Islands",21.324,144.194,-323,0,0,0,0
284140,Farallon de Pajaros,Stratovolcano,1967,United States,"Japan, Taiwan, Marianas","Izu, Volcano, and Mariana Islands",20.546,144.893,337,0,0,0,0
284141,Ahyi,Submarine,2014,United States,"Japan, Taiwan, Marianas","Izu, Volcano, and Mariana Islands",20.42,145.03,-75,0,0,0,0
284142,Supply Reef,Submarine,1989,United States,"Japan, Taiwan, Marianas","Izu, Volcano, and Mariana Islands",20.13,145.1,-8,0,0,0,0
284143,Maug Islands,Stratovolcano,Unknown,United States,"Japan, Taiwan, Marianas","Izu, Volcano, and Mariana Islands",20.02,145.22,227,0,0,0,0
284150,Asuncion,Stratovolcano,1906,United States,"Japan, Taiwan, Marianas","Izu, Volcano, and Mariana Islands",19.671,145.406,857,0,0,0,0
284160,Agrigan,Stratovolcano,1917,United States,"Japan, Taiwan, Marianas","Izu, Volcano, and Mariana Islands",18.77,145.67,965,0,0,0,0
284170,Pagan,Stratovolcano(es),2021,United States,"Japan, Taiwan, Marianas","Izu, Volcano, and Mariana Islands",18.13,145.8,570,0,0,0,0
284180,Alamagan,Stratovolcano,870,United States,"Japan, Taiwan, Marianas","Izu, Volcano, and Mariana Islands",17.6,145.83,744,0,0,0,0
284190,Guguan,Stratovolcano,1883,United States,"Japan, Taiwan, Marianas","Izu, Volcano, and Mariana Islands",17.307,145.845,287,0,0,0,0
284191,Zealandia Bank,Stratovolcano,Unknown,United States,"Japan, Taiwan, Marianas","Izu, Volcano, and Mariana Islands",16.88,145.85,0,0,0,0,0
284192,Sarigan,Stratovolcano,Unknown,United States,"Japan, Taiwan, Marianas","Izu, Volcano, and Mariana Islands",16.708,145.78,538,0,0,0,0
284193,South Sarigan Seamount,Submarine,2010,United States,"Japan, Taiwan, Marianas","Izu, Volcano, and Mariana Islands",16.58,145.78,-184,0,0,0,0
284200,Anatahan,Stratovolcano,2008,United States,"Japan, Taiwan, Marianas","Izu, Volcano, and Mariana Islands",16.35,145.67,790,0,0,0,0
284201,East Diamante,Submarine,Unknown,United States,"Japan, Taiwan, Marianas","Izu, Volcano, and Mariana Islands",15.93,145.67,-127,0,0,0,76403
284202,Ruby,Submarine,1995,United States,"Japan, Taiwan, Marianas","Izu, Volcano, and Mariana Islands",15.62,145.57,-230,0,0,0,80613
284210,Esmeralda Bank,Submarine,Unknown,United States,"Japan, Taiwan, Marianas","Izu, Volcano, and Mariana Islands",15,145.25,-43,0,0,0,84578
284211,NW Rota-1,Submarine,2010,United States,"Japan, Taiwan, Marianas","Izu, Volcano, and Mariana Islands",14.601,144.775,-517,0,0,0,5988
284220,Forecast Seamount,Submarine,Unknown,United States,"Japan, Taiwan, Marianas","Izu, Volcano, and Mariana Islands",13.4,143.92,-1456,0,0,0,143992
284230,Seamount X,Submarine,Unknown,United States,"Japan, Taiwan, Marianas","Izu, Volcano, and Mariana Islands",13.25,144.02,-1230,0,0,0,167168
284305,Mariana Back-Arc Segment at 15.5Â°N,Submarine,2015,United States,"Japan, Taiwan, Marianas","Izu, Volcano, and Mariana Islands",15.406,144.506,-4100,0,0,0,0
285010,Oshima-Oshima,Stratovolcano,1790,Japan,"Japan, Taiwan, Marianas",Hokkaido,41.51,139.367,732,6,6,6,88023
285011,Esan,Lava dome(s),1874,Japan,"Japan, Taiwan, Marianas",Hokkaido,41.805,141.166,618,1734,5831,33197,916560
285020,Hokkaido-Komagatake,Stratovolcano,2000,Japan,"Japan, Taiwan, Marianas",Hokkaido,42.063,140.677,1131,173,23091,234213,962081
285030,Toya,Stratovolcano,2001,Japan,"Japan, Taiwan, Marianas",Hokkaido,42.544,140.839,733,5723,36191,214565,3206914
285031,Niseko,Stratovolcano(es),-4900,Japan,"Japan, Taiwan, Marianas",Hokkaido,42.875,140.659,1308,778,9981,75171,2967982
285032,Yoteizan,Stratovolcano,-1050,Japan,"Japan, Taiwan, Marianas",Hokkaido,42.827,140.812,1888,205,19419,80006,2988960
285034,Kuttara,Stratovolcano(es),1820,Japan,"Japan, Taiwan, Marianas",Hokkaido,42.491,141.16,549,10198,34015,220509,3371955
285040,Shikotsu,Caldera,1979,Japan,"Japan, Taiwan, Marianas",Hokkaido,42.688,141.38,1320,130474,130474,316816,3096376
285041,Rishirizan,Stratovolcano,-5830,Japan,"Japan, Taiwan, Marianas",Hokkaido,45.179,141.242,1721,178,9895,12933,94414
285050,Tokachidake,Stratovolcano(es),2004,Japan,"Japan, Taiwan, Marianas",Hokkaido,43.418,142.686,2077,12,227,60382,1373264
285060,Taisetsuzan,Stratovolcano(es),1739,Japan,"Japan, Taiwan, Marianas",Hokkaido,43.664,142.854,2291,19,119,16391,1304267
285061,Maruyama,Stratovolcano(es),1898,Japan,"Japan, Taiwan, Marianas",Hokkaido,43.418,143.031,2013,0,6,3682,1260920
285070,Akan,Caldera,2008,Japan,"Japan, Taiwan, Marianas",Hokkaido,43.384,144.013,1499,2062,2062,9756,929538
285080,Kussharo,Caldera,1320,Japan,"Japan, Taiwan, Marianas",Hokkaido,43.615,144.427,574,8331,8331,26476,680109
285081,Mashu,Caldera,1080,Japan,"Japan, Taiwan, Marianas",Hokkaido,43.572,144.561,857,9794,9794,25627,632919
285082,Rausudake,Stratovolcano,1800,Japan,"Japan, Taiwan, Marianas",Hokkaido,44.076,145.122,1660,35,4623,8574,218325
285083,Tenchozan,Crater rows,Unknown,Japan,"Japan, Taiwan, Marianas",Hokkaido,44.044,145.086,1046,0,0,0,0
285090,Shiretoko-Iozan,Stratovolcano,1936,Japan,"Japan, Taiwan, Marianas",Hokkaido,44.133,145.161,1562,6,1516,7890,209060
290010,Tomariyama [Golovnin],Caldera,1848,Japan,Kuril Islands,Kuril Islands,43.844,145.504,535,1796,1796,2445,159344
290020,Raususan [Mendeleev],Stratovolcano,1880,Japan,Kuril Islands,Kuril Islands,43.979,145.733,882,236,1783,3527,114486
290021,Ruruidake [Smirnov],Stratovolcano,Unknown,Japan,Kuril Islands,Kuril Islands,44.454,146.139,1486,0,108,903,16132
290030,Chachadake [Tiatia],Stratovolcano,1981,Japan,Kuril Islands,Kuril Islands,44.353,146.252,1822,3,223,896,16275
290040,Berutarubesan [Berutarube],Stratovolcano,Unknown,Japan,Kuril Islands,Kuril Islands,44.462,146.932,1221,0,113,240,9155
290041,Moekeshiwan [Lvinaya Past],Stratovolcano,-7480,Japan,Kuril Islands,Kuril Islands,44.608,146.994,528,0,206,588,5938
290050,Etorofu-Atosanupuri [Atosanupuri],Stratovolcano,1932,Japan,Kuril Islands,Kuril Islands,44.808,147.131,1206,1,289,644,4311
290060,Hitokappu Volcano Group [Bogatyr Ridge],Stratovolcano,Unknown,Japan,Kuril Islands,Kuril Islands,44.857,147.403,1610,5,130,1268,5735
290061,Unnamed,Submarine,Unknown,Japan,Kuril Islands,Kuril Islands,45.022,147.019,-195,0,0,693,5920
290070,Etorofu-Yakeyama [Grozny Group],Complex(es),2013,Japan,Kuril Islands,Kuril Islands,45.012,147.871,1158,0,39,2417,6361
290072,Odamoisan [Tebenkov],Stratovolcano,Unknown,Japan,Kuril Islands,Kuril Islands,45.028,147.918,1208,0,0,0,0
290080,Sashiusudake [Baransky],Stratovolcano,1951,Japan,Kuril Islands,Kuril Islands,45.1,148.019,1125,0,0,4061,6487
290090,Chirippusan [Chirip],Stratovolcano(es),1860,Japan,Kuril Islands,Kuril Islands,45.338,147.92,1587,77,372,1125,4810
290100,Moyorodake [Medvezhia],Stratovolcano,1999,Japan,Kuril Islands,Kuril Islands,45.389,148.838,1124,11,42,600,4333
290110,Rakkibetsudake [Demon],Stratovolcano,Unknown,Japan,Kuril Islands,Kuril Islands,45.5,148.85,1205,69,150,453,4180
290111,Ivao Group,Pyroclastic cone(s),Unknown,Russia,Kuril Islands,Kuril Islands,45.77,149.68,1426,1,10,37,959
290112,Rudakov,Stratovolcano,Unknown,Russia,Kuril Islands,Kuril Islands,45.874,149.819,532,11,18,39,643
290113,Tri Sestry,Stratovolcano,Unknown,Russia,Kuril Islands,Kuril Islands,45.93,149.92,998,0,0,34,532
290120,Kolokol Group,Stratovolcano,1973,Russia,Kuril Islands,Kuril Islands,46.042,150.083,1328,2,2,128,375
290150,Chirpoi,Caldera,2016,Russia,Kuril Islands,Kuril Islands,46.532,150.871,742,1,1,3,491
290160,Unnamed,Submarine,1972,Russia,Kuril Islands,Kuril Islands,46.47,151.28,-502,0,0,0,578
290161,Milna,Stratovolcano,1914,Russia,Kuril Islands,Kuril Islands,46.815,151.786,1504,43,47,49,188
290180,Zavaritzki Caldera,Caldera,1957,Russia,Kuril Islands,Kuril Islands,46.925,151.95,624,46,46,61,118
290190,Prevo Peak,Stratovolcano,1825,Russia,Kuril Islands,Kuril Islands,47.02,152.12,1360,0,6,92,146
290191,Uratman,Stratovolcano,Unknown,Russia,Kuril Islands,Kuril Islands,47.12,152.25,678,3,9,20,33
290200,Ketoi,Stratovolcano,1960,Russia,Kuril Islands,Kuril Islands,47.35,152.475,1172,1,10,11,90
290210,Ushishur,Caldera,1884,Russia,Kuril Islands,Kuril Islands,47.52,152.8,401,0,0,16,275
290211,Srednii,Submarine,Unknown,Russia,Kuril Islands,Kuril Islands,47.6,152.92,36,0,0,8,279
290220,Rasshua,Stratovolcano,1957,Russia,Kuril Islands,Kuril Islands,47.77,153.02,956,0,9,9,200
290240,Sarychev Peak,Stratovolcano,2021,Russia,Kuril Islands,Kuril Islands,48.092,153.2,1496,17,143,143,148
290250,Raikoke,Stratovolcano,2019,Russia,Kuril Islands,Kuril Islands,48.292,153.25,551,0,0,134,142
290260,Chirinkotan,Stratovolcano,2021,Russia,Kuril Islands,Kuril Islands,48.98,153.48,724,0,0,0,6
290270,Ekarma,Stratovolcano,2010,Russia,Kuril Islands,Kuril Islands,48.958,153.93,1170,0,0,1,26
290290,Sinarka,Stratovolcano,1878,Russia,Kuril Islands,Kuril Islands,48.873,154.182,911,0,3,3,57
290300,Kharimkotan,Stratovolcano,1933,Russia,Kuril Islands,Kuril Islands,49.12,154.508,1145,2,2,4,22
290310,Tao-Rusyr Caldera,Stratovolcano,1952,Russia,Kuril Islands,Kuril Islands,49.34,154.725,1272,0,73,83,394
290320,Nemo Peak,Caldera,1938,Russia,Kuril Islands,Kuril Islands,49.57,154.808,1018,15,15,46,582
290331,Shirinki,Stratovolcano,Unknown,Russia,Kuril Islands,Kuril Islands,50.2,154.98,761,0,0,50,1389
290340,Fuss Peak,Stratovolcano,1854,Russia,Kuril Islands,Kuril Islands,50.267,155.246,1742,0,62,354,1891
290350,Karpinsky Group,Cone(s),1952,Russia,Kuril Islands,Kuril Islands,50.148,155.373,1326,0,104,516,1853
290360,Chikurachki,Stratovolcano(es),2016,Russia,Kuril Islands,Kuril Islands,50.324,155.461,1781,0,65,527,2492
290370,Vernadskii Ridge,Pyroclastic cone(s),Unknown,Russia,Kuril Islands,Kuril Islands,50.55,155.97,1183,0,2,976,3064
290380,Ebeko,Stratovolcano,2021,Russia,Kuril Islands,Kuril Islands,50.686,156.014,1103,0,267,1076,3098
290390,Alaid,Stratovolcano,2018,Russia,Kuril Islands,Kuril Islands,50.861,155.565,2285,0,64,64,2887
300010,Kambalny,Stratovolcano,2017,Russia,Kamchatka and Mainland Asia,Kamchatka Peninsula,51.306,156.875,2116,0,20,572,4525
300020,Koshelev,Stratovolcano,1690,Russia,Kamchatka and Mainland Asia,Kamchatka Peninsula,51.356,156.753,1822,0,2,855,4390
300021,Yavinsky,Stratovolcano,-4050,Russia,Kamchatka and Mainland Asia,Kamchatka Peninsula,51.533,156.629,646,30,595,1356,4813
300022,Diky Greben,Lava dome(s),350,Russia,Kamchatka and Mainland Asia,Kamchatka Peninsula,51.452,156.978,1040,0,56,544,4568
300023,Kurile Lake,Caldera,-6440,Russia,Kamchatka and Mainland Asia,Kamchatka Peninsula,51.45,157.12,81,23,23,397,4078
300030,Iliinsky,Stratovolcano,1901,Russia,Kamchatka and Mainland Asia,Kamchatka Peninsula,51.498,157.203,1555,0,0,410,4173
300040,Zheltovsky,Stratovolcano,1923,Russia,Kamchatka and Mainland Asia,Kamchatka Peninsula,51.577,157.328,1926,0,21,135,3737
300050,Ksudach,Stratovolcano,1907,Russia,Kamchatka and Mainland Asia,Kamchatka Peninsula,51.844,157.572,1079,0,0,244,3850
300052,Olkoviy Volcanic Group,Volcanic field,Unknown,Russia,Kamchatka and Mainland Asia,Kamchatka Peninsula,52.02,157.53,681,34,34,46,3780
300053,Khodutka,Stratovolcano(es),-300,Russia,Kamchatka and Mainland Asia,Kamchatka Peninsula,52.062,157.711,2039,0,0,187,3525
300058,Asacha,Complex,Unknown,Russia,Kamchatka and Mainland Asia,Kamchatka Peninsula,52.355,157.827,1910,0,0,34,238467
300059,Visokiy,Stratovolcano,Unknown,Russia,Kamchatka and Mainland Asia,Kamchatka Peninsula,52.43,157.93,1234,0,0,30,232358
300060,Mutnovsky,Complex,2000,Russia,Kamchatka and Mainland Asia,Kamchatka Peninsula,52.449,158.196,2288,0,0,97,250858
300070,Gorely,Caldera,2010,Russia,Kamchatka and Mainland Asia,Kamchatka Peninsula,52.559,158.03,1799,0,0,19,250293
300080,Opala,Caldera,1776,Russia,Kamchatka and Mainland Asia,Kamchatka Peninsula,52.543,157.339,2439,22,22,50,58949
300082,Tolmachev Dol,Pyroclastic cone(s),300,Russia,Kamchatka and Mainland Asia,Kamchatka Peninsula,52.63,157.58,1021,2,2,14,247676
300083,Vilyuchinsky,Stratovolcano,-8050,Russia,Kamchatka and Mainland Asia,Kamchatka Peninsula,52.7,158.28,2173,0,1,23874,276468
300084,Barkhatnaya Sopka,Lava dome(s),-3550,Russia,Kamchatka and Mainland Asia,Kamchatka Peninsula,52.802,158.24,874,0,208,13963,252873
300090,Koryaksky,Stratovolcano,2009,Russia,Kamchatka and Mainland Asia,Kamchatka Peninsula,53.321,158.712,3430,0,13,142050,257322
300100,Avachinsky,Stratovolcano,2001,Russia,Kamchatka and Mainland Asia,Kamchatka Peninsula,53.256,158.836,2717,0,0,180016,270205
300110,Dzenzursky,Compound,Unknown,Russia,Kamchatka and Mainland Asia,Kamchatka Peninsula,53.637,158.922,2285,0,0,110,250934
300120,Zhupanovsky,Compound,2016,Russia,Kamchatka and Mainland Asia,Kamchatka Peninsula,53.589,159.15,2899,0,0,153,267080
300121,Veer,Pyroclastic cone(s),390,Russia,Kamchatka and Mainland Asia,Kamchatka Peninsula,53.75,158.45,520,0,1,44,266763
300122,Kostakan,Pyroclastic cone(s),1350,Russia,Kamchatka and Mainland Asia,Kamchatka Peninsula,53.83,158.05,1150,13,13,1352,232577
300123,Bakening,Stratovolcano,-550,Russia,Kamchatka and Mainland Asia,Kamchatka Peninsula,53.905,158.07,2278,0,10,1583,87139
300124,Zavaritsky,Pyroclastic cone(s),-800,Russia,Kamchatka and Mainland Asia,Kamchatka Peninsula,53.905,158.385,1567,0,0,37,223868
300125,Akademia Nauk,Stratovolcano(es),1996,Russia,Kamchatka and Mainland Asia,Kamchatka Peninsula,53.98,159.45,1180,3,3,615,12484
300130,Karymsky,Stratovolcano,2022,Russia,Kamchatka and Mainland Asia,Kamchatka Peninsula,54.049,159.443,1513,0,0,291,10848
300140,Maly Semyachik,Caldera,1952,Russia,Kamchatka and Mainland Asia,Kamchatka Peninsula,54.135,159.674,1527,98,98,497,10182
300150,Bolshoi Semiachik,Stratovolcano(es),-4450,Russia,Kamchatka and Mainland Asia,Kamchatka Peninsula,54.32,160.02,1720,0,0,554,7373
300160,Taunshits,Stratovolcano,-550,Russia,Kamchatka and Mainland Asia,Kamchatka Peninsula,54.528,159.804,2301,0,0,186,11110
300170,Uzon,Caldera(s),200,Russia,Kamchatka and Mainland Asia,Kamchatka Peninsula,54.5,159.97,1617,0,0,294,9144
300180,Kikhpinych,Stratovolcano(es),1550,Russia,Kamchatka and Mainland Asia,Kamchatka Peninsula,54.489,160.251,1515,0,29,687,4322
300190,Krasheninnikov,Caldera,1550,Russia,Kamchatka and Mainland Asia,Kamchatka Peninsula,54.596,160.27,1816,308,308,814,4674
300200,Kronotsky,Stratovolcano,1923,Russia,Kamchatka and Mainland Asia,Kamchatka Peninsula,54.753,160.533,3482,0,12,1323,3531
300210,Gamchen,Complex,-550,Russia,Kamchatka and Mainland Asia,Kamchatka Peninsula,54.974,160.703,2539,0,0,382,3829
300220,Komarov,Stratovolcano,950,Russia,Kamchatka and Mainland Asia,Kamchatka Peninsula,55.033,160.725,2065,0,0,238,3756
300221,Vysoky,Stratovolcano,-550,Russia,Kamchatka and Mainland Asia,Kamchatka Peninsula,55.064,160.765,2129,0,0,123,3657
300230,Kizimen,Stratovolcano,2013,Russia,Kamchatka and Mainland Asia,Kamchatka Peninsula,55.131,160.32,2334,0,26,197,5564
300240,Tolbachik,Shield,2013,Russia,Kamchatka and Mainland Asia,Kamchatka Peninsula,55.832,160.326,3611,0,0,225,10487
300241,Udina,Stratovolcano(es),Unknown,Russia,Kamchatka and Mainland Asia,Kamchatka Peninsula,55.758,160.527,2886,0,2,63,10334
300242,Zimina,Stratovolcano(es),Unknown,Russia,Kamchatka and Mainland Asia,Kamchatka Peninsula,55.862,160.603,3057,0,0,77,11184
300250,Bezymianny,Stratovolcano,2022,Russia,Kamchatka and Mainland Asia,Kamchatka Peninsula,55.972,160.595,2882,0,0,47,11728
300251,Kamen,Stratovolcano,Unknown,Russia,Kamchatka and Mainland Asia,Kamchatka Peninsula,56.02,160.593,4585,0,0,63,11138
300260,Klyuchevskoy,Stratovolcano,2021,Russia,Kamchatka and Mainland Asia,Kamchatka Peninsula,56.056,160.642,4754,0,0,292,12406
300261,Ushkovsky,Compound,1890,Russia,Kamchatka and Mainland Asia,Kamchatka Peninsula,56.113,160.509,3943,0,0,292,12461
300270,Sheveluch,Stratovolcano,2022,Russia,Kamchatka and Mainland Asia,Kamchatka Peninsula,56.653,161.36,3283,0,0,1718,11613
300271,Piip,Submarine,-5050,Russia,Kamchatka and Mainland Asia,Kamchatka Peninsula,55.42,167.33,-300,0,0,0,574
300272,Khangar,Stratovolcano,1500,Russia,Kamchatka and Mainland Asia,Kamchatka Peninsula,54.761,157.407,1967,0,0,38,11805
300273,Cherpuk Group,Pyroclastic cone(s),-4550,Russia,Kamchatka and Mainland Asia,Kamchatka Peninsula,55.55,157.47,1868,0,0,32,3323
300280,Ichinsky,Stratovolcano,1740,Russia,Kamchatka and Mainland Asia,Kamchatka Peninsula,55.678,157.718,3596,0,0,34,2670
300310,Plosky,Shield,Unknown,Russia,Kamchatka and Mainland Asia,Kamchatka Peninsula,55.2,158.47,1236,0,40,173,9676
300360,Bolshoi-Kekuknaysky,Shield(s),-5310,Russia,Kamchatka and Mainland Asia,Kamchatka Peninsula,56.483,157.917,1401,0,0,158,2779
300450,Alney-Chashakondzha,Stratovolcano,1600,Russia,Kamchatka and Mainland Asia,Kamchatka Peninsula,56.656,159.647,2570,0,0,3,10679
300511,Shisheika,Lava dome,-2240,Russia,Kamchatka and Mainland Asia,Kamchatka Peninsula,57.153,161.09,355,0,8,363,7530
300512,Terpuk,Shield,-800,Russia,Kamchatka and Mainland Asia,Kamchatka Peninsula,57.2,159.83,765,0,2,33,4551
300520,Sedanka Lava Field,Volcanic field,-7050,Russia,Kamchatka and Mainland Asia,Kamchatka Peninsula,57.317,160.067,1399,0,0,77,3603
300550,Gorny Institute,Stratovolcano,1250,Russia,Kamchatka and Mainland Asia,Kamchatka Peninsula,57.33,160.2,2125,0,0,17,3454
300551,Kinenin,Maar,850,Russia,Kamchatka and Mainland Asia,Kamchatka Peninsula,57.35,160.97,583,0,0,94,3650
300552,Bliznetsy,Lava cone,-1060,Russia,Kamchatka and Mainland Asia,Kamchatka Peninsula,57.35,161.37,265,0,4,155,3822
300560,Titila,Shield(s),-550,Russia,Kamchatka and Mainland Asia,Kamchatka Peninsula,57.406,160.108,1523,0,0,72,2877
300590,Elovsky,Shield(s),-7550,Russia,Kamchatka and Mainland Asia,Kamchatka Peninsula,57.55,160.53,1381,0,0,44,2704
300650,Nylgimelkin,Shield(s),-3550,Russia,Kamchatka and Mainland Asia,Kamchatka Peninsula,57.97,160.65,1764,0,0,26,1792
300671,Spokoiny,Stratovolcano,-3450,Russia,Kamchatka and Mainland Asia,Kamchatka Peninsula,58.13,160.82,2171,0,0,16,2522
300680,Ostry,Stratovolcano,-2050,Russia,Kamchatka and Mainland Asia,Kamchatka Peninsula,58.18,160.82,2552,0,0,8,2547
300700,Severny,Shield,-1550,Russia,Kamchatka and Mainland Asia,Kamchatka Peninsula,58.28,160.87,1936,0,0,4,3152
300720,Voyampolsky,Shield(s),Unknown,Russia,Kamchatka and Mainland Asia,Kamchatka Peninsula,58.374,160.631,1103,0,0,74,2758
302030,Udokan Plateau,Pyroclastic cone(s),-220,Russia,Kamchatka and Mainland Asia,Russia (southeastern),56.28,117.77,2180,12,12,62,4688
302040,Vitim Volcanic Field,Pyroclastic cone(s),Unknown,Russia,Kamchatka and Mainland Asia,Russia (southeastern),53.75,113.25,1250,669,669,669,10035
302050,Tunkin Depression,Volcanic field,Unknown,Russia,Kamchatka and Mainland Asia,Russia (southeastern),51.5,102.5,1200,431,431,6533,63490
302060,Jom-Bolok,Volcanic field,-5180,Russia,Kamchatka and Mainland Asia,Russia (southeastern),52.713,99.021,2047,0,0,6,3578
302070,Azas Plateau,Volcanic field,Unknown,Russia,Kamchatka and Mainland Asia,Russia (southeastern),52.433,98.303,2765,142,142,142,4532
303010,Taryatu-Chulutu,Volcanic field,-2980,Mongolia,Kamchatka and Mainland Asia,Mongolia,48.133,99.95,2326,5602,5602,5602,29050
303020,Khanuy Gol,Volcanic field,Unknown,Mongolia,Kamchatka and Mainland Asia,Mongolia,48.67,102.75,1886,6120,6120,6120,66243
303040,Dariganga Volcanic Field,Pyroclastic cone(s),Unknown,Mongolia,Kamchatka and Mainland Asia,Mongolia,45.754,114.279,1778,18247,18247,18247,25280
304030,Kunlun Volcanic Group,Pyroclastic cone(s),1951,China,Kamchatka and Mainland Asia,China (western),35.52,80.2,5808,1253,1253,3212,22621
305010,Honggeertu,Pyroclastic cone(s),Unknown,China,Kamchatka and Mainland Asia,China (eastern),41.59,113.111,1605,46721,46721,112975,1830539
305011,Arxan-Chaihe,Pyroclastic cone(s),0,China,Kamchatka and Mainland Asia,China (eastern),47.45,120.8,1677,6435,6435,6435,188163
305020,Keluo Group,Pyroclastic cone(s),Unknown,China,Kamchatka and Mainland Asia,China (eastern),49.37,125.92,670,20323,20323,72863,994984
305030,Wudalianchi,Volcanic field,1776,China,Kamchatka and Mainland Asia,China (eastern),48.722,126.15,597,57885,57885,136201,2164526
305040,Jingbo,Volcanic field,-520,China,Kamchatka and Mainland Asia,China (eastern),44.08,128.83,1000,35038,35038,149132,2372857
305050,Longgang Group,Pyroclastic cone(s),350,China,Kamchatka and Mainland Asia,China (eastern),42.33,126.5,1000,34708,34708,197016,4407575
306030,Ulreung,Stratovolcano,-2990,South Korea,Kamchatka and Mainland Asia,Korea,37.5,130.87,984,7399,9210,9210,9210
306040,Halla,Shield,1007,South Korea,Kamchatka and Mainland Asia,Korea,33.361,126.53,1919,134,2653,482766,543082
311010,Buldir,Stratovolcano,Unknown,United States,Alaska,Aleutian Islands,52.35,175.911,656,0,0,0,0
311020,Kiska,Stratovolcano,1990,United States,Alaska,Aleutian Islands,52.103,177.602,1220,0,0,0,0
311030,Segula,Stratovolcano,Unknown,United States,Alaska,Aleutian Islands,52.015,178.136,1160,0,0,0,0
311040,Davidof,Stratovolcano,Unknown,United States,Alaska,Aleutian Islands,51.97,178.33,328,0,0,0,0
311050,Little Sitkin,Stratovolcano,1830,United States,Alaska,Aleutian Islands,51.95,178.543,1174,0,0,0,0
311060,Semisopochnoi,Stratovolcano,2022,United States,Alaska,Aleutian Islands,51.93,179.58,1221,0,0,0,0
311070,Gareloi,Stratovolcano,1989,United States,Alaska,Aleutian Islands,51.79,-178.794,1573,0,0,0,0
311080,Tanaga,Stratovolcano(es),1914,United States,Alaska,Aleutian Islands,51.885,-178.146,1806,0,0,0,0
311090,Takawangha,Stratovolcano,1550,United States,Alaska,Aleutian Islands,51.873,-178.006,1449,0,0,0,0
311100,Bobrof,Stratovolcano,Unknown,United States,Alaska,Aleutian Islands,51.91,-177.438,738,0,0,0,0
311110,Kanaga,Stratovolcano,2012,United States,Alaska,Aleutian Islands,51.923,-177.168,1307,0,0,0,0
311111,Moffett,Stratovolcano,-1600,United States,Alaska,Aleutian Islands,51.944,-176.747,1196,0,0,0,0
311120,Great Sitkin,Stratovolcano,2022,United States,Alaska,Aleutian Islands,52.076,-176.13,1740,0,0,0,0
311130,Kasatochi,Stratovolcano,2008,United States,Alaska,Aleutian Islands,52.177,-175.508,314,0,0,0,276
311140,Koniuji,Stratovolcano,-1150,United States,Alaska,Aleutian Islands,52.22,-175.13,273,0,0,0,173
311160,Atka Volcanic Complex,Stratovolcano(es),2007,United States,Alaska,Aleutian Islands,52.331,-174.139,1518,0,0,207,207
311180,Seguam,Stratovolcano(es),1993,United States,Alaska,Aleutian Islands,52.315,-172.51,1054,0,0,0,0
311190,Amukta,Stratovolcano,1997,United States,Alaska,Aleutian Islands,52.5,-171.252,1066,0,0,0,0
311200,Chagulak,Stratovolcano,Unknown,United States,Alaska,Aleutian Islands,52.577,-171.13,1142,0,0,0,0
311210,Yunaska,Shield,1937,United States,Alaska,Aleutian Islands,52.643,-170.629,550,0,0,0,0
311220,Herbert,Stratovolcano,Unknown,United States,Alaska,Aleutian Islands,52.742,-170.111,1280,0,0,0,30
311230,Carlisle,Stratovolcano,1828,United States,Alaska,Aleutian Islands,52.894,-170.054,1620,0,0,0,30
311240,Cleveland,Stratovolcano,2020,United States,Alaska,Aleutian Islands,52.825,-169.944,1730,0,0,0,9
311241,Tana,Stratovolcano(es),Unknown,United States,Alaska,Aleutian Islands,52.83,-169.77,1170,0,0,0,8
311250,Uliaga,Stratovolcano,Unknown,United States,Alaska,Aleutian Islands,53.065,-169.77,888,0,0,0,19
311260,Kagamil,Stratovolcano,1929,United States,Alaska,Aleutian Islands,52.974,-169.72,893,0,0,0,7
311270,Vsevidof,Stratovolcano,1878,United States,Alaska,Aleutian Islands,53.13,-168.693,2149,0,0,6,6
311280,Recheschnoi,Stratovolcano,Unknown,United States,Alaska,Aleutian Islands,53.157,-168.539,1984,0,0,0,17
311290,Okmok,Shield,2008,United States,Alaska,Aleutian Islands,53.43,-168.13,1073,0,0,0,4
311300,Bogoslof,Submarine,2017,United States,Alaska,Aleutian Islands,53.93,-168.03,150,0,0,0,4216
311310,Makushin,Stratovolcano,1995,United States,Alaska,Aleutian Islands,53.891,-166.923,1800,0,0,3437,3850
311320,Akutan,Stratovolcano,1992,United States,Alaska,Aleutian Islands,54.134,-165.986,1303,0,24,233,4361
311340,Westdahl,Stratovolcano?,1992,United States,Alaska,Aleutian Islands,54.516,-164.65,1563,0,0,0,305
311350,Fisher,Stratovolcano,1830,United States,Alaska,Aleutian Islands,54.65,-164.43,1112,0,0,0,25
311360,Shishaldin,Stratovolcano,2020,United States,Alaska,Aleutian Islands,54.756,-163.97,2857,0,0,10,197
311380,Roundtop,Stratovolcano,-7600,United States,Alaska,Aleutian Islands,54.8,-163.589,1871,0,0,10,1079
311390,Amak,Stratovolcano,1796,United States,Alaska,Aleutian Islands,55.424,-163.149,488,0,0,0,1345
312010,Frosty,Stratovolcano(es),Unknown,United States,Alaska,Alaska Peninsula,55.067,-162.835,1728,0,0,67,1153
312011,Dutton,Stratovolcano,Unknown,United States,Alaska,Alaska Peninsula,55.183,-162.276,1465,0,445,859,1090
312020,Emmons Lake,Caldera,Unknown,United States,Alaska,Alaska Peninsula,55.341,-162.073,1436,0,0,686,1199
312030,Pavlof,Stratovolcano,2022,United States,Alaska,Alaska Peninsula,55.417,-161.894,2493,0,0,0,3002
312040,Pavlof Sister,Stratovolcano,Unknown,United States,Alaska,Alaska Peninsula,55.457,-161.854,2142,0,0,0,1860
312050,Dana,Stratovolcano,-1890,United States,Alaska,Alaska Peninsula,55.641,-161.214,1354,0,0,0,1814
312055,Stepovak Bay Group,Volcanic field,Unknown,United States,Alaska,Alaska Peninsula,55.917,-160.017,1633,0,0,0,0
312060,Kupreanof,Stratovolcano,Unknown,United States,Alaska,Alaska Peninsula,56.011,-159.797,1895,0,0,11,969
312070,Veniaminof,Stratovolcano,2021,United States,Alaska,Alaska Peninsula,56.17,-159.38,2507,0,0,0,542
312080,Black Peak,Stratovolcano,-1900,United States,Alaska,Alaska Peninsula,56.552,-158.785,1032,0,0,0,478
312090,Aniakchak,Caldera,1931,United States,Alaska,Alaska Peninsula,56.88,-158.17,1341,0,0,36,479
312100,Yantarni,Stratovolcano,-800,United States,Alaska,Alaska Peninsula,57.019,-157.185,1345,0,0,0,190
312110,Chiginagak,Stratovolcano,1998,United States,Alaska,Alaska Peninsula,57.135,-156.99,2221,0,0,0,52
312120,Kialagvik,Stratovolcano,Unknown,United States,Alaska,Alaska Peninsula,57.203,-156.745,1677,0,0,0,71
312130,Ugashik-Peulik,Stratovolcano,1814,United States,Alaska,Alaska Peninsula,57.751,-156.368,1474,0,0,0,102
312131,Ukinrek Maars,Maar(s),1977,United States,Alaska,Alaska Peninsula,57.832,-156.51,91,0,0,0,739
312132,Unnamed,Lava dome,Unknown,United States,Alaska,Alaska Peninsula,57.87,-155.411,402,0,0,0,88
312140,Martin,Stratovolcano,1953,United States,Alaska,Alaska Peninsula,58.172,-155.361,1863,0,0,0,914
312150,Mageik,Stratovolcano,-500,United States,Alaska,Alaska Peninsula,58.195,-155.253,2165,0,0,0,376
312160,Trident,Stratovolcano,1974,United States,Alaska,Alaska Peninsula,58.236,-155.1,1864,0,0,0,117
312170,Katmai,Stratovolcano,1912,United States,Alaska,Alaska Peninsula,58.28,-154.963,2047,0,0,0,128
312180,Novarupta,Caldera,1912,United States,Alaska,Alaska Peninsula,58.27,-155.157,841,0,0,0,667
312190,Griggs,Stratovolcano,-1790,United States,Alaska,Alaska Peninsula,58.354,-155.092,2317,0,0,0,654
312200,Snowy Mountain,Stratovolcano(es),1710,United States,Alaska,Alaska Peninsula,58.336,-154.682,2162,0,0,0,248
312210,Denison,Stratovolcano,Unknown,United States,Alaska,Alaska Peninsula,58.418,-154.449,2287,0,0,0,119
312220,Steller,Stratovolcano,Unknown,United States,Alaska,Alaska Peninsula,58.43,-154.4,2272,0,0,0,118
312230,Kukak,Stratovolcano,Unknown,United States,Alaska,Alaska Peninsula,58.453,-154.355,2043,0,0,0,125
312250,Kaguyak,Lava dome(s),-3850,United States,Alaska,Alaska Peninsula,58.608,-154.028,901,0,0,0,60
312260,Fourpeaked,Stratovolcano,2006,United States,Alaska,Alaska Peninsula,58.77,-153.672,2105,0,0,0,165
312270,Douglas,Stratovolcano,Unknown,United States,Alaska,Alaska Peninsula,58.855,-153.542,2140,0,0,0,134
313010,Augustine,Lava dome(s),2006,United States,Alaska,Alaska (southwestern),59.363,-153.43,1252,0,0,0,759
313020,Iliamna,Stratovolcano,1876,United States,Alaska,Alaska (southwestern),60.032,-153.09,3053,0,0,1,7564
313030,Redoubt,Stratovolcano,2009,United States,Alaska,Alaska (southwestern),60.485,-152.742,3108,0,0,1,32410
313040,Spurr,Stratovolcano,1992,United States,Alaska,Alaska (southwestern),61.299,-152.251,3374,0,0,0,11097
313050,Hayes,Stratovolcano,1200,United States,Alaska,Alaska (southwestern),61.64,-152.411,3034,0,0,0,151
314010,St. Paul Island,Shield,-1280,United States,Alaska,Alaska (western),57.18,-170.3,203,582,582,582,783
314030,Ingakslugwat Hills,Pyroclastic cone(s),Unknown,United States,Alaska,Alaska (western),61.43,-164.47,190,0,0,0,4271
314040,St. Michael,Shield(s),Unknown,United States,Alaska,Alaska (western),63.45,-162.12,715,662,662,662,2625
314060,Imuruk Lake,Shield(s),300,United States,Alaska,Alaska (western),65.517,-163.45,610,0,0,0,0
315001,Buzzard Creek,Tuff ring(s),-1050,United States,Alaska,Alaska (eastern),64.062,-148.433,830,0,0,12,79489
315020,Wrangell,Shield,1912,United States,Alaska,Alaska (eastern),62.006,-144.017,4278,0,0,0,1844
315030,Churchill,Stratovolcano,847,United States,Alaska,Alaska (eastern),61.38,-141.75,5005,0,0,0,95
315040,Edgecumbe,Stratovolcano(es),-2220,United States,Alaska,Alaska (eastern),57.05,-135.75,970,0,0,6613,7074
315050,Duncan Canal,Volcanic field,Unknown,United States,Alaska,Alaska (eastern),56.5,-133.1,15,0,0,60,7558
315060,Tlevak Strait-Suemez Is.,Volcanic field,Unknown,United States,Alaska,Alaska (eastern),55.25,-133.3,50,0,0,1596,6552
315070,Behm Canal-Rudyerd Bay,Pyroclastic cone(s),Unknown,United States,Alaska,Alaska (eastern),55.32,-131.05,500,0,0,6,15569
320010,Fort Selkirk,Volcanic field,Unknown,Canada,Canada and Western USA,Canada,62.93,-137.38,1239,6,6,6,491
320020,Alligator Lake,Volcanic field,Unknown,Canada,Canada and Western USA,Canada,60.42,-135.42,2217,0,0,47,20636
320030,Atlin Volcanic Field,Pyroclastic cone(s),Unknown,Canada,Canada and Western USA,Canada,59.68,-133.32,1880,0,0,94,956
320031,Tuya Volcanic Field,Volcanic field,Unknown,Canada,Canada and Western USA,Canada,59.37,-130.58,2123,0,0,0,665
320040,Heart Peaks,Shield,Unknown,Canada,Canada and Western USA,Canada,58.6,-131.97,2012,0,0,0,261
320050,Level Mountain,Shield,Unknown,Canada,Canada and Western USA,Canada,58.42,-131.35,2164,0,0,0,636
320060,Edziza,Stratovolcano,950,Canada,Canada and Western USA,Canada,57.72,-130.63,2786,0,0,0,898
320070,Spectrum Range,Shield,Unknown,Canada,Canada and Western USA,Canada,57.43,-130.68,2430,0,0,0,386
320080,Hoodoo Mountain,Subglacial,-7050,Canada,Canada and Western USA,Canada,56.78,-131.28,1850,0,0,0,2330
320090,Iskut-Unuk River Cones,Pyroclastic cone(s),1800,Canada,Canada and Western USA,Canada,56.58,-130.55,1880,0,0,0,663
320100,Tseax River Cone,Pyroclastic cone,1690,Canada,Canada and Western USA,Canada,55.12,-128.9,609,0,0,928,23623
320110,Crow Lagoon,Pyroclastic cone,Unknown,Canada,Canada and Western USA,Canada,54.7,-130.23,335,0,0,456,13541
320120,Milbanke Sound Group,Pyroclastic cone(s),Unknown,Canada,Canada and Western USA,Canada,52.5,-128.73,335,574,574,574,2792
320140,Nazko,Pyroclastic cone(s),-5220,Canada,Canada and Western USA,Canada,52.928,-123.732,1238,4,8,674,25892
320150,Wells Gray-Clearwater,Pyroclastic cone(s),1550,Canada,Canada and Western USA,Canada,52.33,-120.57,2576,716,716,716,18280
320160,Silverthrone,Caldera,Unknown,Canada,Canada and Western USA,Canada,51.43,-126.3,3160,7,7,67,1278
320170,Bridge River Cones,Volcanic field,Unknown,Canada,Canada and Western USA,Canada,50.8,-123.4,2500,55,55,219,15871
320180,Meager,Complex,-410,Canada,Canada and Western USA,Canada,50.63,-123.5,2680,1,111,307,17662
320190,Garibaldi Lake,Volcanic field,Unknown,Canada,Canada and Western USA,Canada,49.933,-123,2316,6635,6635,28109,2218089
320200,Garibaldi,Stratovolcano,-8060,Canada,Canada and Western USA,Canada,49.85,-123,2678,0,22,16058,2264818
320811,Cayley Volcanic Field,Volcanic field,Unknown,Canada,Canada and Western USA,Canada,50.12,-123.28,2375,0,0,0,0
321010,Baker,Stratovolcano(es),1880,United States,Canada and Western USA,USA (Washington),48.777,-121.813,3285,0,46,8568,1990504
321020,Glacier Peak,Stratovolcano,1700,United States,Canada and Western USA,USA (Washington),48.112,-121.113,3213,0,0,23,1340896
321030,Rainier,Stratovolcano,1450,United States,Canada and Western USA,USA (Washington),46.853,-121.76,4392,0,128,3187,2667609
321040,Adams,Stratovolcano,950,United States,Canada and Western USA,USA (Washington),46.206,-121.49,3742,0,70,4019,393303
321050,St. Helens,Stratovolcano,2008,United States,Canada and Western USA,USA (Washington),46.2,-122.18,2549,78,427,2221,2173101
321060,West Crater,Volcanic field,-5750,United States,Canada and Western USA,USA (Washington),45.88,-122.08,1329,505,505,14359,2225092
321070,Indian Heaven,Shield(s),-6250,United States,Canada and Western USA,USA (Washington),45.93,-121.82,1806,687,687,6911,2019828
322010,Hood,Stratovolcano,1866,United States,Canada and Western USA,USA (Oregon),45.374,-121.695,3426,0,850,9721,2067520
322020,Jefferson,Stratovolcano,950,United States,Canada and Western USA,USA (Oregon),44.674,-121.8,3199,0,0,823,556054
322030,Blue Lake Crater,Maar,680,United States,Canada and Western USA,USA (Oregon),44.411,-121.774,1230,19,308,6914,286219
322040,Sand Mountain Field,Pyroclastic cone(s),-950,United States,Canada and Western USA,USA (Oregon),44.38,-121.93,1664,89,89,1574,519291
322060,Belknap,Shield(s),480,United States,Canada and Western USA,USA (Oregon),44.285,-121.841,2095,0,0,6518,362091
322070,Three Sisters,Complex,440,United States,Canada and Western USA,USA (Oregon),44.133,-121.767,3159,0,0,5672,279885
322090,Bachelor,Stratovolcano,-5800,United States,Canada and Western USA,USA (Oregon),43.979,-121.688,2763,18,24,22514,231420
322100,Davis Lake,Volcanic field,-2790,United States,Canada and Western USA,USA (Oregon),43.57,-121.82,2163,1440,1440,7483,164597
322110,Newberry,Shield,690,United States,Canada and Western USA,USA (Oregon),43.722,-121.229,2434,0,0,16437,180091
322120,Devils Garden,Volcanic field,Unknown,United States,Canada and Western USA,USA (Oregon),43.512,-120.861,1698,51,51,287,162601
322150,Cinnamon Butte,Pyroclastic cone(s),Unknown,United States,Canada and Western USA,USA (Oregon),43.241,-122.108,1956,113,113,913,69577
322160,Crater Lake,Caldera,-2850,United States,Canada and Western USA,USA (Oregon),42.93,-122.12,2487,52,52,366,272674
322170,Diamond Craters,Volcanic field,-5610,United States,Canada and Western USA,USA (Oregon),43.1,-118.75,1435,66,66,136,6969
322190,Jordan Craters,Volcanic field,-1250,United States,Canada and Western USA,USA (Oregon),43.147,-117.46,1473,0,0,28,232946
323010,Shasta,Stratovolcano,1250,United States,Canada and Western USA,USA (California),41.409,-122.193,4317,0,35,19785,265016
323020,Medicine Lake,Shield,1060,United States,Canada and Western USA,USA (California),41.611,-121.554,2412,0,0,254,120685
323080,Lassen Volcanic Center,Stratovolcano,1917,United States,Canada and Western USA,USA (California),40.492,-121.508,3187,0,9,2340,439135
323100,Clear Lake,Volcanic field,Unknown,United States,Canada and Western USA,USA (California),38.97,-122.77,1439,52801,52801,71791,1059280
323110,Mono Lake Volcanic Field,Pyroclastic cone(s),1790,United States,Canada and Western USA,USA (California),38,-119.03,2121,1066,1066,1491,65028
323120,Mono-Inyo Craters,Lava dome(s),1380,United States,Canada and Western USA,USA (California),37.804,-119.029,2796,558,7393,9048,82160
323150,Mammoth Mountain,Lava dome(s),1260,United States,Canada and Western USA,USA (California),37.631,-119.032,3369,2220,6242,7745,77851
323160,Ubehebe Craters,Maar(s),-150,United States,Canada and Western USA,USA (California),37.02,-117.45,752,18,94,262,15354
323200,Salton Buttes,Lava dome(s),210,United States,Canada and Western USA,USA (California),33.197,-115.616,-40,227,408,38579,1214088
324010,Black Butte Crater Lava Field,Shield,-8400,United States,Canada and Western USA,USA (Idaho),43.183,-114.352,1478,119,158,4440,171376
324020,Craters of the Moon,Pyroclastic cone(s),-130,United States,Canada and Western USA,USA (Idaho),43.42,-113.5,2005,15,15,1459,93300
324030,Wapi Lava Field,Shield,-300,United States,Canada and Western USA,USA (Idaho),42.88,-113.22,1604,6,6,1394,172539
324040,Hell's Half Acre,Shield,-3250,United States,Canada and Western USA,USA (Idaho),43.5,-112.45,1631,0,305,12646,295506
326010,Soda Lakes,Maar(s),Unknown,United States,Canada and Western USA,USA (Nevada),39.53,-118.87,1251,1616,11149,25655,557259
327040,Markagunt Plateau,Volcanic field,1050,United States,Canada and Western USA,USA (Utah),37.58,-112.67,2840,970,970,1887,186184
327050,Black Rock Desert,Volcanic field,1290,United States,Canada and Western USA,USA (Utah),38.97,-112.5,1800,3292,3292,3679,54291
327110,Carrizozo,Pyroclastic cone(s),-3250,United States,Canada and Western USA,USA (New Mexico),33.78,-105.93,1731,2,11,2596,89711
327120,Zuni-Bandera,Volcanic field,-1170,United States,Canada and Western USA,USA (New Mexico),34.8,-108,2550,18,18,246,54738
327812,Red Hill,Volcanic field,-9450,United States,Canada and Western USA,USA (New Mexico),34.25,-108.83,2300,0,0,0,0
328010,Dotsero,Maar,-2200,United States,Canada and Western USA,USA (Colorado),39.661,-107.035,2230,725,4821,30534,182405
329010,Uinkaret Field,Volcanic field,1100,United States,Canada and Western USA,USA (Arizona),36.38,-113.13,1555,92,92,170,149617
329020,San Francisco Volcanic Field,Pyroclastic cone,1075,United States,Canada and Western USA,USA (Arizona),35.347,-111.678,3850,23157,23157,70472,190983
331005,West Valley Segment,Submarine,Unknown,Canada,Hawaii and Pacific Ocean,Pacific Ocean (northern),48.78,-128.64,-2550,0,0,0,0
331010,Endeavour Segment,Submarine,-3490,Canada,Hawaii and Pacific Ocean,Pacific Ocean (northern),47.95,-129.1,-2050,0,0,0,0
331011,Cobb Segment,Submarine,-1180,Canada,Hawaii and Pacific Ocean,Pacific Ocean (northern),46.88,-129.33,-2100,0,0,0,0
332000,Kama'ehuakanaloa,Submarine,1996,United States,Hawaii and Pacific Ocean,Hawaiian Islands,18.92,-155.27,-975,0,0,0,105623
332010,Kilauea,Shield,2022,United States,Hawaii and Pacific Ocean,Hawaiian Islands,19.421,-155.287,1222,3122,3122,8495,169550
332020,Mauna Loa,Shield,1984,United States,Hawaii and Pacific Ocean,Hawaiian Islands,19.475,-155.608,4170,45,45,1906,175315
332030,Mauna Kea,Shield,-2460,United States,Hawaii and Pacific Ocean,Hawaiian Islands,19.82,-155.47,4205,126,126,9950,166888
332040,Hualalai,Shield,1801,United States,Hawaii and Pacific Ocean,Hawaiian Islands,19.692,-155.87,2523,35906,35906,46959,166240
332060,Haleakala,Shield,1750,United States,Hawaii and Pacific Ocean,Hawaiian Islands,20.708,-156.25,3055,26074,26074,65398,157582
333010,Teahitia,Submarine,1985,France,Hawaii and Pacific Ocean,Pacific Ocean (central),-17.564,-148.821,-1743,0,0,0,203248
333020,Rocard,Submarine,1972,France,Hawaii and Pacific Ocean,Pacific Ocean (central),-17.662,-148.586,-2515,0,0,0,64007
333030,Moua Pihaa,Submarine,1970,France,Hawaii and Pacific Ocean,Pacific Ocean (central),-18.325,-148.525,-312,0,0,0,17065
333040,Mehetia,Stratovolcano,Unknown,France,Hawaii and Pacific Ocean,Pacific Ocean (central),-17.874,-148.068,389,114,114,114,114
341000,"Prieto, Cerro",Lava dome,Unknown,Mexico,MÃ©xico and Central America,Mexico,32.418,-115.305,223,4506,15945,571710,1308761
341001,Pinacate,Pyroclastic cone(s),Unknown,Mexico,MÃ©xico and Central America,Mexico,31.85,-113.5,1183,92,92,408,62753
341003,"San Luis, Isla",Tuff cone,Unknown,Mexico,MÃ©xico and Central America,Mexico,29.97,-114.4,180,0,1,606,18532
341004,Jaraguay Volcanic Field,Pyroclastic cone(s),Unknown,Mexico,MÃ©xico and Central America,Mexico,29.33,-114.5,960,1933,1933,3141,21934
341005,Coronado,Stratovolcano,Unknown,Mexico,MÃ©xico and Central America,Mexico,29.08,-113.513,440,2,37,1096,17157
341006,Guadalupe,Shield,Unknown,Mexico,MÃ©xico and Central America,Mexico,29.07,-118.28,1100,0,0,0,0
341007,San Borja Volcanic Field,Pyroclastic cone(s),Unknown,Mexico,MÃ©xico and Central America,Mexico,28.5,-113.75,1360,722,722,2558,45359
341011,"Tortuga, Isla",Shield,Unknown,Mexico,MÃ©xico and Central America,Mexico,27.438,-111.881,224,0,0,401,26978
341012,Comondu-La Purisima,Volcanic field,Unknown,Mexico,MÃ©xico and Central America,Mexico,26,-111.92,780,1033,1033,2365,43271
341020,Barcena,Pyroclastic cone(s),1953,Mexico,MÃ©xico and Central America,Mexico,19.3,-110.82,332,0,0,0,0
341021,Socorro,Shield,1994,Mexico,MÃ©xico and Central America,Mexico,18.78,-110.95,1050,0,0,0,0
341022,Durango Volcanic Field,Pyroclastic cone(s),Unknown,Mexico,MÃ©xico and Central America,Mexico,24.15,-104.45,2075,571282,571282,571282,797133
341023,"Isabel, Isla",Tuff cone(s),Unknown,Mexico,MÃ©xico and Central America,Mexico,21.848,-105.886,95,0,0,0,0
341024,Sanganguey,Stratovolcano,Unknown,Mexico,MÃ©xico and Central America,Mexico,21.45,-104.73,2340,101,7622,403964,993475
341030,Ceboruco,Stratovolcano,1875,Mexico,MÃ©xico and Central America,Mexico,21.125,-104.508,2280,616,30319,93057,1282014
341031,Mascota Volcanic Field,Pyroclastic cone(s),Unknown,Mexico,MÃ©xico and Central America,Mexico,20.567,-104.817,2525,16293,16293,31760,1083467
341040,Colima,Stratovolcano(es),2019,Mexico,MÃ©xico and Central America,Mexico,19.514,-103.62,3850,76,746,303490,1494790
341060,Michoacan-Guanajuato,Pyroclastic cone(s),1952,Mexico,MÃ©xico and Central America,Mexico,19.85,-101.75,3860,5783287,5783287,5783287,5783287
341061,Zitacuaro-Valle de Bravo,Caldera,-3050,Mexico,MÃ©xico and Central America,Mexico,19.4,-100.25,3500,231977,231977,490440,4838069
341062,Jocotitlan,Stratovolcano,1270,Mexico,MÃ©xico and Central America,Mexico,19.73,-99.758,3900,7220,84108,630469,24986674
341070,"Toluca, Nevado de",Stratovolcano,-1350,Mexico,MÃ©xico and Central America,Mexico,19.108,-99.758,4680,126,1240,1626432,25247342
341080,Chichinautzin,Volcanic field,400,Mexico,MÃ©xico and Central America,Mexico,19.08,-99.13,3930,584725,584725,4061942,28030794
341081,Papayo,Lava dome,Unknown,Mexico,MÃ©xico and Central America,Mexico,19.308,-98.7,3600,377,2081,2207308,28677002
341082,Iztaccihuatl,Stratovolcano,Unknown,Mexico,MÃ©xico and Central America,Mexico,19.179,-98.642,5230,98,1343,1036172,27276280
341090,Popocatepetl,Stratovolcano(es),2022,Mexico,MÃ©xico and Central America,Mexico,19.023,-98.622,5393,325,2584,634054,26509510
341091,"Malinche, La",Stratovolcano,-1170,Mexico,MÃ©xico and Central America,Mexico,19.231,-98.032,4461,46,2769,2324232,8225539
341092,Serdan-Oriental,Tuff cone(s),Unknown,Mexico,MÃ©xico and Central America,Mexico,19.27,-97.47,3485,93158,93158,211350,7672879
341093,"Humeros, Los",Caldera(s),-4470,Mexico,MÃ©xico and Central America,Mexico,19.68,-97.45,3150,7461,27331,566898,5710131
341094,"Atlixcos, Los",Shield,Unknown,Mexico,MÃ©xico and Central America,Mexico,19.81,-96.527,775,5792,13732,115456,2971490
341095,Naolinco Volcanic Field,Pyroclastic cone(s),-1200,Mexico,MÃ©xico and Central America,Mexico,19.67,-96.75,2000,108824,108824,739767,4184323
341096,Cofre de Perote,Compound,1150,Mexico,MÃ©xico and Central America,Mexico,19.492,-97.15,4282,658,18638,885440,4907992
341097,"Gloria, La",Volcanic field,Unknown,Mexico,MÃ©xico and Central America,Mexico,19.33,-97.25,3500,108512,108512,290739,5697562
341098,"Cumbres,  Las",Stratovolcano,-3920,Mexico,MÃ©xico and Central America,Mexico,19.15,-97.27,3940,113,1923,315004,6365085
341100,"Orizaba, Pico de",Stratovolcano,1846,Mexico,MÃ©xico and Central America,Mexico,19.03,-97.27,5564,413,4469,759747,5962920
341110,San Martin,Shield,1796,Mexico,MÃ©xico and Central America,Mexico,18.57,-95.2,1650,280,3581,259640,1645811
341120,"Chichon, El",Lava dome(s),1982,Mexico,MÃ©xico and Central America,Mexico,17.36,-93.228,1150,3759,11000,143015,3570632
342020,Tajumulco,Stratovolcano,Unknown,Guatemala,MÃ©xico and Central America,Guatemala,15.043,-91.903,4203,2398,71560,796805,5255535
342030,Santa Maria,Stratovolcano,2022,Guatemala,MÃ©xico and Central America,Guatemala,14.757,-91.552,3745,8675,119462,1259600,6197420
342040,Almolonga,Stratovolcano,1818,Guatemala,MÃ©xico and Central America,Guatemala,14.797,-91.519,3173,91323,287487,1126942,6828403
342060,Atitlan,Stratovolcano(es),1853,Guatemala,MÃ©xico and Central America,Guatemala,14.583,-91.186,3535,2303,70431,664649,8029695
342070,Toliman,Stratovolcano(es),Unknown,Guatemala,MÃ©xico and Central America,Guatemala,14.612,-91.189,3158,5641,67361,703786,8130714
342080,Acatenango,Stratovolcano(es),1972,Guatemala,MÃ©xico and Central America,Guatemala,14.501,-90.876,3976,4329,60730,1042836,7634778
342090,Fuego,Stratovolcano(es),2022,Guatemala,MÃ©xico and Central America,Guatemala,14.473,-90.88,3763,1373,54332,1016339,7677809
342100,Agua,Stratovolcano,Unknown,Guatemala,MÃ©xico and Central America,Guatemala,14.465,-90.743,3760,9890,114404,2530449,7441660
342110,Pacaya,Complex,2021,Guatemala,MÃ©xico and Central America,Guatemala,14.382,-90.601,2569,4250,53579,2454482,7033094
342111,Cuilapa-Barbarena,Volcanic field,Unknown,Guatemala,MÃ©xico and Central America,Guatemala,14.33,-90.4,1454,119602,119602,987252,6943297
342120,Tecuamburro,Stratovolcano,-960,Guatemala,MÃ©xico and Central America,Guatemala,14.156,-90.407,1845,1939,29560,313834,6874746
342121,Jumaytepeque,Stratovolcano,Unknown,Guatemala,MÃ©xico and Central America,Guatemala,14.34,-90.271,1802,11369,79805,429177,7084813
342130,Moyuta,Stratovolcano,Unknown,Guatemala,MÃ©xico and Central America,Guatemala,14.03,-90.1,1662,3457,15469,394687,7064437
342140,Flores,Volcanic field,Unknown,Guatemala,MÃ©xico and Central America,Guatemala,14.308,-89.992,1600,205145,205145,397357,7489933
342141,Tahual,Stratovolcano,Unknown,Guatemala,MÃ©xico and Central America,Guatemala,14.43,-89.9,1716,10052,49010,449894,7570087
342150,"Santiago, Cerro",Volcanic field,Unknown,Guatemala,MÃ©xico and Central America,Guatemala,14.33,-89.87,1192,226325,226325,405083,8210264
342160,Suchitan,Stratovolcano(es),Unknown,Guatemala,MÃ©xico and Central America,Guatemala,14.4,-89.78,2042,4149,49376,421074,8257118
342180,Ixtepeque,Lava dome(s),Unknown,Guatemala,MÃ©xico and Central America,Guatemala,14.42,-89.68,1292,131906,131906,374232,8263727
342190,Ipala,Stratovolcano,Unknown,Guatemala,MÃ©xico and Central America,Guatemala,14.55,-89.63,1650,3381,25003,332154,6136659
342200,Chiquimula Volcanic Field,Pyroclastic cone(s),Unknown,Guatemala,MÃ©xico and Central America,Guatemala,14.83,-89.55,1192,240892,240892,412617,3740914
343002,"Singuil, Cerro",Pyroclastic cone(s),Unknown,El Salvador,MÃ©xico and Central America,El Salvador and Honduras,14.054,-89.631,926,25874,156926,883616,6672302
343010,Apaneca Range,Stratovolcano(es),Unknown,El Salvador,MÃ©xico and Central America,El Salvador and Honduras,13.872,-89.742,2028,11141,151502,1113282,6215853
343020,Santa Ana,Stratovolcano,2005,El Salvador,MÃ©xico and Central America,El Salvador and Honduras,13.853,-89.63,2381,489,21653,1240131,6486880
343030,Izalco,Stratovolcano,1966,El Salvador,MÃ©xico and Central America,El Salvador and Honduras,13.813,-89.633,1950,937,55665,1272308,6415818
343041,Coatepeque Caldera,Caldera,Unknown,El Salvador,MÃ©xico and Central America,El Salvador and Honduras,13.87,-89.55,746,616730,616730,1210307,6486011
343050,San Salvador,Stratovolcano,1917,El Salvador,MÃ©xico and Central America,El Salvador and Honduras,13.734,-89.294,1893,29514,800780,2857563,6366833
343051,"Cinotepeque, Cerro",Volcanic field,Unknown,El Salvador,MÃ©xico and Central America,El Salvador and Honduras,14.02,-89.25,665,9831,60668,743867,6953850
343052,Guazapa,Stratovolcano,Unknown,El Salvador,MÃ©xico and Central America,El Salvador and Honduras,13.9,-89.12,1438,6492,94131,2488228,6800406
343060,Ilopango,Caldera,1880,El Salvador,MÃ©xico and Central America,El Salvador and Honduras,13.672,-89.053,450,2049583,2049583,2948989,6689160
343070,San Vicente,Stratovolcano,Unknown,El Salvador,MÃ©xico and Central America,El Salvador and Honduras,13.595,-88.837,2182,7505,103854,864425,6349950
343071,Apastepeque Field,Volcanic field,Unknown,El Salvador,MÃ©xico and Central America,El Salvador and Honduras,13.72,-88.77,700,377730,377730,687849,6372608
343072,Taburete,Stratovolcano,Unknown,El Salvador,MÃ©xico and Central America,El Salvador and Honduras,13.435,-88.532,1172,11815,71829,581517,5543122
343080,Tecapa,Stratovolcano,Unknown,El Salvador,MÃ©xico and Central America,El Salvador and Honduras,13.494,-88.502,1593,37337,80502,590144,5599535
343081,Usulutan,Stratovolcano,Unknown,El Salvador,MÃ©xico and Central America,El Salvador and Honduras,13.419,-88.471,1449,22940,154864,610124,5434637
343082,"Tigre, El",Stratovolcano,Unknown,El Salvador,MÃ©xico and Central America,El Salvador and Honduras,13.47,-88.43,1640,24354,112718,786750,5456104
343090,Chinameca,Stratovolcano,Unknown,El Salvador,MÃ©xico and Central America,El Salvador and Honduras,13.478,-88.33,1300,14998,89206,824983,4897760
343100,San Miguel,Stratovolcano,2020,El Salvador,MÃ©xico and Central America,El Salvador and Honduras,13.434,-88.269,2130,1232,63007,796482,3633885
343101,"Aramuaca, Laguna",Maar,Unknown,El Salvador,MÃ©xico and Central America,El Salvador and Honduras,13.428,-88.105,181,15772,132109,699308,3009012
343130,"Tigre, Isla del",Stratovolcano,Unknown,Honduras,MÃ©xico and Central America,El Salvador and Honduras,13.274,-87.639,774,5000,9983,156692,2725661
343140,"Zacate Grande, Isla",Stratovolcano,Unknown,Honduras,MÃ©xico and Central America,El Salvador and Honduras,13.33,-87.63,640,7059,11942,195736,3647832
343150,"Yojoa, Lago",Volcanic field,-7638,Honduras,MÃ©xico and Central America,El Salvador and Honduras,14.964,-87.983,1060,123374,123374,279991,3336190
344010,Cosiguina,Stratovolcano,1859,Nicaragua,MÃ©xico and Central America,Nicaragua,12.98,-87.57,872,143,4114,18876,2179830
344020,San Cristobal,Stratovolcano,2022,Nicaragua,MÃ©xico and Central America,Nicaragua,12.702,-87.004,1745,208,7876,351227,2002579
344040,Telica,Stratovolcano(es),2022,Nicaragua,MÃ©xico and Central America,Nicaragua,12.606,-86.84,1036,1079,21990,327294,2982538
344060,Rota,Stratovolcano,Unknown,Nicaragua,MÃ©xico and Central America,Nicaragua,12.55,-86.75,832,4930,16664,319797,3503709
344070,"Negro, Cerro",Pyroclastic cone(s),1999,Nicaragua,MÃ©xico and Central America,Nicaragua,12.506,-86.702,728,1690,10243,296320,3540933
344080,"Pilas, Las",Complex,1954,Nicaragua,MÃ©xico and Central America,Nicaragua,12.495,-86.688,1088,182,8324,299481,3351820
344090,Momotombo,Stratovolcano,2016,Nicaragua,MÃ©xico and Central America,Nicaragua,12.423,-86.539,1270,100,1851,98583,3569021
344091,Apoyeque,Pyroclastic shield,-50,Nicaragua,MÃ©xico and Central America,Nicaragua,12.242,-86.342,518,2369,116718,1342581,3445854
344092,Nejapa-Miraflores,Fissure vent(s),1060,Nicaragua,MÃ©xico and Central America,Nicaragua,12.12,-86.32,360,295906,870837,1610426,3062823
344100,Masaya,Caldera,2022,Nicaragua,MÃ©xico and Central America,Nicaragua,11.985,-86.165,594,989888,989888,1914707,2926954
344101,Granada,Fissure vent(s),Unknown,Nicaragua,MÃ©xico and Central America,Nicaragua,11.9,-85.979,250,105952,137880,678798,2722372
344110,Mombacho,Stratovolcano,Unknown,Nicaragua,MÃ©xico and Central America,Nicaragua,11.826,-85.968,1344,656,56671,621451,2709304
344111,Zapatera,Shield,Unknown,Nicaragua,MÃ©xico and Central America,Nicaragua,11.73,-85.82,629,136,2104,214864,2537550
344120,Concepcion,Stratovolcano,2011,Nicaragua,MÃ©xico and Central America,Nicaragua,11.538,-85.622,1700,14072,28900,92378,2266903
344131,Esteli,Fissure vent(s),Unknown,Nicaragua,MÃ©xico and Central America,Nicaragua,13.17,-86.4,899,133804,133804,246244,2574633
344132,"Ciguatepe, Cerro el",Stratovolcano,Unknown,Nicaragua,MÃ©xico and Central America,Nicaragua,12.53,-86.142,603,100,3187,88943,3635767
344133,"Lajas, Las",Shield,Unknown,Nicaragua,MÃ©xico and Central America,Nicaragua,12.3,-85.73,926,1901,11384,130109,3304910
345010,Orosi,Stratovolcano(es),Unknown,Costa Rica,MÃ©xico and Central America,Costa Rica,10.98,-85.473,1659,43,1024,31463,588207
345020,Rincon de la Vieja,Complex,2022,Costa Rica,MÃ©xico and Central America,Costa Rica,10.83,-85.324,1916,271,1428,78668,659105
345030,Miravalles,Stratovolcano,1946,Costa Rica,MÃ©xico and Central America,Costa Rica,10.748,-85.153,2028,79,7492,61875,757945
345031,Tenorio,Stratovolcano(es),Unknown,Costa Rica,MÃ©xico and Central America,Costa Rica,10.673,-85.015,1916,436,11670,92344,943351
345033,Arenal,Stratovolcano,2010,Costa Rica,MÃ©xico and Central America,Costa Rica,10.463,-84.703,1670,3429,15643,96512,3027485
345034,Platanar,Stratovolcano(es),Unknown,Costa Rica,MÃ©xico and Central America,Costa Rica,10.3,-84.366,2267,620,40382,339271,3381523
345040,Poas,Stratovolcano,2019,Costa Rica,MÃ©xico and Central America,Costa Rica,10.2,-84.233,2697,1947,11107,950796,3411023
345050,Barva,Complex,-6050,Costa Rica,MÃ©xico and Central America,Costa Rica,10.135,-84.1,2906,177,8018,2004665,3399329
345060,Irazu,Stratovolcano,1994,Costa Rica,MÃ©xico and Central America,Costa Rica,9.979,-83.852,3432,1978,25442,1667528,3432860
345070,Turrialba,Stratovolcano,2022,Costa Rica,MÃ©xico and Central America,Costa Rica,10.025,-83.767,3340,1891,6867,672428,3390544
346010,Baru,Stratovolcano,1550,Panama,MÃ©xico and Central America,Panama,8.808,-82.543,3474,118,6983,79933,756597
346030,"Valle, El",Stratovolcano,Unknown,Panama,MÃ©xico and Central America,Panama,8.58,-80.17,1185,1544,7458,131928,2108003
351011,Romeral,Stratovolcano,-5390,Colombia,South America,Colombia,5.203,-75.363,3769,236,2822,537402,4005655
351012,"Bravo, Cerro",Stratovolcano,1720,Colombia,South America,Colombia,5.091,-75.293,3985,1679,4916,538690,3929468
351020,"Ruiz, Nevado del",Stratovolcano,2022,Colombia,South America,Colombia,4.892,-75.324,5279,3849,20146,507608,4252435
351021,Santa Isabel,Shield,-850,Colombia,South America,Colombia,4.818,-75.365,4944,4793,12226,302952,4137147
351030,"Tolima, Nevado del",Stratovolcano,1943,Colombia,South America,Colombia,4.658,-75.33,5215,1660,6563,441916,4258333
351040,Machin,Stratovolcano,1180,Colombia,South America,Colombia,4.487,-75.389,2749,2150,15212,570836,4165071
351050,"Huila, Nevado del",Stratovolcano,2012,Colombia,South America,Colombia,2.93,-76.03,5364,659,3501,56737,4742651
351060,Purace,Stratovolcano(es),1977,Colombia,South America,Colombia,2.32,-76.4,4650,1465,7152,335698,1751540
351061,Sotara,Stratovolcano,Unknown,Colombia,South America,Colombia,2.108,-76.592,4400,1188,5553,127782,1726425
351070,Dona Juana,Stratovolcano,1906,Colombia,South America,Colombia,1.5,-76.936,4137,1524,5372,160615,1626081
351080,Galeras,Complex,2014,Colombia,South America,Colombia,1.22,-77.37,4276,705,120817,630777,1700248
351090,Azufral,Stratovolcano,-930,Colombia,South America,Colombia,1.08,-77.68,4070,4334,40657,387292,1817609
351100,Cumbal,Stratovolcano,1926,Colombia,South America,Colombia,0.95,-77.87,4764,1405,10206,244853,1800919
352001,Soche,Stratovolcano,-6650,Ecuador,South America,Ecuador,0.552,-77.58,3955,123,1460,70322,1840573
352002,Chachimbiro,Stratovolcano,-3740,Ecuador,South America,Ecuador,0.468,-78.287,4106,125,5299,356162,3253458
352003,Cuicocha,Caldera,650,Ecuador,South America,Ecuador,0.308,-78.364,3246,178815,178815,364146,3193683
352004,Imbabura,Compound,-5550,Ecuador,South America,Ecuador,0.258,-78.183,4609,538,96294,477043,3245887
352005,Mojanda,Stratovolcano(es),Unknown,Ecuador,South America,Ecuador,0.13,-78.27,4263,173,15510,480382,3071030
352006,Cayambe,Compound,1786,Ecuador,South America,Ecuador,0.029,-77.986,5790,70,1148,109630,3154986
352010,Reventador,Stratovolcano,2022,Ecuador,South America,Ecuador,-0.077,-77.656,3562,484,963,4403,2619647
352011,Pululahua,Caldera,290,Ecuador,South America,Ecuador,0.038,-78.463,3356,534403,534403,1192411,3330856
352020,Guagua Pichincha,Stratovolcano,2002,Ecuador,South America,Ecuador,-0.171,-78.598,4784,449,32488,2064475,3581801
352021,Atacazo,Stratovolcano,-320,Ecuador,South America,Ecuador,-0.353,-78.617,4463,449,212988,1837303,3769593
352022,Chacana,Caldera,1773,Ecuador,South America,Ecuador,-0.375,-78.25,4643,81716,81716,348743,3292546
352030,Antisana,Stratovolcano,1802,Ecuador,South America,Ecuador,-0.481,-78.141,5753,232,2220,56154,3314142
352031,Aliso,Stratovolcano,-2450,Ecuador,South America,Ecuador,-0.53,-78,4267,0,0,0,0
352040,Sumaco,Stratovolcano,1895,Ecuador,South America,Ecuador,-0.538,-77.626,3990,39,324,8384,679867
352041,Illiniza,Stratovolcano,Unknown,Ecuador,South America,Ecuador,-0.663,-78.715,5162,535,6034,158371,3941221
352050,Cotopaxi,Stratovolcano,2016,Ecuador,South America,Ecuador,-0.677,-78.436,5911,251,7299,152139,3631492
352060,Quilotoa,Caldera,1280,Ecuador,South America,Ecuador,-0.85,-78.9,3914,40429,40429,124306,4333779
352071,Chimborazo,Stratovolcano,550,Ecuador,South America,Ecuador,-1.469,-78.817,6261,442,7561,463426,2325666
352080,Tungurahua,Stratovolcano,2016,Ecuador,South America,Ecuador,-1.467,-78.442,5023,476,20990,183640,1571744
352081,Licto,Pyroclastic cone(s),Unknown,Ecuador,South America,Ecuador,-1.78,-78.613,3336,250144,250144,333276,1806438
352090,Sangay,Stratovolcano,2022,Ecuador,South America,Ecuador,-2.005,-78.341,5286,231,1675,15130,1355275
353010,Fernandina,Shield,2020,Ecuador,South America,Galapagos Islands,-0.37,-91.55,1476,129,129,208,1972
353011,Ecuador,Shield,1150,Ecuador,South America,Galapagos Islands,-0.02,-91.546,790,135,135,193,894
353020,Wolf,Shield,2022,Ecuador,South America,Galapagos Islands,0.02,-91.35,1710,165,165,237,1673
353030,Darwin,Shield,1813,Ecuador,South America,Galapagos Islands,-0.18,-91.28,1330,190,190,343,2366
353040,Alcedo,Shield,1993,Ecuador,South America,Galapagos Islands,-0.43,-91.12,1130,290,290,388,10756
353050,"Negra, Sierra",Shield,2018,Ecuador,South America,Galapagos Islands,-0.83,-91.17,1124,408,408,983,9884
353060,"Azul, Cerro",Shield,2008,Ecuador,South America,Galapagos Islands,-0.92,-91.408,1640,220,220,314,1936
353070,Pinta,Shield,1928,Ecuador,South America,Galapagos Islands,0.58,-90.75,780,427,427,427,1626
353080,Marchena,Shield,1991,Ecuador,South America,Galapagos Islands,0.33,-90.47,343,785,785,785,3001
353081,Genovesa,Shield,Unknown,Ecuador,South America,Galapagos Islands,0.32,-89.958,64,197,197,197,2665
353090,Santiago,Shield,1906,Ecuador,South America,Galapagos Islands,-0.22,-90.77,920,74,74,104,12001
353091,Santa Cruz,Shield,Unknown,Ecuador,South America,Galapagos Islands,-0.62,-90.33,864,8529,8529,8800,18434
353120,San Cristobal,Shield,Unknown,Ecuador,South America,Galapagos Islands,-0.88,-89.5,759,7661,7661,7723,16189
354000,Quimsachata,Lava dome,-4450,Peru,South America,Peru,-14.133,-71.367,3848,5061,9561,85048,580016
354001,"Auquihuato, Cerro",Pyroclastic cone,Unknown,Peru,South America,Peru,-15.07,-73.18,4980,213,1324,12228,173927
354002,Sara Sara,Stratovolcano,Unknown,Peru,South America,Peru,-15.33,-73.45,5522,53,751,18707,127762
354003,Coropuna,Stratovolcano,Unknown,Peru,South America,Peru,-15.52,-72.65,6377,37,502,15589,136689
354004,Andahua-Orcopampa,Pyroclastic cone(s),1490,Peru,South America,Peru,-15.42,-72.33,4713,10317,10317,16541,171897
354005,Huambo,Volcanic field,-700,Peru,South America,Peru,-15.78,-72.08,4554,301,1157,7271,1028814
354006,Sabancaya,Stratovolcano(es),2022,Peru,South America,Peru,-15.787,-71.857,5960,51,526,12678,1052517
354007,"Chachani, Nevado",Stratovolcano,Unknown,Peru,South America,Peru,-16.191,-71.53,6057,97,1182,887176,1032411
354008,"Nicholson, Cerro",Pyroclastic cone,Unknown,Peru,South America,Peru,-16.261,-71.754,2525,223,824,815351,1074503
354010,"Misti, El",Stratovolcano,1985,Peru,South America,Peru,-16.294,-71.409,5822,82,1507,918280,1052408
354020,Ubinas,Stratovolcano,2019,Peru,South America,Peru,-16.355,-70.903,5672,180,1195,14607,1136785
354030,Huaynaputina,Stratovolcano,1600,Peru,South America,Peru,-16.608,-70.85,4850,36,210,9153,1088509
354031,Ticsani,Lava dome(s),1800,Peru,South America,Peru,-16.755,-70.595,5408,48,977,18160,227639
354040,Tutupaca,Stratovolcano(es),1802,Peru,South America,Peru,-17.026,-70.372,5801,18,1125,21124,213931
354050,Yucamane,Stratovolcano(es),-1320,Peru,South America,Peru,-17.184,-70.196,5495,51,692,10396,467713
354060,"Casiri, Nevados",Stratovolcano(es),Unknown,Peru,South America,Peru,-17.47,-69.813,5650,233,922,15247,419038
355011,Taapaca,Complex,-320,Chile,South America,"Northern Chile, Bolivia and Argentina",-18.1,-69.5,5860,3,87,1994,505369
355020,Guallatiri,Stratovolcano,1960,Chile,South America,"Northern Chile, Bolivia and Argentina",-18.42,-69.092,6071,0,63,2290,45906
355021,Tambo Quemado,Pyroclastic shield,Unknown,Bolivia,South America,"Northern Chile, Bolivia and Argentina",-18.62,-68.75,4215,113,541,4293,48050
355030,Isluga,Stratovolcano,1913,Chile,South America,"Northern Chile, Bolivia and Argentina",-19.15,-68.83,5550,1,703,5961,32205
355032,Tata Sabaya,Stratovolcano,Unknown,Bolivia,South America,"Northern Chile, Bolivia and Argentina",-19.13,-68.53,5430,97,519,6266,40064
355035,"Jayu Khota, Laguna",Maar(s),Unknown,Bolivia,South America,"Northern Chile, Bolivia and Argentina",-19.463,-67.432,3650,176,856,6757,70825
355036,Jatun Mundo Quri Warani,Lava dome(s),Unknown,Bolivia,South America,"Northern Chile, Bolivia and Argentina",-19.78,-66.48,5438,73,341,6186,314777
355042,Pampa Luxsar,Volcanic field,Unknown,Bolivia,South America,"Northern Chile, Bolivia and Argentina",-20.85,-68.2,5543,419,419,1391,16459
355090,Putana,Stratovolcano,1810,Chile,South America,"Northern Chile, Bolivia and Argentina",-22.557,-67.853,5884,24,80,1609,12788
355094,Purico Complex,Pyroclastic shield,Unknown,Chile,South America,"Northern Chile, Bolivia and Argentina",-23,-67.75,5703,0,11,1024,10741
355095,Colachi,Stratovolcano,Unknown,Chile,South America,"Northern Chile, Bolivia and Argentina",-23.236,-67.645,5631,0,3,238,7964
355096,Acamarachi,Stratovolcano,Unknown,Chile,South America,"Northern Chile, Bolivia and Argentina",-23.292,-67.618,6023,0,7,294,9092
355098,Chiliques,Stratovolcano,Unknown,Chile,South America,"Northern Chile, Bolivia and Argentina",-23.58,-67.7,5778,0,2,368,6797
355100,Lascar,Stratovolcano(es),2017,Chile,South America,"Northern Chile, Bolivia and Argentina",-23.37,-67.73,5592,0,70,570,8119
355101,Cordon de Puntas Negras,Stratovolcano(es),Unknown,Chile,South America,"Northern Chile, Bolivia and Argentina",-23.743,-67.534,5852,0,0,217,5798
355102,Miniques,Stratovolcano(es),Unknown,Chile,South America,"Northern Chile, Bolivia and Argentina",-23.82,-67.77,5910,3,39,505,5618
355103,"Tujle, Cerro",Maar,Unknown,Chile,South America,"Northern Chile, Bolivia and Argentina",-23.83,-67.95,3550,2,17,1968,5287
355104,Caichinque,Stratovolcano(es),Unknown,Chile,South America,"Northern Chile, Bolivia and Argentina",-23.949,-67.74,4458,0,8,148,6193
355105,Tilocalar,Lava cone(es),Unknown,Chile,South America,"Northern Chile, Bolivia and Argentina",-23.97,-68.13,3109,5,9,487,6154
355107,Pular,Stratovolcano(es),Unknown,Chile,South America,"Northern Chile, Bolivia and Argentina",-24.188,-68.054,6233,0,0,50,5000
355108,"Negrillar, La",Pyroclastic cone(s),Unknown,Chile,South America,"Northern Chile, Bolivia and Argentina",-24.319,-68.59,4220,19,104,791,9301
355150,Tuzgle,Stratovolcano,Unknown,Argentina,South America,"Northern Chile, Bolivia and Argentina",-24.05,-66.48,5486,42,217,4740,22953
355160,Aracar,Stratovolcano,Unknown,Argentina,South America,"Northern Chile, Bolivia and Argentina",-24.29,-67.783,6095,0,0,94,4803
355161,Unnamed,Pyroclastic cone,Unknown,Argentina,South America,"Northern Chile, Bolivia and Argentina",-25.078,-68.266,4652,0,61,123,6790
355180,Antofagasta Volcanic Field,Pyroclastic cone(s),Unknown,Argentina,South America,"Northern Chile, Bolivia and Argentina",-26.12,-67.4,3495,188,188,257,4295
355190,"Condor, El",Stratovolcano,Unknown,Argentina,South America,"Northern Chile, Bolivia and Argentina",-26.632,-68.361,6373,0,0,62,8951
355200,Peinado,Stratovolcano,Unknown,Argentina,South America,"Northern Chile, Bolivia and Argentina",-26.623,-68.116,5741,0,0,47,8585
355210,"Blanco, Cerro",Caldera,-2300,Argentina,South America,"Northern Chile, Bolivia and Argentina",-26.789,-67.765,4670,39,39,65,14279
355220,Tipas,Complex,Unknown,Argentina,South America,"Northern Chile, Bolivia and Argentina",-27.196,-68.561,6658,0,4,343,11101
356011,Rapa Nui,Shield(s),Unknown,Chile,South America,Pacific Ocean (Chilean Islands),-27.114,-109.356,501,698,4029,4091,4091
357022,Palomo,Stratovolcano,Unknown,Chile,South America,Central Chile and Argentina,-34.608,-70.295,4860,162,325,4732,965894
357023,"Atuel, Caldera del",Caldera,Unknown,Argentina,South America,Central Chile and Argentina,-34.65,-70.05,5189,297,297,1003,676916
357024,Risco Plateado,Stratovolcano,Unknown,Argentina,South America,Central Chile and Argentina,-34.917,-69.981,4999,0,0,522,190076
357030,Tinguiririca,Stratovolcano,1917,Chile,South America,Central Chile and Argentina,-34.814,-70.352,4280,10,47,1883,881383
357040,Planchon-Peteroa,Stratovolcano(es),2019,Chile,South America,Central Chile and Argentina,-35.223,-70.568,3977,6,48,1345,634959
357041,Infiernillo,Volcanic field,-6890,Argentina,South America,Central Chile and Argentina,-35.123,-69.9,3007,270,270,1374,40368
357042,Calabozos,Caldera,Unknown,Chile,South America,Central Chile and Argentina,-35.558,-70.496,3508,550,550,1023,305637
357050,Descabezado Grande,Stratovolcano(es),1933,Chile,South America,Central Chile and Argentina,-35.58,-70.75,3953,39,142,3454,704116
357060,"Azul, Cerro",Stratovolcano,1967,Chile,South America,Central Chile and Argentina,-35.653,-70.761,3788,9,158,3832,720948
357061,"Maule, Laguna del",Caldera,-50,Chile,South America,Central Chile and Argentina,-36.058,-70.492,2162,1045,1045,1521,169334
357062,San Pedro-Pellado,Stratovolcano(es),Unknown,Chile,South America,Central Chile and Argentina,-35.989,-70.849,3621,12,208,4155,500494
357063,"Longavi, Nevado de",Stratovolcano,-4890,Chile,South America,Central Chile and Argentina,-36.193,-71.161,3242,17,141,3901,753797
357064,"Blancas, Lomas",Stratovolcano,Unknown,Chile,South America,Central Chile and Argentina,-36.286,-71.009,2268,127,398,1980,355814
357065,"Resago, Volcan",Pyroclastic cone,Unknown,Chile,South America,Central Chile and Argentina,-36.45,-70.92,1890,35,196,2095,268547
357066,Payun Matru,Shield,-5050,Argentina,South America,Central Chile and Argentina,-36.422,-69.241,3715,0,0,151,13636
357070,"Chillan, Nevados de",Stratovolcano,2022,Chile,South America,Central Chile and Argentina,-36.868,-71.378,3180,68,371,3733,512325
357072,Tromen Volcanic Plateau,Stratovolcano(es),1822,Argentina,South America,Central Chile and Argentina,-37.144,-70.033,4114,12,196,2928,47403
357080,Antuco,Stratovolcano,1869,Chile,South America,Central Chile and Argentina,-37.406,-71.349,2979,117,474,3872,381623
357081,Trolon,Lava dome(s),Unknown,Argentina,South America,Central Chile and Argentina,-37.738,-70.906,2360,17,235,2539,65041
357091,Callaqui,Stratovolcano,1980,Chile,South America,Central Chile and Argentina,-37.92,-71.45,3164,56,294,4354,400426
357092,"Marinaqui, Laguna",Pyroclastic cone(s),Unknown,Chile,South America,Central Chile and Argentina,-38.255,-71.167,2108,95,314,4640,85612
357093,Tolhuaca,Stratovolcano,-4000,Chile,South America,Central Chile and Argentina,-38.31,-71.645,2739,82,494,13873,567185
357100,Lonquimay,Stratovolcano,1990,Chile,South America,Central Chile and Argentina,-38.379,-71.586,2832,96,540,13635,504320
357101,Tralihue,Stratovolcano,Unknown,Argentina,South America,Central Chile and Argentina,-38.509,-70.898,2448,43,385,4621,97456
357102,"Blanca, Laguna",Volcanic field,Unknown,Argentina,South America,Central Chile and Argentina,-39.02,-70.37,1700,0,0,0,0
357110,Llaima,Stratovolcano,2009,Chile,South America,Central Chile and Argentina,-38.692,-71.729,3125,86,811,18568,630458
357111,Sollipulli,Caldera,1240,Chile,South America,Central Chile and Argentina,-38.97,-71.52,2282,2971,2971,8904,510741
357112,Caburgua-Huelemolle,Pyroclastic cone(s),-5050,Chile,South America,Central Chile and Argentina,-39.25,-71.75,1652,5951,5951,17774,521553
357120,Villarrica,Stratovolcano,2021,Chile,South America,Central Chile and Argentina,-39.42,-71.93,2847,477,1067,35118,667788
357121,Quetrupillan,Stratovolcano,255,Chile,South America,Central Chile and Argentina,-39.496,-71.722,2360,129,518,11191,269087
357123,Huanquihue Group,Stratovolcano(es),1750,Argentina,South America,Central Chile and Argentina,-39.887,-71.58,2189,22,108,3515,190322
357130,Mocho-Choshuenco,Stratovolcano(es),1937,Chile,South America,Central Chile and Argentina,-39.927,-72.027,2422,81,789,16633,401631
357140,Carran-Los Venados,Pyroclastic cone(s),1979,Chile,South America,Central Chile and Argentina,-40.35,-72.07,1114,4840,4840,9001,452820
357150,Puyehue-Cordon Caulle,Stratovolcano,2012,Chile,South America,Central Chile and Argentina,-40.59,-72.117,2236,129,783,7163,515357
357153,Antillanca Volcanic Complex,Stratovolcano(es),-230,Chile,South America,Central Chile and Argentina,-40.783,-72.15,1979,87,521,5986,530586
357160,Puntiagudo-Cordon Cenizos,Stratovolcano,1850,Chile,South America,Central Chile and Argentina,-40.969,-72.264,2493,30,284,5666,698814
358010,Osorno,Stratovolcano,1869,Chile,South America,Southern Chile and Argentina,-41.105,-72.496,2659,88,674,11964,655492
358012,Cayutue-La Vigueria,Pyroclastic cone(s),-190,Chile,South America,Southern Chile and Argentina,-41.3,-72.27,506,1737,1737,5482,451311
358020,Calbuco,Stratovolcano,2015,Chile,South America,Southern Chile and Argentina,-41.33,-72.618,1974,70,871,32265,575233
358022,Yate,Stratovolcano,1090,Chile,South America,Southern Chile and Argentina,-41.755,-72.396,2187,43,296,6135,315418
358023,Hornopiren,Stratovolcano,340,Chile,South America,Southern Chile and Argentina,-41.874,-72.431,1572,10,116,5345,332598
358024,Apagado,Pyroclastic cone,-590,Chile,South America,Southern Chile and Argentina,-41.88,-72.58,1210,5,44,4474,354002
358025,Crater Basalt Volcanic Field,Pyroclastic cone(s),Unknown,Argentina,South America,Southern Chile and Argentina,-42.018,-70.194,1344,448,448,1140,20539
358030,Huequi,Lava dome(s),1920,Chile,South America,Southern Chile and Argentina,-42.377,-72.578,1318,0,7,1076,107960
358040,Michinmahuida,Stratovolcano,1835,Chile,South America,Southern Chile and Argentina,-42.799,-72.445,2452,0,9,7989,64498
358041,Chaiten,Caldera,2011,Chile,South America,Southern Chile and Argentina,-42.833,-72.646,1122,8968,8968,9280,75311
358049,Yanteles,Stratovolcano(es),-6650,Chile,South America,Southern Chile and Argentina,-43.469,-72.782,1790,0,85,1348,44899
358050,Corcovado,Stratovolcano,-4920,Chile,South America,Southern Chile and Argentina,-43.189,-72.794,1826,5,67,5546,62134
358052,Melimoyu,Stratovolcano,200,Chile,South America,Southern Chile and Argentina,-44.08,-72.88,2400,0,6,211,12944
358053,Puyuhuapi,Pyroclastic cone(s),Unknown,Chile,South America,Southern Chile and Argentina,-44.3,-72.53,524,759,819,1063,17135
358054,Mentolat,Stratovolcano,1710,Chile,South America,Southern Chile and Argentina,-44.7,-73.08,1660,0,8,183,23675
358055,Cay,Stratovolcano,Unknown,Chile,South America,Southern Chile and Argentina,-45.059,-72.984,2090,0,10,104,74787
358056,Maca,Stratovolcano,1560,Chile,South America,Southern Chile and Argentina,-45.1,-73.17,2960,0,0,375,26903
358057,"Hudson, Cerro",Stratovolcano,2011,Chile,South America,Southern Chile and Argentina,-45.9,-72.97,1905,0,12,28,81642
358060,Lautaro,Stratovolcano,1979,Chile,South America,Southern Chile and Argentina,-49.019,-73.504,3542,0,0,46,2365
358062,Aguilera,Stratovolcano,-1250,Chile,South America,Southern Chile and Argentina,-50.33,-73.75,2546,0,0,103,5698
358063,Reclus,Pyroclastic cone,1908,Chile,South America,Southern Chile and Argentina,-50.964,-73.585,1000,0,1,420,12382
358064,Meullin,Volcanic field,Unknown,Chile,South America,Southern Chile and Argentina,-45.22,-73.05,1080,0,0,0,0
358070,"Burney, Monte",Stratovolcano,1910,Chile,South America,Southern Chile and Argentina,-52.33,-73.4,1758,0,0,0,3309
358090,Fueguino,Lava dome(s),1820,Chile,South America,Southern Chile and Argentina,-54.97,-70.262,157,18,78,294,1296
360010,Saba,Stratovolcano,1640,Netherlands,West Indies,West Indies,17.63,-63.23,887,1718,1718,1752,136185
360020,"Quill, The",Stratovolcano,250,Netherlands,West Indies,West Indies,17.478,-62.96,601,2195,2195,8361,134936
360030,Liamuiga,Stratovolcano,160,Saint Kitts and Nevis,West Indies,West Indies,17.37,-62.8,1156,2009,7285,35138,141136
360040,Nevis Peak,Stratovolcano,Unknown,Saint Kitts and Nevis,West Indies,West Indies,17.15,-62.58,985,5363,9541,35673,132863
360050,Soufriere Hills,Stratovolcano,2013,United Kingdom,West Indies,West Indies,16.72,-62.18,915,3006,9401,9458,448929
360060,Soufriere Guadeloupe,Stratovolcano,1977,France,West Indies,West Indies,16.044,-61.664,1467,8839,71345,256899,482449
360080,"Diables, Morne aux",Lava dome(s),Unknown,Dominica,West Indies,West Indies,15.612,-61.43,861,8048,12036,33148,479470
360090,"Diablotins, Morne",Stratovolcano,Unknown,Dominica,West Indies,West Indies,15.503,-61.397,1430,423,9775,69935,513702
360100,"Trois Pitons, Morne",Complex,920,Dominica,West Indies,West Indies,15.37,-61.33,1387,2493,29522,62348,687847
360101,"Watt, Morne",Stratovolcano(es),1997,Dominica,West Indies,West Indies,15.307,-61.305,1224,1818,35821,63178,545352
360110,"Plat Pays, Morne",Stratovolcano,1270,Dominica,West Indies,West Indies,15.255,-61.341,940,11227,38372,57856,557207
360120,Pelee,Stratovolcano,1932,France,West Indies,West Indies,14.809,-61.165,1394,251,5025,382633,609576
360140,Qualibou,Caldera,1766,Saint Lucia,West Indies,West Indies,13.83,-61.05,777,87921,87921,172439,690495
360150,Soufriere St. Vincent,Stratovolcano,2021,Saint Vincent and the Grenadines,West Indies,West Indies,13.33,-61.18,1220,1491,15327,103882,291476
360160,Kick 'em Jenny,Submarine,2017,Grenada,West Indies,West Indies,12.3,-61.64,-185,0,4687,72786,104256
360170,St. Catherine,Stratovolcano,Unknown,Grenada,West Indies,West Indies,12.15,-61.67,840,8561,41976,84210,93321
370010,Snaefellsjokull,Stratovolcano,200,Iceland,Iceland and Arctic Ocean,Iceland (western),64.8,-23.783,1446,9,129,2264,11820
370020,Helgrindur,Pyroclastic cone(s),Unknown,Iceland,Iceland and Arctic Ocean,Iceland (western),64.866,-23.283,986,753,753,2312,20018
370030,Ljosufjoll,Fissure vent(s),960,Iceland,Iceland and Arctic Ocean,Iceland (western),64.9,-22.483,1063,713,713,1511,192797
371020,Reykjanes,Crater rows,1831,Iceland,Iceland and Arctic Ocean,Iceland (southwestern),63.817,-22.717,140,13995,13995,15542,192922
371022,Eldey,Submarine,1926,Iceland,Iceland and Arctic Ocean,Iceland (northeastern),63.733,-23,70,0,0,0,0
371030,Krysuvik-Trolladyngja,Crater rows,2021,Iceland,Iceland and Arctic Ocean,Iceland (southwestern),63.917,-22.067,360,29070,29070,164484,195915
371040,Brennisteinsfjoll,Crater rows,1341,Iceland,Iceland and Arctic Ocean,Iceland (southwestern),63.933,-21.783,610,33526,33526,163469,203012
371050,Hengill,Crater rows,150,Iceland,Iceland and Arctic Ocean,Iceland (southwestern),64.083,-21.416,803,5722,5722,124106,204855
371051,Hromundartindur,Stratovolcano,Unknown,Iceland,Iceland and Arctic Ocean,Iceland (southwestern),64.083,-21.333,550,5738,5738,26028,201964
371060,Grimsnes,Crater rows,-3500,Iceland,Iceland and Arctic Ocean,Iceland (southwestern),64.05,-20.883,200,6253,6253,11236,197798
371070,Prestahnukur,Subglacial,-3350,Iceland,Iceland and Arctic Ocean,Iceland (southwestern),64.583,-20.666,1385,60,60,233,183485
371080,Oddnyjarhnjukur-Langjokull,Subglacial,950,Iceland,Iceland and Arctic Ocean,Iceland (southwestern),64.85,-19.7,1100,0,0,5,11973
371090,Hofsjokull,Subglacial,Unknown,Iceland,Iceland and Arctic Ocean,Iceland (southwestern),64.833,-18.766,1765,0,0,0,3436
372010,Vestmannaeyjar,Submarine,1973,Iceland,Iceland and Arctic Ocean,Iceland (southern),63.416,-20.266,283,1685,1685,2188,17538
372020,Eyjafjallajokull,Stratovolcano,2010,Iceland,Iceland and Arctic Ocean,Iceland (southern),63.633,-19.633,1651,0,4,786,18516
372030,Katla,Subglacial,1918,Iceland,Iceland and Arctic Ocean,Iceland (southern),63.633,-19.083,1490,0,0,473,11326
372040,Tindfjallajokull,Stratovolcano,Unknown,Iceland,Iceland and Arctic Ocean,Iceland (southern),63.783,-19.716,1464,0,0,833,19159
372050,Torfajokull,Stratovolcano,1477,Iceland,Iceland and Arctic Ocean,Iceland (southern),63.892,-19.122,1280,0,0,7,16304
372070,Hekla,Stratovolcano,2000,Iceland,Iceland and Arctic Ocean,Iceland (southern),63.983,-19.666,1490,0,0,298,22845
373010,Grimsvotn,Caldera,2011,Iceland,Iceland and Arctic Ocean,Iceland (northeastern),64.416,-17.316,1719,0,0,0,1736
373012,Thordarhyrna,Stratovolcano,1904,Iceland,Iceland and Arctic Ocean,Iceland (southern),64.267,-17.617,1650,0,0,0,0
373030,Bardarbunga,Stratovolcano,2015,Iceland,Iceland and Arctic Ocean,Iceland (northeastern),64.633,-17.516,2000,0,0,0,1348
373040,Tungnafellsjokull,Stratovolcano,Unknown,Iceland,Iceland and Arctic Ocean,Iceland (northeastern),64.75,-17.916,1523,0,0,0,927
373050,Kverkfjoll,Stratovolcano,1968,Iceland,Iceland and Arctic Ocean,Iceland (northeastern),64.653,-16.647,1930,0,0,0,2901
373060,Askja,Stratovolcano,1961,Iceland,Iceland and Arctic Ocean,Iceland (northeastern),65.033,-16.783,1080,0,0,0,13028
373070,Fremrinamar,Stratovolcano,-1200,Iceland,Iceland and Arctic Ocean,Iceland (northeastern),65.416,-16.666,970,0,0,476,19143
373080,Krafla,Caldera,1984,Iceland,Iceland and Arctic Ocean,Iceland (northeastern),65.715,-16.728,800,384,384,1258,25667
373082,Heidarspordar,Fissure vent,-300,Iceland,Iceland and Arctic Ocean,Iceland (northeastern),65.583,-16.817,490,0,0,0,0
373090,Theistareykir,Shield,-900,Iceland,Iceland and Arctic Ocean,Iceland (northeastern),65.883,-16.967,563,0,36,3711,25779
373100,Tjornes Fracture Zone,Submarine,1868,Iceland,Iceland and Arctic Ocean,Iceland (northeastern),66.309,-17.118,-75,0,0,807,22407
374010,Oraefajokull,Stratovolcano,1728,Iceland,Iceland and Arctic Ocean,Iceland (southeastern),64,-16.65,2010,0,2,367,2723
374020,Esjufjoll,Stratovolcano,Unknown,Iceland,Iceland and Arctic Ocean,Iceland (southeastern),64.25,-16.583,1620,0,0,0,2564
374801,Snaefell,Stratovolcano,Unknown,Iceland,Iceland and Arctic Ocean,Iceland (southeastern),64.798,-15.56,1833,0,0,0,0
375010,Kolbeinsey Ridge,Submarine,1755,Iceland,Iceland and Arctic Ocean,North of Iceland,66.67,-18.5,5,0,0,282,6146
376010,Jan Mayen,Stratovolcano,1985,Norway,Iceland and Arctic Ocean,Atlantic Ocean (Jan Mayen),71.082,-8.155,2197,0,0,0,0
382001,Flores,Stratovolcano(es),-950,Portugal,Atlantic Ocean,Azores,39.462,-31.216,914,1054,4560,5825,5865
382010,Fayal,Stratovolcano,1958,Portugal,Atlantic Ocean,Azores,38.576,-28.713,1041,1514,13757,24414,50663
382020,Pico,Stratovolcano,1720,Portugal,Atlantic Ocean,Azores,38.47,-28.4,2351,304,5944,31521,56736
382030,Sao Jorge,Fissure vent,1907,Portugal,Atlantic Ocean,Azores,38.65,-28.08,1053,2088,4689,16290,99442
382040,Graciosa,Stratovolcano,-1950,Portugal,Atlantic Ocean,Azores,39.02,-27.97,402,2500,5941,6153,96656
382050,Terceira,Stratovolcano(es),2000,Portugal,Atlantic Ocean,Azores,38.73,-27.32,1023,2928,12299,55425,81512
382070,Don Joao de Castro Bank,Submarine,1720,Portugal,Atlantic Ocean,Azores,38.23,-26.63,-13,0,0,0,116504
382080,Sete Cidades,Stratovolcano,1880,Portugal,Atlantic Ocean,Azores,37.865,-25.785,842,3515,10365,102848,127154
382081,Picos Fissural Volcanic System,Pyroclastic cone(s),1652,Portugal,Atlantic Ocean,Azores,37.78,-25.67,350,115732,115732,123990,139730
382090,Agua de Pau,Stratovolcano,1564,Portugal,Atlantic Ocean,Azores,37.77,-25.47,947,406,17272,113131,119653
382100,Furnas,Stratovolcano,1630,Portugal,Atlantic Ocean,Azores,37.77,-25.32,805,1333,7310,87865,153182
382110,Monaco Bank,Submarine,1911,Portugal,Atlantic Ocean,Azores,37.6,-25.88,-197,0,0,70224,139971
382120,Madeira,Shield,-4500,Portugal,Atlantic Ocean,Azores,32.73,-16.97,1862,209816,209816,215730,220977
383010,La Palma,Stratovolcano(es),2021,Spain,Atlantic Ocean,Canary Islands,28.57,-17.83,2426,442,18506,55922,85416
383020,Hierro,Shield,2012,Spain,Atlantic Ocean,Canary Islands,27.73,-18.03,1500,20321,20321,20321,43696
383030,Tenerife,Stratovolcano,1909,Spain,Atlantic Ocean,Canary Islands,28.271,-16.641,3715,0,156,337660,766276
383040,Gran Canaria,Fissure vent(s),40,Spain,Atlantic Ocean,Canary Islands,28,-15.58,1950,1101,8049,697199,1119998
383050,Fuerteventura,Fissure vent(s),Unknown,Spain,Atlantic Ocean,Canary Islands,28.358,-14.02,529,1432,8752,52038,226781
383060,Lanzarote,Fissure vent(s),1824,Spain,Atlantic Ocean,Canary Islands,29.03,-13.63,670,19033,80515,164123,225373
384010,Fogo,Stratovolcano,2015,Cape Verde,Atlantic Ocean,Cape Verde Islands,14.95,-24.35,2829,189,13254,37650,267298
384020,Brava,Stratovolcano,Unknown,Cape Verde,Atlantic Ocean,Cape Verde Islands,14.85,-24.72,900,5631,6644,25852,43281
385050,Ascension,Stratovolcano,1508,United Kingdom,Atlantic Ocean,Atlantic Ocean (central),-7.95,-14.37,858,614,1149,1149,1149
386010,Tristan da Cunha,Shield,1962,United Kingdom,Atlantic Ocean,Atlantic Ocean (southern),-37.092,-12.28,2060,12,12,12,32
386011,Nightingale Island,Stratovolcano,2004,United Kingdom,Atlantic Ocean,Atlantic Ocean (southern),-37.42,-12.48,365,0,0,27,258
386020,Bouvet,Shield,-50,Norway,Atlantic Ocean,Atlantic Ocean (southern),-54.408,3.351,741,0,0,0,0
390010,Buckle Island,Stratovolcano,1899,Antarctica,Antarctica,Antarctica and South Sandwich Islands,-66.78,163.25,1239,0,0,0,0
390011,Young Island,Stratovolcano,Unknown,Antarctica,Antarctica,Antarctica and South Sandwich Islands,-66.42,162.47,1340,0,0,0,0
390012,Sturge Island,Stratovolcano,Unknown,Antarctica,Antarctica,Antarctica and South Sandwich Islands,-67.4,164.83,1167,0,0,0,0
390013,"Pleiades, The",Stratovolcano,-1050,Antarctica,Antarctica,Antarctica and South Sandwich Islands,-72.67,165.5,3040,0,0,0,0
390015,Melbourne,Stratovolcano,1892,Antarctica,Antarctica,Antarctica and South Sandwich Islands,-74.35,164.7,2732,0,0,0,0
390016,Unnamed,Submarine,Unknown,Antarctica,Antarctica,Antarctica and South Sandwich Islands,-76.83,163,-500,0,0,0,0
390017,Morning,Shield,Unknown,Antarctica,Antarctica,Antarctica and South Sandwich Islands,-78.5,163.53,2723,0,0,0,0
390020,Erebus,Stratovolcano,2022,Antarctica,Antarctica,Antarctica and South Sandwich Islands,-77.53,167.17,3794,0,0,0,0
390021,Royal Society Range,Pyroclastic cone(s),Unknown,Antarctica,Antarctica,Antarctica and South Sandwich Islands,-78.25,163.33,3000,0,0,0,0
390022,Berlin,Shield(s),-8350,Antarctica,Antarctica,Antarctica and South Sandwich Islands,-76.05,-136,3478,0,0,0,0
390023,Andrus,Shield(s),Unknown,Antarctica,Antarctica,Antarctica and South Sandwich Islands,-75.8,-132.33,2978,0,0,0,0
390027,Takahe,Shield,-5550,Antarctica,Antarctica,Antarctica and South Sandwich Islands,-76.28,-112.08,3460,0,0,0,0
390028,Hudson Mountains,Stratovolcano(es),-210,Antarctica,Antarctica,Antarctica and South Sandwich Islands,-74.33,-99.42,749,0,0,0,0
390030,Deception Island,Caldera,1970,Antarctica,Antarctica,Antarctica and South Sandwich Islands,-63.001,-60.652,602,0,0,0,0
390031,Penguin Island,Stratovolcano,1905,Antarctica,Antarctica,Antarctica and South Sandwich Islands,-62.1,-57.93,180,0,0,0,0
390040,Bridgeman Island,Stratovolcano,Unknown,Antarctica,Antarctica,Antarctica and South Sandwich Islands,-62.063,-56.713,240,0,0,0,0
390041,Paulet,Pyroclastic cone,Unknown,Antarctica,Antarctica,Antarctica and South Sandwich Islands,-63.579,-55.78,353,0,0,0,0
390070,Southern Thule,Stratovolcano(es),1975,United Kingdom,Antarctica,Antarctica and South Sandwich Islands,-59.442,-27.225,1075,0,0,0,0
390080,Bristol Island,Stratovolcano,2016,United Kingdom,Antarctica,Antarctica and South Sandwich Islands,-59.017,-26.533,1100,0,0,0,0
390081,Montagu Island,Shield,2007,United Kingdom,Antarctica,Antarctica and South Sandwich Islands,-58.445,-26.374,1370,0,0,0,0
390090,Saunders,Stratovolcano,2022,United Kingdom,Antarctica,Antarctica and South Sandwich Islands,-57.8,-26.483,843,0,0,0,0
390100,Candlemas Island,Stratovolcano,1911,United Kingdom,Antarctica,Antarctica and South Sandwich Islands,-57.08,-26.67,550,0,0,0,0
390110,Hodson,Stratovolcano,Unknown,United Kingdom,Antarctica,Antarctica and South Sandwich Islands,-56.712,-27.176,835,0,0,0,0
390120,Leskov Island,Stratovolcano,Unknown,United Kingdom,Antarctica,Antarctica and South Sandwich Islands,-56.656,-28.14,190,0,0,0,0
390130,Zavodovski,Stratovolcano,2016,United Kingdom,Antarctica,Antarctica and South Sandwich Islands,-56.3,-27.57,551,0,0,0,0
390140,Protector Seamounts,Submarine,1962,United Kingdom,Antarctica,Antarctica and South Sandwich Islands,-55.912,-28.167,-55,0,0,0,0
390829,Mount Haddington Volcanic Field,Shield,Unknown,Antarctica,Antarctica,Antarctica and South Sandwich Islands,-64.15,-57.75,1630,0,0,0,0
390847,Melville,Stratovolcano,Unknown,Antarctica,Antarctica,Antarctica and South Sandwich Islands,-62.02,-57.67,549,0,0,0,0
